{"type":"FeatureCollection","name":"yongin_city_solar_top30","metadata":{"generated_on":"2026-08-10","source":"경기부동산포털 국공유지조회·연속지적도","owner_filter":"소유자 원문이 용인시와 정확히 일치","disclaimer":"설치 가능 확정이 아닌 현장조사 우선순위","feature_count":30},"features":[{"type":"Feature","id":"4146110400106870000","geometry":{"type":"Polygon","coordinates":[[[127.2034841,37.2157892],[127.2034759,37.2157461],[127.2034718,37.2157297],[127.2034363,37.2155902],[127.2034272,37.2155693],[127.2033639,37.2154242],[127.2033703,37.2153981],[127.2033488,37.2153798],[127.2033114,37.2153479],[127.2032862,37.2152998],[127.2032899,37.2152833],[127.203272,37.2152263],[127.2032742,37.2152253],[127.2032146,37.2151435],[127.2030859,37.2150398],[127.2030556,37.2150303],[127.2029176,37.2149871],[127.2027135,37.2149623],[127.2026216,37.2150144],[127.2025616,37.2149888],[127.2024028,37.2149837],[127.2024018,37.2149836],[127.2023558,37.2149821],[127.2023357,37.2149878],[127.2022236,37.2150199],[127.2020865,37.2150891],[127.2020134,37.215126],[127.2019243,37.2152468],[127.2019295,37.215269],[127.2019414,37.2153353],[127.2019375,37.2153437],[127.2019318,37.2153561],[127.2019221,37.2153649],[127.201907,37.2153833],[127.2019048,37.215386],[127.2018848,37.2154056],[127.2018659,37.2154428],[127.2017278,37.2155853],[127.2015988,37.2157338],[127.2014675,37.2158499],[127.2014261,37.215868],[127.2014159,37.2158724],[127.2014134,37.2158729],[127.2014205,37.215875],[127.2014257,37.2158766],[127.2015667,37.2159185],[127.2017719,37.2159794],[127.2019671,37.2160373],[127.202175,37.2161035],[127.2021948,37.2161098],[127.2023133,37.2161476],[127.2024285,37.2161845],[127.2024649,37.2161961],[127.2025149,37.2162122],[127.2025149,37.2162117],[127.2025145,37.216196],[127.2025053,37.2161899],[127.2024816,37.2161541],[127.2024798,37.2161533],[127.2024472,37.2161441],[127.2024081,37.2161198],[127.2023992,37.2160926],[127.2023968,37.2160853],[127.2024148,37.2160288],[127.2025522,37.2157515],[127.2027925,37.2156467],[127.2028342,37.2156547],[127.2028863,37.2156647],[127.2030041,37.2156873],[127.2033115,37.2156795],[127.2033318,37.2156818],[127.2033365,37.2156952],[127.2033671,37.2157309],[127.20339,37.2157576],[127.2034048,37.2157748],[127.2034451,37.2157877],[127.2034841,37.2157892]]]},"properties":{"pnu":"4146110400106870000","district":"처인구","locality":"남동","address":"용인시 처인구 남동 687","land_category":"주차장","area_sqm":13006.0,"area_band":"5,000㎡ 이상","interest_category":"주차장","solar_candidate":"Y","candidate_reason":"주차면 상부 태양광을 우선 검토할 지목; 면적 13,006㎡","priority_score":80,"source":"경기부동산포털 국공유지조회·연속지적도","source_date":"2026-08-10","rank":1}},{"type":"Feature","id":"4146110100105290000","geometry":{"type":"Polygon","coordinates":[[[127.2068049,37.2329844],[127.2070624,37.2329894],[127.207484,37.2329959],[127.2075802,37.2329467],[127.2076981,37.232853],[127.207816,37.2327593],[127.2079339,37.2326657],[127.2080518,37.2325721],[127.2081227,37.2325121],[127.2081936,37.2324522],[127.2082476,37.2324036],[127.2083016,37.232355],[127.2083669,37.2322916],[127.20839,37.2322692],[127.2083889,37.2322631],[127.2083865,37.2322572],[127.208383,37.2322518],[127.2083784,37.2322468],[127.2083729,37.2322425],[127.2083667,37.2322389],[127.2083598,37.2322362],[127.2083524,37.2322344],[127.2083448,37.2322336],[127.2081515,37.2322306],[127.2080187,37.2322281],[127.2079237,37.2322263],[127.2074039,37.2322165],[127.207163,37.2322119],[127.2070852,37.2322104],[127.2066789,37.2322031],[127.2066577,37.2322068],[127.2066376,37.2322133],[127.2066192,37.2322224],[127.2066031,37.232234],[127.2065898,37.2322477],[127.2065796,37.2322629],[127.2065485,37.232418],[127.2065477,37.2324711],[127.2065263,37.2328115],[127.2066181,37.2328923],[127.2066409,37.2329123],[127.2066616,37.2329305],[127.2066886,37.2329498],[127.2067194,37.2329652],[127.2067529,37.2329762],[127.2067883,37.2329825],[127.2068049,37.2329844]]]},"properties":{"pnu":"4146110100105290000","district":"처인구","locality":"김량장동","address":"용인시 처인구 김량장동 529","land_category":"주차장","area_sqm":10858.2,"area_band":"5,000㎡ 이상","interest_category":"주차장","solar_candidate":"Y","candidate_reason":"주차면 상부 태양광을 우선 검토할 지목; 면적 10,858㎡","priority_score":80,"source":"경기부동산포털 국공유지조회·연속지적도","source_date":"2026-08-10","rank":2}},{"type":"Feature","id":"4146311800110190386","geometry":{"type":"Polygon","coordinates":[[[127.0982092,37.296038],[127.098213,37.2960438],[127.0982482,37.2960265],[127.0982569,37.2960323],[127.0982655,37.2960382],[127.0982746,37.2960448],[127.0982827,37.2960512],[127.0982904,37.2960577],[127.0982979,37.2960645],[127.0983051,37.2960714],[127.098312,37.2960785],[127.0983166,37.2960836],[127.0983186,37.2960858],[127.0983249,37.2960933],[127.0983309,37.296101],[127.098336,37.296108],[127.0984129,37.2962174],[127.0984217,37.2962299],[127.0984328,37.2962335],[127.0984406,37.2962443],[127.0984432,37.2962483],[127.0984455,37.2962524],[127.0984476,37.2962566],[127.0984494,37.2962608],[127.0984499,37.296262],[127.098451,37.2962652],[127.0984524,37.2962695],[127.0984535,37.296274],[127.0984543,37.2962784],[127.0984657,37.2962831],[127.0984963,37.2964854],[127.0988024,37.2964855],[127.0992792,37.2964907],[127.0992792,37.2963945],[127.0993526,37.2963952],[127.0997771,37.2963993],[127.1001703,37.2964032],[127.1001657,37.2963762],[127.1001271,37.2963192],[127.1000624,37.296239],[127.1000494,37.2962257],[127.0999973,37.2961721],[127.0999862,37.2961607],[127.0999367,37.2961146],[127.0998654,37.2960561],[127.0998568,37.296049],[127.0998135,37.296034],[127.0997189,37.295981],[127.0996458,37.2959519],[127.0996168,37.2959403],[127.0996049,37.2959298],[127.0995213,37.2958963],[127.0994221,37.2958436],[127.0993827,37.2958221],[127.0993533,37.295806],[127.0993538,37.2958196],[127.0992818,37.295815],[127.0992819,37.2958456],[127.0991197,37.2958039],[127.098633,37.2958053],[127.0985459,37.2958055],[127.0985011,37.2958256],[127.0983527,37.2958057],[127.0982141,37.2958064],[127.0982128,37.2958973],[127.0982119,37.2959425],[127.0982097,37.2960137],[127.0982092,37.296038]]]},"properties":{"pnu":"4146311800110190386","district":"기흥구","locality":"보정동","address":"용인시 기흥구 보정동 1019-386","land_category":"주차장","area_sqm":9508.0,"area_band":"5,000㎡ 이상","interest_category":"주차장","solar_candidate":"Y","candidate_reason":"주차면 상부 태양광을 우선 검토할 지목; 면적 9,508㎡","priority_score":80,"source":"경기부동산포털 국공유지조회·연속지적도","source_date":"2026-08-10","rank":3}},{"type":"Feature","id":"4146311800113290000","geometry":{"type":"Polygon","coordinates":[[[127.1206429,37.3212827],[127.1207057,37.3212886],[127.1211585,37.3211352],[127.1214683,37.3211791],[127.1216498,37.3205421],[127.1216394,37.3200568],[127.1221028,37.3195316],[127.122438,37.3195299],[127.1221106,37.3188256],[127.1220923,37.3187862],[127.1220799,37.3188614],[127.1220727,37.3188899],[127.1220574,37.3189572],[127.1220286,37.3190663],[127.1220021,37.3191545],[127.1219648,37.3192632],[127.1219229,37.3193709],[127.1218765,37.3194774],[127.1218254,37.3195824],[127.1217702,37.3196863],[127.1217099,37.3197893],[127.1216457,37.3198877],[127.1213242,37.3203736],[127.1212983,37.3204076],[127.121186,37.3205312],[127.1210045,37.3207264],[127.1209417,37.3207961],[127.120866,37.3208861],[127.1207955,37.3209824],[127.1207541,37.3210473],[127.1207166,37.3211147],[127.1206827,37.3211839],[127.1206531,37.3212543],[127.1206429,37.3212827]]]},"properties":{"pnu":"4146311800113290000","district":"기흥구","locality":"보정동","address":"용인시 기흥구 보정동 1329","land_category":"주차장","area_sqm":8450.2,"area_band":"5,000㎡ 이상","interest_category":"주차장","solar_candidate":"Y","candidate_reason":"주차면 상부 태양광을 우선 검토할 지목; 면적 8,450㎡","priority_score":80,"source":"경기부동산포털 국공유지조회·연속지적도","source_date":"2026-08-10","rank":4}},{"type":"Feature","id":"4146125022103610000","geometry":{"type":"Polygon","coordinates":[[[127.243026,37.2758048],[127.2430443,37.2758272],[127.243075,37.2758616],[127.2431075,37.275895],[127.2431415,37.2759271],[127.2431775,37.2759583],[127.2432149,37.2759882],[127.2432539,37.2760168],[127.2432942,37.2760441],[127.2433899,37.2761072],[127.2434933,37.276168],[127.2435741,37.276232],[127.2437167,37.2761968],[127.2438055,37.2761749],[127.2437123,37.2759972],[127.2440246,37.2759272],[127.2441394,37.2758923],[127.2442359,37.2758948],[127.2442373,37.2757492],[127.2442196,37.2757246],[127.2441073,37.2755691],[127.2439789,37.2753912],[127.2439773,37.275389],[127.2439717,37.2753812],[127.243966,37.2753734],[127.2439602,37.2753657],[127.2439545,37.2753579],[127.2439531,37.2753561],[127.2439487,37.2753502],[127.2439429,37.2753425],[127.243937,37.2753348],[127.2439311,37.2753271],[127.2439252,37.2753194],[127.2439192,37.2753118],[127.2439132,37.2753042],[127.2439072,37.2752965],[127.2439012,37.2752889],[127.2438951,37.2752814],[127.243889,37.2752738],[127.2438828,37.2752662],[127.2438766,37.2752587],[127.2438709,37.2752518],[127.2438704,37.2752512],[127.2438642,37.2752437],[127.2438579,37.2752362],[127.2438516,37.2752287],[127.2438453,37.2752213],[127.2438389,37.2752138],[127.2438325,37.2752064],[127.2438261,37.275199],[127.2438196,37.2751916],[127.2438131,37.2751842],[127.2438066,37.2751769],[127.2438065,37.2751767],[127.2438,37.2751696],[127.2437935,37.2751623],[127.2437868,37.275155],[127.2437802,37.2751477],[127.2437735,37.2751404],[127.2437668,37.2751332],[127.2437601,37.275126],[127.2437533,37.2751188],[127.2437465,37.2751116],[127.2437397,37.2751044],[127.2437328,37.2750973],[127.2437259,37.2750901],[127.243719,37.275083],[127.243712,37.2750759],[127.2437051,37.2750689],[127.243698,37.2750618],[127.243691,37.2750548],[127.2436839,37.2750477],[127.2436768,37.2750407],[127.2436697,37.2750338],[127.2436625,37.2750268],[127.2436553,37.2750199],[127.2436481,37.2750129],[127.2436409,37.275006],[127.2436336,37.2749992],[127.2436263,37.2749923],[127.2436189,37.2749854],[127.2436116,37.2749786],[127.2436042,37.2749718],[127.2435968,37.274965],[127.2435893,37.2749583],[127.2435818,37.2749515],[127.2435743,37.2749448],[127.2435668,37.2749381],[127.2435429,37.274917],[127.2435363,37.2749112],[127.2435286,37.2749046],[127.2435209,37.274898],[127.2435131,37.2748915],[127.2435051,37.2748851],[127.2434971,37.2748788],[127.243489,37.2748725],[127.2434809,37.2748663],[127.2434726,37.2748601],[127.2434643,37.2748541],[127.2434559,37.2748481],[127.2434474,37.2748421],[127.2434388,37.2748363],[127.2434302,37.2748305],[127.2434215,37.2748248],[127.2434127,37.2748191],[127.2434038,37.2748136],[127.2433949,37.2748081],[127.2433859,37.2748026],[127.2433768,37.2747973],[127.2433677,37.274792],[127.2433584,37.2747868],[127.2433492,37.2747817],[127.2433398,37.2747767],[127.2433304,37.2747717],[127.2433209,37.2747668],[127.2433114,37.274762],[127.2433018,37.2747573],[127.2432921,37.2747527],[127.2432824,37.2747481],[127.2432726,37.2747436],[127.2432628,37.2747392],[127.2432529,37.2747349],[127.2432429,37.2747306],[127.2432329,37.2747265],[127.2432229,37.2747224],[127.2432128,37.2747184],[127.2432026,37.2747145],[127.2431924,37.2747107],[127.2431821,37.274707],[127.2431718,37.2747033],[127.2431615,37.2746998],[127.2431203,37.2746858],[127.243134,37.2747007],[127.2432476,37.2748846],[127.2431785,37.2749096],[127.2432837,37.2750105],[127.2433463,37.2750705],[127.2434497,37.2751555],[127.2435014,37.275198],[127.2435544,37.2752954],[127.2436158,37.2754082],[127.2436498,37.2755125],[127.2436416,37.2755321],[127.2434111,37.2756342],[127.243026,37.2758048]]]},"properties":{"pnu":"4146125022103610000","district":"처인구","locality":"포곡읍 금어리","address":"용인시 처인구 포곡읍 금어리 361","land_category":"주차장","area_sqm":7474.0,"area_band":"5,000㎡ 이상","interest_category":"주차장","solar_candidate":"Y","candidate_reason":"주차면 상부 태양광을 우선 검토할 지목; 면적 7,474㎡","priority_score":80,"source":"경기부동산포털 국공유지조회·연속지적도","source_date":"2026-08-10","rank":5}},{"type":"Feature","id":"4146125622114650000","geometry":{"type":"Polygon","coordinates":[[[127.2185037,37.1159532],[127.2185015,37.1159565],[127.2184946,37.1159773],[127.218494,37.1159989],[127.2185197,37.1165036],[127.2185217,37.1165289],[127.2185706,37.1165541],[127.2187171,37.1166298],[127.2188322,37.1166555],[127.2188986,37.1166805],[127.2189429,37.1167055],[127.2190605,37.1167389],[127.2192384,37.1167379],[127.219378,37.1167381],[127.2194315,37.1167125],[127.219473,37.1166977],[127.2195034,37.1166966],[127.2196364,37.1166974],[127.219662,37.1166747],[127.2196745,37.1166635],[127.2197111,37.1166417],[127.2197258,37.1166378],[127.2196823,37.1165425],[127.2196511,37.1164828],[127.2196135,37.1164257],[127.2195696,37.1163713],[127.2195271,37.1163237],[127.219438,37.1162239],[127.2193943,37.1161793],[127.219345,37.1161378],[127.2192915,37.1160999],[127.219234,37.1160659],[127.2191732,37.116036],[127.2191094,37.1160101],[127.2190427,37.1159897],[127.2187629,37.1159237],[127.21872,37.1159146],[127.2186738,37.1159069],[127.2186074,37.1159003],[127.2185807,37.1159025],[127.2185552,37.1159098],[127.2185328,37.1159217],[127.2185145,37.1159375],[127.2185037,37.1159532]]]},"properties":{"pnu":"4146125622114650000","district":"처인구","locality":"이동읍 어비리","address":"용인시 처인구 이동읍 어비리 1465","land_category":"주차장","area_sqm":7079.4,"area_band":"5,000㎡ 이상","interest_category":"주차장","solar_candidate":"Y","candidate_reason":"주차면 상부 태양광을 우선 검토할 지목; 면적 7,079㎡","priority_score":80,"source":"경기부동산포털 국공유지조회·연속지적도","source_date":"2026-08-10","rank":6}},{"type":"Feature","id":"4146310400101140000","geometry":{"type":"Polygon","coordinates":[[[127.0951066,37.2512254],[127.0949783,37.2511664],[127.0948468,37.2510791],[127.0947541,37.2510057],[127.0947182,37.2509961],[127.0946488,37.2509949],[127.0945962,37.2509748],[127.0945109,37.2509401],[127.094411,37.2508121],[127.0942937,37.2507504],[127.0941622,37.2506294],[127.0940698,37.2505425],[127.093991,37.2504377],[127.09397,37.250403],[127.0939126,37.2503332],[127.0938209,37.2502647],[127.0937592,37.2502061],[127.0936622,37.2500951],[127.0935831,37.2499861],[127.0934696,37.2500141],[127.0934484,37.2501844],[127.0932762,37.2503723],[127.0934627,37.2505241],[127.0938109,37.2506993],[127.0936217,37.250975],[127.0935856,37.2509561],[127.0934756,37.250924],[127.0933626,37.2509244],[127.0933072,37.250943],[127.093216,37.2509856],[127.0931485,37.2509833],[127.0930449,37.2509238],[127.0929795,37.250924],[127.0928819,37.2509406],[127.09283,37.2509731],[127.0927377,37.2509788],[127.092648,37.2510219],[127.0925899,37.251027],[127.0925293,37.2510471],[127.0924826,37.2510475],[127.0924404,37.2510549],[127.0923956,37.2510702],[127.092381,37.2510708],[127.0923362,37.2510728],[127.0922818,37.251055],[127.0922292,37.2510437],[127.0921619,37.2510442],[127.0922332,37.2512092],[127.0922619,37.2514339],[127.0922585,37.2515839],[127.0922815,37.251582],[127.0923345,37.2515423],[127.0923671,37.251525],[127.0923691,37.2515243],[127.0924761,37.251484],[127.0925421,37.251465],[127.0927178,37.2514528],[127.0927552,37.2515363],[127.092931,37.2515516],[127.0930306,37.2515666],[127.0927568,37.2520154],[127.092869,37.2522492],[127.0933329,37.2521837],[127.0934738,37.252183],[127.0939033,37.2521828],[127.0944533,37.2521835],[127.0950447,37.2519864],[127.0949355,37.2516949],[127.0948638,37.2514042],[127.0950384,37.2513967],[127.0952261,37.2514018],[127.0952751,37.2514151],[127.0953099,37.2513265],[127.0952533,37.2513022],[127.0951066,37.2512254]]]},"properties":{"pnu":"4146310400101140000","district":"기흥구","locality":"하갈동","address":"용인시 기흥구 하갈동 114","land_category":"잡종지","area_sqm":33055.0,"area_band":"5,000㎡ 이상","interest_category":"잡종지","solar_candidate":"Y","candidate_reason":"실제 이용·점유 여부 확인 후 검토할 잡종지; 면적 33,055㎡","priority_score":75,"source":"경기부동산포털 국공유지조회·연속지적도","source_date":"2026-08-10","rank":7}},{"type":"Feature","id":"4146310400101140004","geometry":{"type":"Polygon","coordinates":[[[127.095079,37.2521633],[127.0950447,37.2519864],[127.0944533,37.2521835],[127.0939033,37.2521828],[127.0934738,37.252183],[127.0933329,37.2521837],[127.092869,37.2522492],[127.0927568,37.2520154],[127.0930306,37.2515666],[127.092931,37.2515516],[127.0927552,37.2515363],[127.0927178,37.2514528],[127.0925421,37.251465],[127.0924761,37.251484],[127.0923691,37.2515243],[127.0923671,37.251525],[127.0923345,37.2515423],[127.0922815,37.251582],[127.0922585,37.2515839],[127.092237,37.2515856],[127.0922071,37.2515789],[127.0921744,37.2515812],[127.0921492,37.2515966],[127.0921451,37.2516353],[127.0920918,37.251632],[127.0921796,37.2518288],[127.0922687,37.251981],[127.0923211,37.2521492],[127.0924002,37.2523056],[127.0924653,37.2524658],[127.0925311,37.252507],[127.0926563,37.2525797],[127.0926912,37.252625],[127.0927377,37.2526546],[127.0928204,37.2527071],[127.0928752,37.2527558],[127.0929568,37.2527597],[127.0930259,37.2527926],[127.0930893,37.25285],[127.0931708,37.2528123],[127.0932243,37.2527578],[127.0932322,37.2527497],[127.0932655,37.2527158],[127.0932253,37.2526529],[127.0931181,37.2525697],[127.0930996,37.2524857],[127.0931913,37.2524898],[127.0932792,37.2525146],[127.0932946,37.2526026],[127.0932962,37.2526211],[127.0933515,37.2526247],[127.0933545,37.2525995],[127.0933865,37.2525797],[127.0937859,37.2527592],[127.0936194,37.252952],[127.0936264,37.2529563],[127.0936598,37.2529868],[127.093701,37.2530041],[127.0937107,37.2530294],[127.093686,37.2530536],[127.0936809,37.2530618],[127.0936402,37.2531262],[127.0935893,37.2531304],[127.0935542,37.253182],[127.0936306,37.2532455],[127.093715,37.2533308],[127.0937485,37.2533727],[127.0937541,37.2533797],[127.093786,37.2533948],[127.0937913,37.2534421],[127.0938119,37.253526],[127.0938067,37.2536438],[127.0938394,37.2537372],[127.093866,37.2537939],[127.0939134,37.253735],[127.0938556,37.2535048],[127.0950035,37.253568],[127.0950333,37.2535415],[127.0950888,37.2522143],[127.095079,37.2521633]]]},"properties":{"pnu":"4146310400101140004","district":"기흥구","locality":"하갈동","address":"용인시 기흥구 하갈동 114-4","land_category":"잡종지","area_sqm":29045.0,"area_band":"5,000㎡ 이상","interest_category":"잡종지","solar_candidate":"Y","candidate_reason":"실제 이용·점유 여부 확인 후 검토할 잡종지; 면적 29,045㎡","priority_score":75,"source":"경기부동산포털 국공유지조회·연속지적도","source_date":"2026-08-10","rank":8}},{"type":"Feature","id":"4146510200110030074","geometry":{"type":"Polygon","coordinates":[[[127.1012623,37.3282492],[127.1012708,37.3282502],[127.1012924,37.3282574],[127.1013099,37.3282665],[127.1016047,37.3282653],[127.1022767,37.3282678],[127.1024802,37.3282704],[127.1026158,37.3282709],[127.1029573,37.3282721],[127.1029584,37.3282721],[127.1031792,37.328273],[127.1031848,37.328273],[127.1032972,37.3282734],[127.1036338,37.3282725],[127.1039724,37.3282735],[127.1043078,37.3282745],[127.1044961,37.328275],[127.1044915,37.3282028],[127.1044869,37.3281283],[127.1044702,37.3275136],[127.1044619,37.3273775],[127.1043105,37.327377],[127.1039751,37.3273764],[127.103637,37.3273758],[127.1032974,37.327373],[127.1031818,37.3273726],[127.1031761,37.3273726],[127.1029606,37.3273719],[127.1029595,37.3273719],[127.1026198,37.3273709],[127.1024912,37.3273705],[127.1022813,37.3273717],[127.1019447,37.3273706],[127.1016059,37.3273696],[127.1015005,37.3273688],[127.1012742,37.3273668],[127.1012672,37.3273667],[127.1012457,37.3273665],[127.1012446,37.3273665],[127.1012378,37.3274548],[127.101212,37.3278418],[127.1011919,37.3282447],[127.1012031,37.3282452],[127.101226,37.3282463],[127.1012481,37.3282473],[127.1012623,37.3282492]]]},"properties":{"pnu":"4146510200110030074","district":"수지구","locality":"죽전동","address":"용인시 수지구 죽전동 1003-74","land_category":"잡종지","area_sqm":28688.0,"area_band":"5,000㎡ 이상","interest_category":"잡종지","solar_candidate":"Y","candidate_reason":"실제 이용·점유 여부 확인 후 검토할 잡종지; 면적 28,688㎡","priority_score":75,"source":"경기부동산포털 국공유지조회·연속지적도","source_date":"2026-08-10","rank":9}},{"type":"Feature","id":"4146510200110030043","geometry":{"type":"Polygon","coordinates":[[[127.1013242,37.3291698],[127.1013319,37.3291968],[127.1015943,37.3291989],[127.1016595,37.3291992],[127.1019389,37.3292004],[127.1020535,37.3292009],[127.1023843,37.3292023],[127.1026139,37.3292033],[127.1028215,37.3292042],[127.102953,37.3292048],[127.1032952,37.3292063],[127.1036292,37.3292077],[127.1039723,37.3292087],[127.1043064,37.3292097],[127.104547,37.3292104],[127.1045269,37.328772],[127.1044976,37.328305],[127.1043036,37.3283043],[127.1039701,37.3283033],[127.1036295,37.3283022],[127.1032928,37.3283012],[127.1029555,37.3283002],[127.1028185,37.3282998],[127.1026148,37.3282992],[127.1023937,37.3282985],[127.1020456,37.3282975],[127.1019388,37.3282971],[127.1015992,37.3282961],[127.1013467,37.3282969],[127.1013566,37.3283093],[127.1013696,37.328334],[127.101373,37.3283522],[127.1013293,37.3290522],[127.1013242,37.3291698]]]},"properties":{"pnu":"4146510200110030043","district":"수지구","locality":"죽전동","address":"용인시 수지구 죽전동 1003-43","land_category":"잡종지","area_sqm":28068.0,"area_band":"5,000㎡ 이상","interest_category":"잡종지","solar_candidate":"Y","candidate_reason":"실제 이용·점유 여부 확인 후 검토할 잡종지; 면적 28,068㎡","priority_score":75,"source":"경기부동산포털 국공유지조회·연속지적도","source_date":"2026-08-10","rank":10}},{"type":"Feature","id":"4146510200110030098","geometry":{"type":"Polygon","coordinates":[[[127.101248,37.3273211],[127.101269,37.3273212],[127.1012771,37.3273213],[127.1015631,37.3273235],[127.1016085,37.3273212],[127.1016647,37.3273214],[127.1018156,37.3273218],[127.1019466,37.3273221],[127.1021301,37.3273226],[127.102283,37.327323],[127.1024742,37.3273235],[127.1026231,37.3273239],[127.1027909,37.3273244],[127.1029608,37.3273248],[127.1033009,37.3273255],[127.1035097,37.3273259],[127.103706,37.3273263],[127.1039662,37.3273268],[127.1042272,37.3273277],[127.1043135,37.327328],[127.1043163,37.3273281],[127.1044579,37.3273286],[127.1044541,37.3272527],[127.1044127,37.3264332],[127.1043177,37.3264326],[127.1042273,37.3264321],[127.1039742,37.3264306],[127.1039287,37.3264303],[127.1037157,37.326429],[127.103525,37.3264278],[127.1033003,37.3264265],[127.1031855,37.3264258],[127.1029628,37.3264244],[127.1027891,37.3264234],[127.1026226,37.3264224],[127.1024824,37.3264215],[127.1022854,37.3264203],[127.1021288,37.3264194],[127.1019503,37.3264183],[127.101814,37.3264175],[127.1016072,37.3264165],[127.1015591,37.3264164],[127.1013136,37.326416],[127.1013008,37.326416],[127.1012968,37.3265836],[127.1012887,37.3267651],[127.1012745,37.326992],[127.1012713,37.3270314],[127.1012493,37.3273045],[127.101248,37.3273211]]]},"properties":{"pnu":"4146510200110030098","district":"수지구","locality":"죽전동","address":"용인시 수지구 죽전동 1003-98","land_category":"잡종지","area_sqm":27982.0,"area_band":"5,000㎡ 이상","interest_category":"잡종지","solar_candidate":"Y","candidate_reason":"실제 이용·점유 여부 확인 후 검토할 잡종지; 면적 27,982㎡","priority_score":75,"source":"경기부동산포털 국공유지조회·연속지적도","source_date":"2026-08-10","rank":11}},{"type":"Feature","id":"4146125324100390003","geometry":{"type":"Polygon","coordinates":[[[127.2433438,37.3465575],[127.2436008,37.346637],[127.2438525,37.3467224],[127.2440636,37.3467941],[127.2441428,37.3467161],[127.2441866,37.3466729],[127.2442562,37.3465951],[127.2444219,37.3463901],[127.244524,37.3462682],[127.2446968,37.3461049],[127.2448715,37.3459306],[127.2449436,37.345816],[127.245059,37.345676],[127.2450808,37.3456237],[127.2450874,37.3456125],[127.2451735,37.3454676],[127.2452242,37.3453475],[127.2452458,37.345283],[127.2453297,37.3451118],[127.2453559,37.3450127],[127.2454041,37.3449245],[127.245427,37.3448607],[127.2454642,37.3447581],[127.2454911,37.3446846],[127.2454924,37.3446779],[127.2454983,37.3446208],[127.2455457,37.344525],[127.2455529,37.3444757],[127.2452983,37.3444528],[127.2452932,37.3444522],[127.2450308,37.3444246],[127.2449639,37.3444135],[127.2448532,37.3443957],[127.2448456,37.3443944],[127.2448204,37.3443901],[127.2447695,37.3443812],[127.2447185,37.3443724],[127.2447019,37.3443695],[127.2446736,37.3443628],[127.2446622,37.3443601],[127.2445747,37.3443392],[127.2445114,37.3443241],[127.2444122,37.3442971],[127.2443614,37.3444124],[127.2443172,37.3445247],[127.2442818,37.3446076],[127.2442626,37.3446476],[127.2442237,37.3447677],[127.2441718,37.34486],[127.2439862,37.3452252],[127.2440191,37.3452379],[127.2438802,37.3454726],[127.2438722,37.3454862],[127.2436927,37.3457774],[127.2435903,37.3459238],[127.2433434,37.3462943],[127.2432193,37.3465046],[127.2432112,37.3465164],[127.2433438,37.3465575]]]},"properties":{"pnu":"4146125324100390003","district":"처인구","locality":"모현읍 일산리","address":"용인시 처인구 모현읍 일산리 39-3","land_category":"잡종지","area_sqm":27393.0,"area_band":"5,000㎡ 이상","interest_category":"잡종지","solar_candidate":"Y","candidate_reason":"실제 이용·점유 여부 확인 후 검토할 잡종지; 면적 27,393㎡","priority_score":75,"source":"경기부동산포털 국공유지조회·연속지적도","source_date":"2026-08-10","rank":12}},{"type":"Feature","id":"4146510200110030122","geometry":{"type":"Polygon","coordinates":[[[127.1034931,37.3255663],[127.1034027,37.3255391],[127.103276,37.3255],[127.1032608,37.3254953],[127.1032459,37.3254953],[127.10296,37.3254951],[127.1026235,37.3254949],[127.1024449,37.3254947],[127.1022834,37.3254946],[127.1021437,37.3254945],[127.1020231,37.325494],[127.1018505,37.3254932],[127.1016059,37.3254886],[127.1014477,37.3254883],[127.101371,37.3254882],[127.1012787,37.3254881],[127.1012796,37.3254954],[127.1012822,37.3255395],[127.1012874,37.3256256],[127.101297,37.3258578],[127.1013016,37.3260399],[127.1013017,37.3260488],[127.1013017,37.3260489],[127.1013031,37.3262019],[127.1013033,37.3262209],[127.1013013,37.3263861],[127.1013135,37.3263862],[127.1016108,37.3263893],[127.1019337,37.3263909],[127.1020092,37.3263913],[127.1021268,37.3263919],[127.1022744,37.3263926],[127.1024322,37.3263936],[127.1026094,37.3263947],[127.102951,37.3263968],[127.1032892,37.3263988],[127.1034646,37.3263999],[127.1036289,37.3264009],[127.1038095,37.326402],[127.1039729,37.326403],[127.1040178,37.3264033],[127.104309,37.326405],[127.1043981,37.3264053],[127.1043858,37.3259298],[127.104321,37.3259331],[127.104258,37.3257765],[127.1039825,37.3257041],[127.1039666,37.3256972],[127.103752,37.3256388],[127.1036447,37.3256092],[127.1035388,37.3255801],[127.1034931,37.3255663]]]},"properties":{"pnu":"4146510200110030122","district":"수지구","locality":"죽전동","address":"용인시 수지구 죽전동 1003-122","land_category":"잡종지","area_sqm":25512.0,"area_band":"5,000㎡ 이상","interest_category":"잡종지","solar_candidate":"Y","candidate_reason":"실제 이용·점유 여부 확인 후 검토할 잡종지; 면적 25,512㎡","priority_score":75,"source":"경기부동산포털 국공유지조회·연속지적도","source_date":"2026-08-10","rank":13}},{"type":"Feature","id":"4146311100110030000","geometry":{"type":"Polygon","coordinates":[[[127.0657357,37.2725695],[127.0657198,37.2724998],[127.0657063,37.2723644],[127.0655753,37.2717875],[127.0655213,37.2715254],[127.0654481,37.2714832],[127.064766,37.2715707],[127.0643526,37.2716191],[127.0632476,37.2717607],[127.0632172,37.2717643],[127.0631779,37.2717657],[127.0631463,37.2717645],[127.0639411,37.2728503],[127.0655691,37.2726423],[127.0656215,37.2725842],[127.0657357,37.2725695]]]},"properties":{"pnu":"4146311100110030000","district":"기흥구","locality":"영덕동","address":"용인시 기흥구 영덕동 1003","land_category":"잡종지","area_sqm":24063.0,"area_band":"5,000㎡ 이상","interest_category":"잡종지","solar_candidate":"Y","candidate_reason":"실제 이용·점유 여부 확인 후 검토할 잡종지; 면적 24,063㎡","priority_score":75,"source":"경기부동산포털 국공유지조회·연속지적도","source_date":"2026-08-10","rank":14}},{"type":"Feature","id":"4146510700106090000","geometry":{"type":"Polygon","coordinates":[[[127.0730004,37.2966928],[127.0734218,37.29632],[127.0739138,37.2958848],[127.0739698,37.2958382],[127.0739924,37.2958207],[127.0740277,37.2957932],[127.0740878,37.29575],[127.0741501,37.2957087],[127.0742151,37.2956702],[127.0742819,37.2956337],[127.0743507,37.2955998],[127.0744214,37.2955683],[127.0744711,37.2955472],[127.074578,37.2954786],[127.07463,37.2954628],[127.0747074,37.2954404],[127.0747862,37.2954213],[127.0748658,37.2954045],[127.0749462,37.2953903],[127.0750275,37.2953793],[127.0750663,37.2953758],[127.0749955,37.2948687],[127.0749772,37.2947377],[127.0749733,37.2947103],[127.0749135,37.2946759],[127.0748622,37.2946452],[127.0748261,37.2946179],[127.0746438,37.2944854],[127.0746075,37.2944866],[127.0745681,37.2944879],[127.0744926,37.2944926],[127.0744834,37.2944933],[127.0744171,37.2944989],[127.074342,37.2945069],[127.0742671,37.2945162],[127.0741925,37.2945267],[127.0739803,37.2948181],[127.0739524,37.2948538],[127.073942,37.294867],[127.0739,37.2949141],[127.0737841,37.2950359],[127.0736173,37.2951902],[127.0735593,37.2952469],[127.0735211,37.2952888],[127.0735054,37.2953061],[127.0733385,37.2955008],[127.0732794,37.2955637],[127.0732161,37.2956236],[127.073179,37.2956569],[127.0731399,37.2956886],[127.073099,37.2957187],[127.0730563,37.2957472],[127.0730118,37.295774],[127.0729872,37.2957873],[127.0729657,37.295799],[127.0729181,37.2958221],[127.0728692,37.2958433],[127.0727693,37.2958841],[127.0727215,37.2959049],[127.0726751,37.2959272],[127.0726541,37.2959387],[127.072635,37.2959521],[127.0726179,37.295967],[127.072603,37.2959834],[127.0725904,37.2960009],[127.0725805,37.2960196],[127.0725732,37.296039],[127.0725687,37.2960589],[127.0725669,37.2960791],[127.0725682,37.2960993],[127.0725976,37.29633],[127.0726008,37.2963497],[127.0726055,37.2963782],[127.0726347,37.2965249],[127.0726515,37.2965321],[127.0726602,37.2965358],[127.0728712,37.2966355],[127.0728805,37.2966399],[127.0729161,37.2966598],[127.0729242,37.2966644],[127.0729862,37.2966875],[127.0730004,37.2966928]]]},"properties":{"pnu":"4146510700106090000","district":"수지구","locality":"상현동","address":"용인시 수지구 상현동 609","land_category":"잡종지","area_sqm":21828.1,"area_band":"5,000㎡ 이상","interest_category":"잡종지","solar_candidate":"Y","candidate_reason":"실제 이용·점유 여부 확인 후 검토할 잡종지; 면적 21,828㎡","priority_score":75,"source":"경기부동산포털 국공유지조회·연속지적도","source_date":"2026-08-10","rank":15}},{"type":"Feature","id":"4146311000107400000","geometry":{"type":"Polygon","coordinates":[[[127.0659246,37.2396099],[127.0659859,37.2396565],[127.0660489,37.2397014],[127.0661137,37.2397448],[127.0661801,37.2397865],[127.0662483,37.2398266],[127.0663178,37.2398649],[127.0663889,37.2399015],[127.0664614,37.2399363],[127.0665351,37.2399692],[127.0666102,37.2400003],[127.0666864,37.2400294],[127.0667637,37.2400567],[127.0668384,37.2400807],[127.0673811,37.2393468],[127.066493,37.2383469],[127.0663716,37.2383843],[127.0662493,37.2384194],[127.0661258,37.2384522],[127.0660014,37.2384826],[127.0658761,37.2385105],[127.0657499,37.238536],[127.0656231,37.238559],[127.0654956,37.2385796],[127.0653674,37.2385977],[127.065273,37.2386092],[127.0652873,37.2386516],[127.0653103,37.238712],[127.0653354,37.2387719],[127.0653627,37.2388311],[127.0653936,37.2388926],[127.065408,37.2389565],[127.0653854,37.2390089],[127.0654233,37.2390694],[127.0654636,37.2391287],[127.0655062,37.2391871],[127.065551,37.2392444],[127.0655982,37.2393005],[127.0656474,37.2393553],[127.0656988,37.239409],[127.0657523,37.2394613],[127.0658078,37.2395123],[127.0658653,37.2395618],[127.0659246,37.2396099]]]},"properties":{"pnu":"4146311000107400000","district":"기흥구","locality":"서천동","address":"용인시 기흥구 서천동 740","land_category":"잡종지","area_sqm":20646.9,"area_band":"5,000㎡ 이상","interest_category":"잡종지","solar_candidate":"Y","candidate_reason":"실제 이용·점유 여부 확인 후 검토할 잡종지; 면적 20,647㎡","priority_score":75,"source":"경기부동산포털 국공유지조회·연속지적도","source_date":"2026-08-10","rank":16}},{"type":"Feature","id":"4146310400101140005","geometry":{"type":"Polygon","coordinates":[[[127.0921006,37.2496543],[127.0918721,37.2495903],[127.0918978,37.2496544],[127.0918991,37.2497092],[127.0918939,37.2497261],[127.0918985,37.2497482],[127.0918565,37.2498188],[127.0917229,37.2498065],[127.0916717,37.2498032],[127.0917251,37.2499806],[127.0917651,37.2501133],[127.0917998,37.2500933],[127.0918253,37.2500828],[127.0918527,37.2501615],[127.0919065,37.2502839],[127.0918392,37.2502661],[127.0918643,37.2503894],[127.0919623,37.2508449],[127.0919907,37.2509593],[127.0920501,37.2510306],[127.0920984,37.2510283],[127.0921553,37.2510443],[127.0921619,37.2510442],[127.0922292,37.2510437],[127.0922818,37.251055],[127.0923362,37.2510728],[127.092381,37.2510708],[127.0923956,37.2510702],[127.0924404,37.2510549],[127.0924826,37.2510475],[127.0925293,37.2510471],[127.0925899,37.251027],[127.092648,37.2510219],[127.0927377,37.2509788],[127.09283,37.2509731],[127.0928819,37.2509406],[127.0929795,37.250924],[127.0930449,37.2509238],[127.0931485,37.2509833],[127.093216,37.2509856],[127.0933072,37.250943],[127.0933626,37.2509244],[127.0934756,37.250924],[127.0935856,37.2509561],[127.0936217,37.250975],[127.0938109,37.2506993],[127.0934627,37.2505241],[127.0932762,37.2503723],[127.0934484,37.2501844],[127.0934696,37.2500141],[127.0935831,37.2499861],[127.0935728,37.2499706],[127.0933843,37.2498748],[127.0932418,37.249809],[127.0931209,37.2497439],[127.0930161,37.2498607],[127.0926998,37.2497015],[127.0923593,37.2497268],[127.0922051,37.2496836],[127.0921006,37.2496543]]]},"properties":{"pnu":"4146310400101140005","district":"기흥구","locality":"하갈동","address":"용인시 기흥구 하갈동 114-5","land_category":"잡종지","area_sqm":20387.0,"area_band":"5,000㎡ 이상","interest_category":"잡종지","solar_candidate":"Y","candidate_reason":"실제 이용·점유 여부 확인 후 검토할 잡종지; 면적 20,387㎡","priority_score":75,"source":"경기부동산포털 국공유지조회·연속지적도","source_date":"2026-08-10","rank":17}},{"type":"Feature","id":"4146135029100740000","geometry":{"type":"Polygon","coordinates":[[[127.3698118,37.1502101],[127.369791,37.1503662],[127.369815,37.1504643],[127.3699218,37.1505996],[127.3699485,37.1506828],[127.3699806,37.1508061],[127.3699854,37.1508785],[127.3699891,37.1508873],[127.3699952,37.1509018],[127.3700508,37.1504634],[127.3703566,37.1504878],[127.3703869,37.1504903],[127.3706656,37.1505125],[127.3706877,37.1503548],[127.3707032,37.1502365],[127.3707415,37.1499711],[127.3707703,37.1498154],[127.3707801,37.1498174],[127.3707839,37.1497932],[127.370775,37.1497916],[127.3707912,37.1496983],[127.3707988,37.1496975],[127.3708161,37.1495865],[127.37082,37.149563],[127.3708246,37.1495391],[127.3708296,37.1495154],[127.3708351,37.1494917],[127.3708352,37.1494915],[127.3708387,37.1494777],[127.3708412,37.1494681],[127.3708429,37.1494622],[127.3708478,37.1494446],[127.3708534,37.149426],[127.3708549,37.1494211],[127.3708555,37.1494192],[127.3708625,37.1493978],[127.3708706,37.1493744],[127.3708841,37.149339],[127.3709091,37.1492761],[127.3709137,37.1492644],[127.3709137,37.1492643],[127.3709774,37.1490772],[127.3711016,37.1487308],[127.3710997,37.148759],[127.3711563,37.1486012],[127.3711849,37.1485216],[127.3710835,37.1485219],[127.3710382,37.1485221],[127.3709826,37.1485222],[127.3709303,37.1485224],[127.3708812,37.1485226],[127.3707927,37.1485228],[127.3706104,37.1485234],[127.3706078,37.148452],[127.3705864,37.1484384],[127.3704727,37.1484339],[127.3703337,37.1484376],[127.3702476,37.1484399],[127.3701175,37.1484351],[127.3700335,37.1484372],[127.3699034,37.1484714],[127.3699008,37.1485256],[127.3698988,37.1490275],[127.3698985,37.1490814],[127.3699744,37.1491532],[127.369996,37.1492422],[127.3699918,37.149296],[127.369952,37.1498074],[127.3699504,37.1498286],[127.3699352,37.149883],[127.3699155,37.1498831],[127.3698054,37.1498834],[127.3698118,37.1502101]]]},"properties":{"pnu":"4146135029100740000","district":"처인구","locality":"백암면 근삼리","address":"용인시 처인구 백암면 근삼리 74","land_category":"잡종지","area_sqm":19703.0,"area_band":"5,000㎡ 이상","interest_category":"잡종지","solar_candidate":"Y","candidate_reason":"실제 이용·점유 여부 확인 후 검토할 잡종지; 면적 19,703㎡","priority_score":75,"source":"경기부동산포털 국공유지조회·연속지적도","source_date":"2026-08-10","rank":18}},{"type":"Feature","id":"4146310200100330003","geometry":{"type":"Polygon","coordinates":[[[127.1243947,37.2681395],[127.124345,37.2682223],[127.1243919,37.2683043],[127.1244044,37.2683377],[127.1243747,37.2683375],[127.1242836,37.2683476],[127.1242296,37.2683624],[127.1241866,37.2683886],[127.1240982,37.2684767],[127.1243414,37.2686553],[127.1243739,37.2686407],[127.1250053,37.2683577],[127.125136,37.2682713],[127.1252697,37.2681693],[127.1254061,37.2680462],[127.125503,37.2679559],[127.1255297,37.2679058],[127.1255979,37.2679499],[127.1255734,37.2679664],[127.1255337,37.2680096],[127.1254362,37.2680793],[127.1253664,37.2681353],[127.1253047,37.2682102],[127.1252618,37.268246],[127.1254097,37.2681815],[127.1256546,37.2680748],[127.1258475,37.2679908],[127.1262832,37.2678357],[127.1265375,37.26776],[127.1267295,37.2677043],[127.1267351,37.2677027],[127.1270581,37.2676357],[127.1273959,37.2675758],[127.1274033,37.2675378],[127.1273935,37.2674747],[127.1271527,37.2675418],[127.1270832,37.2675755],[127.1269603,37.2675963],[127.1269257,37.2675064],[127.1270006,37.2674557],[127.1270285,37.2674326],[127.1271081,37.2673774],[127.127214,37.267329],[127.1271891,37.2673017],[127.1272233,37.2672622],[127.1271896,37.2672221],[127.1276345,37.2669241],[127.1277109,37.2670196],[127.1279708,37.2670729],[127.127899,37.2669814],[127.1276731,37.266894],[127.1275131,37.2668666],[127.1274145,37.2668609],[127.1273282,37.2668426],[127.1272596,37.2668164],[127.1272074,37.2667828],[127.1271831,37.2667496],[127.1271355,37.2667535],[127.1271107,37.2667093],[127.1270252,37.2667625],[127.1269482,37.2668198],[127.1268269,37.2669162],[127.1267372,37.2669955],[127.1267999,37.2670439],[127.1265939,37.2670354],[127.1265317,37.2670278],[127.1264608,37.2670355],[127.1263495,37.2670617],[127.1262374,37.2671299],[127.1261428,37.2671744],[127.1261021,37.2672064],[127.1260354,37.2672791],[127.1259564,37.2673361],[127.1259424,37.267344],[127.1259049,37.267365],[127.1258432,37.2674226],[127.1257933,37.2674301],[127.1257171,37.2674683],[127.1257037,37.2674861],[127.1257003,37.2675236],[127.1257141,37.2675705],[127.1256846,37.2676306],[127.1256226,37.2676633],[127.125549,37.2676938],[127.1255248,37.2677039],[127.125422,37.2677548],[127.125374,37.267762],[127.1253356,37.2677273],[127.1252885,37.2677182],[127.1252435,37.2677272],[127.1251038,37.2677463],[127.1250108,37.267774],[127.1249196,37.2678155],[127.1248307,37.2678583],[127.1247544,37.2679088],[127.1246947,37.2679458],[127.1246055,37.2680101],[127.124548,37.2680148],[127.1244971,37.2680245],[127.1244711,37.268047],[127.1244182,37.2681002],[127.124415,37.2681056],[127.1243947,37.2681395]]]},"properties":{"pnu":"4146310200100330003","district":"기흥구","locality":"구갈동","address":"용인시 기흥구 구갈동 33-3","land_category":"잡종지","area_sqm":18552.0,"area_band":"5,000㎡ 이상","interest_category":"잡종지","solar_candidate":"Y","candidate_reason":"실제 이용·점유 여부 확인 후 검토할 잡종지; 면적 18,552㎡","priority_score":75,"source":"경기부동산포털 국공유지조회·연속지적도","source_date":"2026-08-10","rank":19}},{"type":"Feature","id":"4146125028100030004","geometry":{"type":"MultiPolygon","coordinates":[[[[127.2260309,37.3021165],[127.226169,37.3023342],[127.2266126,37.3030353],[127.2266704,37.3031267],[127.2267244,37.3032104],[127.2268155,37.3033568],[127.2269046,37.3034994],[127.2269552,37.3035799],[127.227088,37.3037921],[127.2271102,37.3038293],[127.227242,37.3037895],[127.227465,37.3037564],[127.2278432,37.3037592],[127.2278886,37.3037466],[127.2279039,37.3037197],[127.2277727,37.3035028],[127.2277477,37.3034639],[127.227571,37.3031676],[127.2274516,37.3029659],[127.2274382,37.3029474],[127.2272437,37.3026283],[127.2271904,37.3025218],[127.2271892,37.3025193],[127.2271563,37.3024651],[127.2271157,37.3023982],[127.2270606,37.3022948],[127.2269917,37.3021642],[127.2269109,37.3021475],[127.2269838,37.3021494],[127.2268634,37.3019259],[127.2268261,37.3018932],[127.226786,37.3018831],[127.2267524,37.3018747],[127.2266756,37.3018896],[127.226393,37.3019889],[127.2263852,37.3019916],[127.2262233,37.3020509],[127.2260309,37.3021165]]],[[[127.2272071,37.3029043],[127.2270656,37.3027131],[127.2268095,37.3024405],[127.227158,37.3024887],[127.2271966,37.302656],[127.2272071,37.3029043]]]]},"properties":{"pnu":"4146125028100030004","district":"처인구","locality":"포곡읍 유운리","address":"용인시 처인구 포곡읍 유운리 3-4","land_category":"잡종지","area_sqm":14883.0,"area_band":"5,000㎡ 이상","interest_category":"잡종지","solar_candidate":"Y","candidate_reason":"실제 이용·점유 여부 확인 후 검토할 잡종지; 면적 14,883㎡","priority_score":75,"source":"경기부동산포털 국공유지조회·연속지적도","source_date":"2026-08-10","rank":20}},{"type":"Feature","id":"4146125929109040000","geometry":{"type":"Polygon","coordinates":[[[127.1687624,37.1364702],[127.1696891,37.1364161],[127.1704608,37.1363691],[127.1702274,37.1361637],[127.1701703,37.1360497],[127.1701571,37.1359092],[127.1700737,37.1357854],[127.1699034,37.1354806],[127.1687311,37.1355399],[127.168733,37.135644],[127.1687406,37.1358537],[127.1687511,37.1361472],[127.1687624,37.1364702]]]},"properties":{"pnu":"4146125929109040000","district":"처인구","locality":"남사읍 창리","address":"용인시 처인구 남사읍 창리 904","land_category":"잡종지","area_sqm":12778.6,"area_band":"5,000㎡ 이상","interest_category":"잡종지","solar_candidate":"Y","candidate_reason":"실제 이용·점유 여부 확인 후 검토할 잡종지; 면적 12,779㎡","priority_score":75,"source":"경기부동산포털 국공유지조회·연속지적도","source_date":"2026-08-10","rank":21}},{"type":"Feature","id":"4146510100111290000","geometry":{"type":"Polygon","coordinates":[[[127.0881603,37.3155985],[127.0880424,37.3156139],[127.0879486,37.3155592],[127.0885562,37.3149059],[127.0885106,37.3148666],[127.0884605,37.3148276],[127.0884326,37.3148116],[127.0883417,37.3147722],[127.0882484,37.3147366],[127.0881529,37.3147084],[127.0880527,37.3146862],[127.0879504,37.314676],[127.0878481,37.3146705],[127.0866651,37.3146346],[127.0866654,37.3146323],[127.0864954,37.3146337],[127.086497,37.3148673],[127.0880076,37.3157624],[127.0881603,37.3155985]]]},"properties":{"pnu":"4146510100111290000","district":"수지구","locality":"풍덕천동","address":"용인시 수지구 풍덕천동 1129","land_category":"잡종지","area_sqm":12295.1,"area_band":"5,000㎡ 이상","interest_category":"잡종지","solar_candidate":"Y","candidate_reason":"실제 이용·점유 여부 확인 후 검토할 잡종지; 면적 12,295㎡","priority_score":75,"source":"경기부동산포털 국공유지조회·연속지적도","source_date":"2026-08-10","rank":22}},{"type":"Feature","id":"4146125621104410001","geometry":{"type":"Polygon","coordinates":[[[127.1976336,37.1338284],[127.1968623,37.1334088],[127.1964963,37.1333729],[127.1961647,37.1337148],[127.1961791,37.1337323],[127.1960128,37.1339025],[127.1965958,37.1343226],[127.1967299,37.1344078],[127.1968975,37.1344642],[127.197088,37.1345877],[127.1972037,37.1346292],[127.1976615,37.1341144],[127.1976719,37.1341027],[127.1976336,37.1338284]]]},"properties":{"pnu":"4146125621104410001","district":"처인구","locality":"이동읍 송전리","address":"용인시 처인구 이동읍 송전리 441-1","land_category":"잡종지","area_sqm":12131.0,"area_band":"5,000㎡ 이상","interest_category":"잡종지","solar_candidate":"Y","candidate_reason":"실제 이용·점유 여부 확인 후 검토할 잡종지; 면적 12,131㎡","priority_score":75,"source":"경기부동산포털 국공유지조회·연속지적도","source_date":"2026-08-10","rank":23}},{"type":"Feature","id":"4146311700103390002","geometry":{"type":"Polygon","coordinates":[[[127.1273469,37.2666507],[127.1272999,37.266701],[127.1272368,37.2667432],[127.1271831,37.2667496],[127.1272074,37.2667828],[127.1272596,37.2668164],[127.1273282,37.2668426],[127.1274145,37.2668609],[127.1275131,37.2668666],[127.1276731,37.266894],[127.127899,37.2669814],[127.1279708,37.2670729],[127.1282254,37.2671302],[127.1282597,37.2673578],[127.1284764,37.2673887],[127.1291443,37.2672807],[127.1295686,37.2671531],[127.1296007,37.2671435],[127.1295487,37.2670542],[127.1293562,37.2671403],[127.1292996,37.2671561],[127.1291753,37.2671673],[127.1291703,37.2671212],[127.1292859,37.2671116],[127.1293315,37.2670988],[127.1295408,37.267003],[127.1294454,37.2667752],[127.1293409,37.2667141],[127.1291711,37.2666124],[127.1290667,37.2666021],[127.1285114,37.2665852],[127.1284544,37.2665643],[127.1283674,37.2665476],[127.128238,37.2665454],[127.1281373,37.2665665],[127.1280862,37.266571],[127.1279732,37.266627],[127.1279232,37.2666348],[127.127838,37.2666144],[127.1277289,37.2665923],[127.1275454,37.2666028],[127.1273469,37.2666507]]]},"properties":{"pnu":"4146311700103390002","district":"기흥구","locality":"상하동","address":"용인시 기흥구 상하동 339-2","land_category":"잡종지","area_sqm":11944.0,"area_band":"5,000㎡ 이상","interest_category":"잡종지","solar_candidate":"Y","candidate_reason":"실제 이용·점유 여부 확인 후 검토할 잡종지; 면적 11,944㎡","priority_score":75,"source":"경기부동산포털 국공유지조회·연속지적도","source_date":"2026-08-10","rank":24}},{"type":"Feature","id":"4146125324100380022","geometry":{"type":"Polygon","coordinates":[[[127.2448571,37.3470633],[127.2449826,37.3471059],[127.2449987,37.3470747],[127.245061,37.3469498],[127.2451079,37.34689],[127.2451331,37.3467946],[127.2451687,37.3467265],[127.245208,37.3466663],[127.2451705,37.3466388],[127.2452248,37.3465944],[127.2452348,37.3465144],[127.2452795,37.346518],[127.2453632,37.3462792],[127.2454377,37.3460124],[127.2454835,37.3458533],[127.245494,37.3457263],[127.2454995,37.3457003],[127.2455243,37.3455826],[127.2456165,37.3453613],[127.2455777,37.3453568],[127.245587,37.3453201],[127.2456239,37.3451756],[127.2455571,37.3450963],[127.2455629,37.3450258],[127.2455871,37.344937],[127.2456453,37.3447887],[127.2455604,37.3447778],[127.245547,37.3448607],[127.2455409,37.3448982],[127.2454927,37.3450129],[127.2454299,37.345117],[127.2453431,37.3452727],[127.2453128,37.345327],[127.2452571,37.3454689],[127.2452497,37.3454893],[127.2451813,37.3456021],[127.2451317,37.345666],[127.2451019,37.3457371],[127.2449984,37.3458559],[127.2448823,37.3460138],[127.2447752,37.3461217],[127.2446001,37.3462896],[127.2445016,37.3464171],[127.2443258,37.3466567],[127.2442701,37.3467065],[127.2442184,37.3467524],[127.2441558,37.3468254],[127.2444414,37.3469222],[127.2448571,37.3470633]]]},"properties":{"pnu":"4146125324100380022","district":"처인구","locality":"모현읍 일산리","address":"용인시 처인구 모현읍 일산리 38-22","land_category":"잡종지","area_sqm":11061.0,"area_band":"5,000㎡ 이상","interest_category":"잡종지","solar_candidate":"Y","candidate_reason":"실제 이용·점유 여부 확인 후 검토할 잡종지; 면적 11,061㎡","priority_score":75,"source":"경기부동산포털 국공유지조회·연속지적도","source_date":"2026-08-10","rank":25}},{"type":"Feature","id":"4146110600108200155","geometry":{"type":"Polygon","coordinates":[[[127.2169367,37.2563725],[127.2168253,37.2562844],[127.2166828,37.2571067],[127.2166423,37.2573304],[127.2165561,37.25782],[127.2164083,37.2583412],[127.2161852,37.2585712],[127.2162963,37.2588468],[127.2167291,37.258925],[127.2167936,37.2587755],[127.2169225,37.2583416],[127.2169834,37.2581376],[127.2169158,37.2580764],[127.216878,37.2579862],[127.2168799,37.2576915],[127.2169104,37.2575768],[127.2169439,37.2571235],[127.2170363,37.2568911],[127.2171307,37.2567663],[127.2172062,37.2566464],[127.2171547,37.2565926],[127.2169718,37.2564003],[127.2169367,37.2563725]]]},"properties":{"pnu":"4146110600108200155","district":"처인구","locality":"고림동","address":"용인시 처인구 고림동 820-155","land_category":"잡종지","area_sqm":9682.0,"area_band":"5,000㎡ 이상","interest_category":"잡종지","solar_candidate":"Y","candidate_reason":"실제 이용·점유 여부 확인 후 검토할 잡종지; 면적 9,682㎡","priority_score":75,"source":"경기부동산포털 국공유지조회·연속지적도","source_date":"2026-08-10","rank":26}},{"type":"Feature","id":"4146125626111300007","geometry":{"type":"Polygon","coordinates":[[[127.1971666,37.1826877],[127.1971871,37.1824665],[127.1971237,37.1821035],[127.1972234,37.18199],[127.1972131,37.1818807],[127.1972932,37.1817087],[127.1973554,37.1815898],[127.1975245,37.1812894],[127.1975629,37.1812069],[127.1975799,37.1808773],[127.1976428,37.1808074],[127.1977111,37.1807932],[127.1978927,37.1809752],[127.1981134,37.1811713],[127.1979229,37.1808571],[127.1977853,37.1807189],[127.1975808,37.1805076],[127.1974007,37.1808527],[127.197265,37.1809967],[127.1971565,37.1811455],[127.1971186,37.1812216],[127.1970753,37.1813566],[127.1970002,37.1815263],[127.1968909,37.1817212],[127.1968172,37.1818056],[127.196795,37.1819229],[127.196794,37.1820697],[127.1967595,37.1820725],[127.1967334,37.1822012],[127.1967377,37.1825355],[127.1967395,37.1826793],[127.1971666,37.1826877]]]},"properties":{"pnu":"4146125626111300007","district":"처인구","locality":"이동읍 덕성리","address":"용인시 처인구 이동읍 덕성리 1130-7","land_category":"잡종지","area_sqm":8233.0,"area_band":"5,000㎡ 이상","interest_category":"잡종지","solar_candidate":"Y","candidate_reason":"실제 이용·점유 여부 확인 후 검토할 잡종지; 면적 8,233㎡","priority_score":75,"source":"경기부동산포털 국공유지조회·연속지적도","source_date":"2026-08-10","rank":27}},{"type":"Feature","id":"4146125626110610001","geometry":{"type":"Polygon","coordinates":[[[127.1955477,37.1777383],[127.1953388,37.1778187],[127.195335,37.177825],[127.1952632,37.1779428],[127.1948617,37.1780237],[127.1948728,37.1782322],[127.1949754,37.1783106],[127.1952097,37.1783842],[127.1953073,37.1786846],[127.1955271,37.1788917],[127.1958824,37.1786782],[127.1959306,37.1786492],[127.1959011,37.1785953],[127.1960466,37.1785467],[127.1957606,37.1781055],[127.1957472,37.1781084],[127.1957201,37.1780082],[127.1956053,37.1777925],[127.1955477,37.1777383]]]},"properties":{"pnu":"4146125626110610001","district":"처인구","locality":"이동읍 덕성리","address":"용인시 처인구 이동읍 덕성리 1061-1","land_category":"잡종지","area_sqm":6932.0,"area_band":"5,000㎡ 이상","interest_category":"잡종지","solar_candidate":"Y","candidate_reason":"실제 이용·점유 여부 확인 후 검토할 잡종지; 면적 6,932㎡","priority_score":75,"source":"경기부동산포털 국공유지조회·연속지적도","source_date":"2026-08-10","rank":28}},{"type":"Feature","id":"4146110600109540003","geometry":{"type":"Polygon","coordinates":[[[127.2162963,37.2588468],[127.2161852,37.2585712],[127.2164083,37.2583412],[127.2165561,37.25782],[127.2166423,37.2573304],[127.2166828,37.2571067],[127.2168253,37.2562844],[127.2166761,37.2561662],[127.2166554,37.2561499],[127.2165786,37.2564347],[127.2165386,37.256602],[127.2164917,37.2568034],[127.2164513,37.257007],[127.2163673,37.2573143],[127.2163434,37.2574897],[127.2163061,37.2575875],[127.2162472,37.2578501],[127.2160755,37.2583409],[127.2159574,37.2586551],[127.2159194,37.2587825],[127.2159263,37.2587835],[127.2161155,37.2588141],[127.2162963,37.2588468]]]},"properties":{"pnu":"4146110600109540003","district":"처인구","locality":"고림동","address":"용인시 처인구 고림동 954-3","land_category":"잡종지","area_sqm":6844.0,"area_band":"5,000㎡ 이상","interest_category":"잡종지","solar_candidate":"Y","candidate_reason":"실제 이용·점유 여부 확인 후 검토할 잡종지; 면적 6,844㎡","priority_score":75,"source":"경기부동산포털 국공유지조회·연속지적도","source_date":"2026-08-10","rank":29}},{"type":"Feature","id":"4146125023104220002","geometry":{"type":"Polygon","coordinates":[[[127.2123731,37.2662456],[127.2125201,37.265755],[127.2124766,37.2657454],[127.2116747,37.2656666],[127.2115727,37.2656901],[127.2114601,37.2657742],[127.2111814,37.2660453],[127.2109916,37.2662308],[127.2110988,37.2663027],[127.2111405,37.2662675],[127.2113018,37.2662299],[127.2114101,37.2662857],[127.2121105,37.2661622],[127.2121816,37.2661617],[127.2121922,37.2661617],[127.2121948,37.2661616],[127.2123509,37.2662521],[127.2123731,37.2662456]]]},"properties":{"pnu":"4146125023104220002","district":"처인구","locality":"포곡읍 둔전리","address":"용인시 처인구 포곡읍 둔전리 422-2","land_category":"잡종지","area_sqm":6178.0,"area_band":"5,000㎡ 이상","interest_category":"잡종지","solar_candidate":"Y","candidate_reason":"실제 이용·점유 여부 확인 후 검토할 잡종지; 면적 6,178㎡","priority_score":75,"source":"경기부동산포털 국공유지조회·연속지적도","source_date":"2026-08-10","rank":30}}]}