{"type":"FeatureCollection","name":"gyeonggi_41110_province_solar_candidates","metadata":{"generated_on":"2026-08-11","source":"경기부동산포털 국공유지조회·연속지적도","source_agency":"경기도","ownership_source":"경기부동산포털 국공유지조회","coverage":"수원시","owner_code":"4","owner_type":"경기도유지","minimum_area_sqm":100.0,"feature_count":148,"coordinate_reference":"GRIS native values interpreted as EPSG:5174 and projected to EPSG:4326","coordinate_precision":"7 decimals, increased only when needed to keep narrow-parcel points inside","disclaimer":"설치 가능 확정이 아닌 현장조사 우선순위"},"features":[{"type":"Feature","id":"4111112900101810000","geometry":{"type":"Point","coordinates":[126.9911041,37.3137735]},"properties":{"pnu":"4111112900101810000","municipality_code":"41110","municipality":"수원시","district":"수원시 장안구","locality":"파장동","address":"수원시 장안구 파장동 181","owner_type":"경기도유지","owner_label":"경기도","manager":"도시개발국 자산개발과","property_class":"일반재산","land_category":"대","area_sqm":68303.7,"area_band":"5,000㎡ 이상","interest_category":"대","solar_candidate":"Y","candidate_reason":"청사·공공건축물·주차장 현황 추가 확인 필요; 면적 68,304㎡","priority_score":80,"source":"경기부동산포털 국공유지조회·연속지적도","source_date":"2026-08-11","installed_solar_match":false}},{"type":"Feature","id":"4111112900101850000","geometry":{"type":"Point","coordinates":[126.9925161,37.3154891]},"properties":{"pnu":"4111112900101850000","municipality_code":"41110","municipality":"수원시","district":"수원시 장안구","locality":"파장동","address":"수원시 장안구 파장동 185","owner_type":"경기도유지","owner_label":"경기도","manager":"도시개발국 자산개발과","property_class":"일반재산","land_category":"대","area_sqm":20723.2,"area_band":"5,000㎡ 이상","interest_category":"대","solar_candidate":"Y","candidate_reason":"청사·공공건축물·주차장 현황 추가 확인 필요; 면적 20,723㎡","priority_score":80,"source":"경기부동산포털 국공유지조회·연속지적도","source_date":"2026-08-11","installed_solar_match":false}},{"type":"Feature","id":"4111112900101790046","geometry":{"type":"Point","coordinates":[126.9896994,37.3156886]},"properties":{"pnu":"4111112900101790046","municipality_code":"41110","municipality":"수원시","district":"수원시 장안구","locality":"파장동","address":"수원시 장안구 파장동 179-46","owner_type":"경기도유지","owner_label":"경기도","manager":"도시개발국 자산개발과","property_class":"일반재산","land_category":"대","area_sqm":12391.3,"area_band":"5,000㎡ 이상","interest_category":"대","solar_candidate":"Y","candidate_reason":"청사·공공건축물·주차장 현황 추가 확인 필요; 면적 12,391㎡","priority_score":80,"source":"경기부동산포털 국공유지조회·연속지적도","source_date":"2026-08-11","installed_solar_match":false}},{"type":"Feature","id":"4111112900101840000","geometry":{"type":"Point","coordinates":[126.9908412,37.3157039]},"properties":{"pnu":"4111112900101840000","municipality_code":"41110","municipality":"수원시","district":"수원시 장안구","locality":"파장동","address":"수원시 장안구 파장동 184","owner_type":"경기도유지","owner_label":"경기도","manager":"도시개발국 자산개발과","property_class":"일반재산","land_category":"대","area_sqm":4428.5,"area_band":"3,000~5,000㎡","interest_category":"대","solar_candidate":"Y","candidate_reason":"청사·공공건축물·주차장 현황 추가 확인 필요; 면적 4,428㎡","priority_score":75,"source":"경기부동산포털 국공유지조회·연속지적도","source_date":"2026-08-11","installed_solar_match":false}},{"type":"Feature","id":"4111710700101230020","geometry":{"type":"Point","coordinates":[127.04409,37.2375712]},"properties":{"pnu":"4111710700101230020","municipality_code":"41110","municipality":"수원시","district":"수원시 영통구","locality":"망포동","address":"수원시 영통구 망포동 123-20","owner_type":"경기도유지","owner_label":"경기도","manager":"자치행정국 자산관리과","property_class":"일반재산","land_category":"대","area_sqm":3860.0,"area_band":"3,000~5,000㎡","interest_category":"대","solar_candidate":"Y","candidate_reason":"청사·공공건축물·주차장 현황 추가 확인 필요; 면적 3,860㎡","priority_score":75,"source":"경기부동산포털 국공유지조회·연속지적도","source_date":"2026-08-11","installed_solar_match":false}},{"type":"Feature","id":"4111112900101790034","geometry":{"type":"Point","coordinates":[126.9896211,37.3140392]},"properties":{"pnu":"4111112900101790034","municipality_code":"41110","municipality":"수원시","district":"수원시 장안구","locality":"파장동","address":"수원시 장안구 파장동 179-34","owner_type":"경기도유지","owner_label":"경기도","manager":"도시개발국 자산개발과","property_class":"일반재산","land_category":"대","area_sqm":3240.8,"area_band":"3,000~5,000㎡","interest_category":"대","solar_candidate":"Y","candidate_reason":"청사·공공건축물·주차장 현황 추가 확인 필요; 면적 3,241㎡","priority_score":75,"source":"경기부동산포털 국공유지조회·연속지적도","source_date":"2026-08-11","installed_solar_match":false}},{"type":"Feature","id":"4111112900101790032","geometry":{"type":"Point","coordinates":[126.9906717,37.3150017]},"properties":{"pnu":"4111112900101790032","municipality_code":"41110","municipality":"수원시","district":"수원시 장안구","locality":"파장동","address":"수원시 장안구 파장동 179-32","owner_type":"경기도유지","owner_label":"경기도","manager":"도시개발국 자산개발과","property_class":"일반재산","land_category":"대","area_sqm":2730.4,"area_band":"1,000~3,000㎡","interest_category":"대","solar_candidate":"Y","candidate_reason":"청사·공공건축물·주차장 현황 추가 확인 필요; 면적 2,730㎡","priority_score":68,"source":"경기부동산포털 국공유지조회·연속지적도","source_date":"2026-08-11","installed_solar_match":false}},{"type":"Feature","id":"4111313400107460011","geometry":{"type":"Point","coordinates":[126.9355217,37.2681408]},"properties":{"pnu":"4111313400107460011","municipality_code":"41110","municipality":"수원시","district":"수원시 권선구","locality":"금곡동","address":"수원시 권선구 금곡동 746-11","owner_type":"경기도유지","owner_label":"경기도","manager":"경기도보건환경연구원","property_class":"행정재산","land_category":"주차장","area_sqm":2206.0,"area_band":"1,000~3,000㎡","interest_category":"주차장","solar_candidate":"Y","candidate_reason":"주차면 상부 태양광을 우선 검토할 지목; 면적 2,206㎡","priority_score":68,"source":"경기부동산포털 국공유지조회·연속지적도","source_date":"2026-08-11","installed_solar_match":false}},{"type":"Feature","id":"4111710700100800013","geometry":{"type":"Point","coordinates":[127.045096,37.2380914]},"properties":{"pnu":"4111710700100800013","municipality_code":"41110","municipality":"수원시","district":"수원시 영통구","locality":"망포동","address":"수원시 영통구 망포동 80-13","owner_type":"경기도유지","owner_label":"경기도","manager":"자치행정국 자산관리과","property_class":"일반재산","land_category":"대","area_sqm":1870.0,"area_band":"1,000~3,000㎡","interest_category":"대","solar_candidate":"Y","candidate_reason":"청사·공공건축물·주차장 현황 추가 확인 필요; 면적 1,870㎡","priority_score":68,"source":"경기부동산포털 국공유지조회·연속지적도","source_date":"2026-08-11","installed_solar_match":false}},{"type":"Feature","id":"4111710700101230018","geometry":{"type":"Point","coordinates":[127.0441873,37.2381839]},"properties":{"pnu":"4111710700101230018","municipality_code":"41110","municipality":"수원시","district":"수원시 영통구","locality":"망포동","address":"수원시 영통구 망포동 123-18","owner_type":"경기도유지","owner_label":"경기도","manager":"자치행정국 자산관리과","property_class":"일반재산","land_category":"대","area_sqm":1092.0,"area_band":"1,000~3,000㎡","interest_category":"대","solar_candidate":"Y","candidate_reason":"청사·공공건축물·주차장 현황 추가 확인 필요; 면적 1,092㎡","priority_score":68,"source":"경기부동산포털 국공유지조회·연속지적도","source_date":"2026-08-11","installed_solar_match":false}},{"type":"Feature","id":"4111710300114010000","geometry":{"type":"Point","coordinates":[127.0428432,37.2921621]},"properties":{"pnu":"4111710300114010000","municipality_code":"41110","municipality":"수원시","district":"수원시 영통구","locality":"이의동","address":"수원시 영통구 이의동 1401","owner_type":"경기도유지","owner_label":"경기도","manager":"경제실 경제기획관 기업육성과","property_class":"행정재산","land_category":"대","area_sqm":122312.7,"area_band":"5,000㎡ 이상","interest_category":"대","solar_candidate":"Y","candidate_reason":"청사·공공건축물·주차장 현황 추가 확인 필요; 면적 122,313㎡","priority_score":65,"source":"경기부동산포털 국공유지조회·연속지적도","source_date":"2026-08-11","installed_solar_match":false}},{"type":"Feature","id":"4111513600100010001","geometry":{"type":"Point","coordinates":[127.0096395,37.2748072]},"properties":{"pnu":"4111513600100010001","municipality_code":"41110","municipality":"수원시","district":"수원시 팔달구","locality":"매산로3가","address":"수원시 팔달구 매산로3가 1-1","owner_type":"경기도유지","owner_label":"경기도","manager":"자치행정국 자산관리과","property_class":"행정재산","land_category":"대","area_sqm":37323.0,"area_band":"5,000㎡ 이상","interest_category":"대","solar_candidate":"Y","candidate_reason":"청사·공공건축물·주차장 현황 추가 확인 필요; 면적 37,323㎡","priority_score":65,"source":"경기부동산포털 국공유지조회·연속지적도","source_date":"2026-08-11","installed_solar_match":false}},{"type":"Feature","id":"4111513700100420085","geometry":{"type":"Point","coordinates":[127.0085994,37.275226]},"properties":{"pnu":"4111513700100420085","municipality_code":"41110","municipality":"수원시","district":"수원시 팔달구","locality":"고등동","address":"수원시 팔달구 고등동 42-85","owner_type":"경기도유지","owner_label":"경기도","manager":"자치행정국 자산관리과","property_class":"행정재산","land_category":"대","area_sqm":28577.0,"area_band":"5,000㎡ 이상","interest_category":"대","solar_candidate":"Y","candidate_reason":"청사·공공건축물·주차장 현황 추가 확인 필요; 면적 28,577㎡","priority_score":65,"source":"경기부동산포털 국공유지조회·연속지적도","source_date":"2026-08-11","installed_solar_match":true,"installed_solar_count":5,"installed_solar_area_sqm":296.6,"installed_solar_analysis_years":["2024"],"installed_solar_types":["공공시설물"],"installed_solar_permit_status_counts":{"Y":4,"N":1}}},{"type":"Feature","id":"4111113600104950000","geometry":{"type":"Point","coordinates":[127.0229159,37.2982402]},"properties":{"pnu":"4111113600104950000","municipality_code":"41110","municipality":"수원시","district":"수원시 장안구","locality":"조원동","address":"수원시 장안구 조원동 495","owner_type":"경기도유지","owner_label":"경기도(교육감)","manager":"","property_class":"","land_category":"대","area_sqm":27172.0,"area_band":"5,000㎡ 이상","interest_category":"대","solar_candidate":"Y","candidate_reason":"청사·공공건축물·주차장 현황 추가 확인 필요; 면적 27,172㎡","priority_score":65,"source":"경기부동산포털 국공유지조회·연속지적도","source_date":"2026-08-11","installed_solar_match":false}},{"type":"Feature","id":"4111313400107460002","geometry":{"type":"Point","coordinates":[126.9355081,37.2686911]},"properties":{"pnu":"4111313400107460002","municipality_code":"41110","municipality":"수원시","district":"수원시 권선구","locality":"금곡동","address":"수원시 권선구 금곡동 746-2","owner_type":"경기도유지","owner_label":"경기도","manager":"경기도보건환경연구원","property_class":"행정재산","land_category":"대","area_sqm":14898.0,"area_band":"5,000㎡ 이상","interest_category":"대","solar_candidate":"Y","candidate_reason":"청사·공공건축물·주차장 현황 추가 확인 필요; 면적 14,898㎡","priority_score":65,"source":"경기부동산포털 국공유지조회·연속지적도","source_date":"2026-08-11","installed_solar_match":false}},{"type":"Feature","id":"4111513800100430007","geometry":{"type":"Point","coordinates":[127.0075113,37.2821494]},"properties":{"pnu":"4111513800100430007","municipality_code":"41110","municipality":"수원시","district":"수원시 팔달구","locality":"화서동","address":"수원시 팔달구 화서동 43-7","owner_type":"경기도유지","owner_label":"경기도","manager":"자치행정국 자산관리과","property_class":"행정재산","land_category":"대","area_sqm":14504.0,"area_band":"5,000㎡ 이상","interest_category":"대","solar_candidate":"Y","candidate_reason":"청사·공공건축물·주차장 현황 추가 확인 필요; 면적 14,504㎡","priority_score":65,"source":"경기부동산포털 국공유지조회·연속지적도","source_date":"2026-08-11","installed_solar_match":false}},{"type":"Feature","id":"4111113000108860009","geometry":{"type":"Point","coordinates":[126.9964016,37.2919886]},"properties":{"pnu":"4111113000108860009","municipality_code":"41110","municipality":"수원시","district":"수원시 장안구","locality":"정자동","address":"수원시 장안구 정자동 886-9","owner_type":"경기도유지","owner_label":"경기도","manager":"보건건강국 의료자원과","property_class":"행정재산","land_category":"대","area_sqm":14189.9,"area_band":"5,000㎡ 이상","interest_category":"대","solar_candidate":"Y","candidate_reason":"청사·공공건축물·주차장 현황 추가 확인 필요; 면적 14,190㎡","priority_score":65,"source":"경기부동산포털 국공유지조회·연속지적도","source_date":"2026-08-11","installed_solar_match":false}},{"type":"Feature","id":"4111112900101790000","geometry":{"type":"Point","coordinates":[126.9893588,37.3150146]},"properties":{"pnu":"4111112900101790000","municipality_code":"41110","municipality":"수원시","district":"수원시 장안구","locality":"파장동","address":"수원시 장안구 파장동 179","owner_type":"경기도유지","owner_label":"경기도","manager":"경기도인재개발원","property_class":"행정재산","land_category":"대","area_sqm":12568.1,"area_band":"5,000㎡ 이상","interest_category":"대","solar_candidate":"Y","candidate_reason":"청사·공공건축물·주차장 현황 추가 확인 필요; 면적 12,568㎡","priority_score":65,"source":"경기부동산포털 국공유지조회·연속지적도","source_date":"2026-08-11","installed_solar_match":true,"installed_solar_count":1,"installed_solar_area_sqm":33.0,"installed_solar_analysis_years":["2024"],"installed_solar_types":["공공시설물"],"installed_solar_permit_status_counts":{"N":1}}},{"type":"Feature","id":"4111313700112340001","geometry":{"type":"Point","coordinates":[127.0323858,37.2529808]},"properties":{"pnu":"4111313700112340001","municipality_code":"41110","municipality":"수원시","district":"수원시 권선구","locality":"권선동","address":"수원시 권선구 권선동 1234-1","owner_type":"경기도유지","owner_label":"경기도(교육감)","manager":"","property_class":"","land_category":"대","area_sqm":11516.9,"area_band":"5,000㎡ 이상","interest_category":"대","solar_candidate":"Y","candidate_reason":"청사·공공건축물·주차장 현황 추가 확인 필요; 면적 11,517㎡","priority_score":65,"source":"경기부동산포털 국공유지조회·연속지적도","source_date":"2026-08-11","installed_solar_match":false}},{"type":"Feature","id":"4111113500100680000","geometry":{"type":"Point","coordinates":[127.0059173,37.3081724]},"properties":{"pnu":"4111113500100680000","municipality_code":"41110","municipality":"수원시","district":"수원시 장안구","locality":"송죽동","address":"수원시 장안구 송죽동 68","owner_type":"경기도유지","owner_label":"경기도(교육감)","manager":"","property_class":"","land_category":"대","area_sqm":11456.0,"area_band":"5,000㎡ 이상","interest_category":"대","solar_candidate":"Y","candidate_reason":"청사·공공건축물·주차장 현황 추가 확인 필요; 면적 11,456㎡","priority_score":65,"source":"경기부동산포털 국공유지조회·연속지적도","source_date":"2026-08-11","installed_solar_match":false}},{"type":"Feature","id":"4111512300100060002","geometry":{"type":"Point","coordinates":[127.0134451,37.2818338]},"properties":{"pnu":"4111512300100060002","municipality_code":"41110","municipality":"수원시","district":"수원시 팔달구","locality":"남창동","address":"수원시 팔달구 남창동 6-2","owner_type":"경기도유지","owner_label":"경기도","manager":"문화체육관광국 문화유산과","property_class":"행정재산","land_category":"대","area_sqm":11116.0,"area_band":"5,000㎡ 이상","interest_category":"대","solar_candidate":"Y","candidate_reason":"청사·공공건축물·주차장 현황 추가 확인 필요; 면적 11,116㎡","priority_score":65,"source":"경기부동산포털 국공유지조회·연속지적도","source_date":"2026-08-11","installed_solar_match":false}},{"type":"Feature","id":"4111113500100680027","geometry":{"type":"Point","coordinates":[127.0050209,37.3087538]},"properties":{"pnu":"4111113500100680027","municipality_code":"41110","municipality":"수원시","district":"수원시 장안구","locality":"송죽동","address":"수원시 장안구 송죽동 68-27","owner_type":"경기도유지","owner_label":"경기도(교육감)","manager":"","property_class":"","land_category":"대","area_sqm":9200.0,"area_band":"5,000㎡ 이상","interest_category":"대","solar_candidate":"Y","candidate_reason":"청사·공공건축물·주차장 현황 추가 확인 필요; 면적 9,200㎡","priority_score":65,"source":"경기부동산포털 국공유지조회·연속지적도","source_date":"2026-08-11","installed_solar_match":false}},{"type":"Feature","id":"4111112900103240001","geometry":{"type":"Point","coordinates":[126.999313,37.3136061]},"properties":{"pnu":"4111112900103240001","municipality_code":"41110","municipality":"수원시","district":"수원시 장안구","locality":"파장동","address":"수원시 장안구 파장동 324-1","owner_type":"경기도유지","owner_label":"경기도","manager":"기후환경에너지국 자원순환과","property_class":"행정재산","land_category":"대","area_sqm":7843.0,"area_band":"5,000㎡ 이상","interest_category":"대","solar_candidate":"Y","candidate_reason":"청사·공공건축물·주차장 현황 추가 확인 필요; 면적 7,843㎡","priority_score":65,"source":"경기부동산포털 국공유지조회·연속지적도","source_date":"2026-08-11","installed_solar_match":false}},{"type":"Feature","id":"4111113600105360002","geometry":{"type":"Point","coordinates":[127.0174566,37.2959444]},"properties":{"pnu":"4111113600105360002","municipality_code":"41110","municipality":"수원시","district":"수원시 장안구","locality":"조원동","address":"수원시 장안구 조원동 536-2","owner_type":"경기도유지","owner_label":"경기도(교육감)","manager":"","property_class":"","land_category":"대","area_sqm":7661.0,"area_band":"5,000㎡ 이상","interest_category":"대","solar_candidate":"Y","candidate_reason":"청사·공공건축물·주차장 현황 추가 확인 필요; 면적 7,661㎡","priority_score":65,"source":"경기부동산포털 국공유지조회·연속지적도","source_date":"2026-08-11","installed_solar_match":false}},{"type":"Feature","id":"4111312900108830001","geometry":{"type":"Point","coordinates":[126.9719254,37.2320479]},"properties":{"pnu":"4111312900108830001","municipality_code":"41110","municipality":"수원시","district":"수원시 권선구","locality":"오목천동","address":"수원시 권선구 오목천동 883-1","owner_type":"경기도유지","owner_label":"경기도","manager":"문화체육관광국 체육진흥과","property_class":"행정재산","land_category":"대","area_sqm":6749.0,"area_band":"5,000㎡ 이상","interest_category":"대","solar_candidate":"Y","candidate_reason":"청사·공공건축물·주차장 현황 추가 확인 필요; 면적 6,749㎡","priority_score":65,"source":"경기부동산포털 국공유지조회·연속지적도","source_date":"2026-08-11","installed_solar_match":false}},{"type":"Feature","id":"4111313700112370000","geometry":{"type":"Point","coordinates":[127.0364244,37.2545114]},"properties":{"pnu":"4111313700112370000","municipality_code":"41110","municipality":"수원시","district":"수원시 권선구","locality":"권선동","address":"수원시 권선구 권선동 1237","owner_type":"경기도유지","owner_label":"경기도","manager":"소방재난본부 회계장비담당관","property_class":"행정재산","land_category":"대","area_sqm":6659.6,"area_band":"5,000㎡ 이상","interest_category":"대","solar_candidate":"Y","candidate_reason":"청사·공공건축물·주차장 현황 추가 확인 필요; 면적 6,660㎡","priority_score":65,"source":"경기부동산포털 국공유지조회·연속지적도","source_date":"2026-08-11","installed_solar_match":true,"installed_solar_count":4,"installed_solar_area_sqm":443.4,"installed_solar_analysis_years":["2024"],"installed_solar_types":["공공시설물"],"installed_solar_permit_status_counts":{"N":4}}},{"type":"Feature","id":"4111113000108730005","geometry":{"type":"Point","coordinates":[126.9958485,37.2973977]},"properties":{"pnu":"4111113000108730005","municipality_code":"41110","municipality":"수원시","district":"수원시 장안구","locality":"정자동","address":"수원시 장안구 정자동 873-5","owner_type":"경기도유지","owner_label":"경기도","manager":"소방재난본부 회계장비담당관","property_class":"행정재산","land_category":"대","area_sqm":6481.8,"area_band":"5,000㎡ 이상","interest_category":"대","solar_candidate":"Y","candidate_reason":"청사·공공건축물·주차장 현황 추가 확인 필요; 면적 6,482㎡","priority_score":65,"source":"경기부동산포털 국공유지조회·연속지적도","source_date":"2026-08-11","installed_solar_match":false}},{"type":"Feature","id":"4111313400107810002","geometry":{"type":"Point","coordinates":[126.9376241,37.2680264]},"properties":{"pnu":"4111313400107810002","municipality_code":"41110","municipality":"수원시","district":"수원시 권선구","locality":"금곡동","address":"수원시 권선구 금곡동 781-2","owner_type":"경기도유지","owner_label":"경기도","manager":"경기도건설본부","property_class":"행정재산","land_category":"대","area_sqm":5332.0,"area_band":"5,000㎡ 이상","interest_category":"대","solar_candidate":"Y","candidate_reason":"청사·공공건축물·주차장 현황 추가 확인 필요; 면적 5,332㎡","priority_score":65,"source":"경기부동산포털 국공유지조회·연속지적도","source_date":"2026-08-11","installed_solar_match":false}},{"type":"Feature","id":"4111513800100440001","geometry":{"type":"Point","coordinates":[127.006815,37.2824577]},"properties":{"pnu":"4111513800100440001","municipality_code":"41110","municipality":"수원시","district":"수원시 팔달구","locality":"화서동","address":"수원시 팔달구 화서동 44-1","owner_type":"경기도유지","owner_label":"경기도","manager":"자치행정국 총무과","property_class":"행정재산","land_category":"잡종지","area_sqm":2113.0,"area_band":"1,000~3,000㎡","interest_category":"잡종지","solar_candidate":"Y","candidate_reason":"실제 이용·점유 여부 확인 후 검토할 잡종지; 면적 2,113㎡","priority_score":63,"source":"경기부동산포털 국공유지조회·연속지적도","source_date":"2026-08-11","installed_solar_match":false}},{"type":"Feature","id":"4111313000102230005","geometry":{"type":"Point","coordinates":[126.9972075,37.2307419]},"properties":{"pnu":"4111313000102230005","municipality_code":"41110","municipality":"수원시","district":"수원시 권선구","locality":"평리동","address":"수원시 권선구 평리동 223-5","owner_type":"경기도유지","owner_label":"경기도","manager":"건설국 하천과","property_class":"행정재산","land_category":"잡종지","area_sqm":1206.0,"area_band":"1,000~3,000㎡","interest_category":"잡종지","solar_candidate":"Y","candidate_reason":"실제 이용·점유 여부 확인 후 검토할 잡종지; 면적 1,206㎡","priority_score":63,"source":"경기부동산포털 국공유지조회·연속지적도","source_date":"2026-08-11","installed_solar_match":false}},{"type":"Feature","id":"4111113500104120011","geometry":{"type":"Point","coordinates":[127.0024663,37.2970535]},"properties":{"pnu":"4111113500104120011","municipality_code":"41110","municipality":"수원시","district":"수원시 장안구","locality":"송죽동","address":"수원시 장안구 송죽동 412-11","owner_type":"경기도유지","owner_label":"경기도(교육감)","manager":"","property_class":"","land_category":"잡종지","area_sqm":1020.0,"area_band":"1,000~3,000㎡","interest_category":"잡종지","solar_candidate":"Y","candidate_reason":"실제 이용·점유 여부 확인 후 검토할 잡종지; 면적 1,020㎡","priority_score":63,"source":"경기부동산포털 국공유지조회·연속지적도","source_date":"2026-08-11","installed_solar_match":false}},{"type":"Feature","id":"4111313400107460006","geometry":{"type":"Point","coordinates":[126.9345562,37.2681635]},"properties":{"pnu":"4111313400107460006","municipality_code":"41110","municipality":"수원시","district":"수원시 권선구","locality":"금곡동","address":"수원시 권선구 금곡동 746-6","owner_type":"경기도유지","owner_label":"경기도","manager":"경기도동물위생시험소","property_class":"행정재산","land_category":"대","area_sqm":4659.0,"area_band":"3,000~5,000㎡","interest_category":"대","solar_candidate":"Y","candidate_reason":"청사·공공건축물·주차장 현황 추가 확인 필요; 면적 4,659㎡","priority_score":60,"source":"경기부동산포털 국공유지조회·연속지적도","source_date":"2026-08-11","installed_solar_match":false}},{"type":"Feature","id":"4111313400107460015","geometry":{"type":"Point","coordinates":[126.9347972,37.2675433]},"properties":{"pnu":"4111313400107460015","municipality_code":"41110","municipality":"수원시","district":"수원시 권선구","locality":"금곡동","address":"수원시 권선구 금곡동 746-15","owner_type":"경기도유지","owner_label":"경기도","manager":"경기도동물위생시험소","property_class":"행정재산","land_category":"대","area_sqm":4340.0,"area_band":"3,000~5,000㎡","interest_category":"대","solar_candidate":"Y","candidate_reason":"청사·공공건축물·주차장 현황 추가 확인 필요; 면적 4,340㎡","priority_score":60,"source":"경기부동산포털 국공유지조회·연속지적도","source_date":"2026-08-11","installed_solar_match":false}},{"type":"Feature","id":"4111113400101070012","geometry":{"type":"Point","coordinates":[127.0190463,37.29304]},"properties":{"pnu":"4111113400101070012","municipality_code":"41110","municipality":"수원시","district":"수원시 장안구","locality":"영화동","address":"수원시 장안구 영화동 107-12","owner_type":"경기도유지","owner_label":"경기도(교육감)","manager":"","property_class":"","land_category":"대","area_sqm":3989.0,"area_band":"3,000~5,000㎡","interest_category":"대","solar_candidate":"Y","candidate_reason":"청사·공공건축물·주차장 현황 추가 확인 필요; 면적 3,989㎡","priority_score":60,"source":"경기부동산포털 국공유지조회·연속지적도","source_date":"2026-08-11","installed_solar_match":false}},{"type":"Feature","id":"4111514100111290000","geometry":{"type":"Point","coordinates":[127.0341219,37.2592165]},"properties":{"pnu":"4111514100111290000","municipality_code":"41110","municipality":"수원시","district":"수원시 팔달구","locality":"인계동","address":"수원시 팔달구 인계동 1129","owner_type":"경기도유지","owner_label":"경기도","manager":"여성비전센터","property_class":"행정재산","land_category":"대","area_sqm":3920.1,"area_band":"3,000~5,000㎡","interest_category":"대","solar_candidate":"Y","candidate_reason":"청사·공공건축물·주차장 현황 추가 확인 필요; 면적 3,920㎡","priority_score":60,"source":"경기부동산포털 국공유지조회·연속지적도","source_date":"2026-08-11","installed_solar_match":false}},{"type":"Feature","id":"4111113000100270010","geometry":{"type":"Point","coordinates":[126.9996845,37.2956103]},"properties":{"pnu":"4111113000100270010","municipality_code":"41110","municipality":"수원시","district":"수원시 장안구","locality":"정자동","address":"수원시 장안구 정자동 27-10","owner_type":"경기도유지","owner_label":"경기도","manager":"문화체육관광국 체육진흥과","property_class":"행정재산","land_category":"대","area_sqm":3561.2,"area_band":"3,000~5,000㎡","interest_category":"대","solar_candidate":"Y","candidate_reason":"청사·공공건축물·주차장 현황 추가 확인 필요; 면적 3,561㎡","priority_score":60,"source":"경기부동산포털 국공유지조회·연속지적도","source_date":"2026-08-11","installed_solar_match":false}},{"type":"Feature","id":"4111312800100570013","geometry":{"type":"Point","coordinates":[126.9814945,37.2507176]},"properties":{"pnu":"4111312800100570013","municipality_code":"41110","municipality":"수원시","district":"수원시 권선구","locality":"고색동","address":"수원시 권선구 고색동 57-13","owner_type":"경기도유지","owner_label":"경기도","manager":"자치행정국 자산관리과","property_class":"일반재산","land_category":"대","area_sqm":577.0,"area_band":"500~1,000㎡","interest_category":"대","solar_candidate":"Y","candidate_reason":"청사·공공건축물·주차장 현황 추가 확인 필요; 면적 577㎡","priority_score":60,"source":"경기부동산포털 국공유지조회·연속지적도","source_date":"2026-08-11","installed_solar_match":false}},{"type":"Feature","id":"4111312600104700000","geometry":{"type":"Point","coordinates":[127.0104429,37.2589176]},"properties":{"pnu":"4111312600104700000","municipality_code":"41110","municipality":"수원시","district":"수원시 권선구","locality":"세류동","address":"수원시 권선구 세류동 470","owner_type":"경기도유지","owner_label":"경기도","manager":"자치행정국 자산관리과","property_class":"일반재산","land_category":"대","area_sqm":501.6,"area_band":"500~1,000㎡","interest_category":"대","solar_candidate":"Y","candidate_reason":"청사·공공건축물·주차장 현황 추가 확인 필요; 면적 502㎡","priority_score":60,"source":"경기부동산포털 국공유지조회·연속지적도","source_date":"2026-08-11","installed_solar_match":false}},{"type":"Feature","id":"4111313000101210009","geometry":{"type":"Point","coordinates":[126.9929252,37.2446439]},"properties":{"pnu":"4111313000101210009","municipality_code":"41110","municipality":"수원시","district":"수원시 권선구","locality":"평리동","address":"수원시 권선구 평리동 121-9","owner_type":"경기도유지","owner_label":"경기도","manager":"건설국 하천과","property_class":"행정재산","land_category":"잡종지","area_sqm":933.0,"area_band":"500~1,000㎡","interest_category":"잡종지","solar_candidate":"검토필요","candidate_reason":"실제 이용·점유 여부 확인 후 검토할 잡종지; 면적 933㎡","priority_score":55,"source":"경기부동산포털 국공유지조회·연속지적도","source_date":"2026-08-11","installed_solar_match":false}},{"type":"Feature","id":"4111313600101090026","geometry":{"type":"Point","coordinates":[127.0383826,37.2427497]},"properties":{"pnu":"4111313600101090026","municipality_code":"41110","municipality":"수원시","district":"수원시 권선구","locality":"곡반정동","address":"수원시 권선구 곡반정동 109-26","owner_type":"경기도유지","owner_label":"경기도","manager":"건설국 하천과","property_class":"행정재산","land_category":"잡종지","area_sqm":856.0,"area_band":"500~1,000㎡","interest_category":"잡종지","solar_candidate":"검토필요","candidate_reason":"실제 이용·점유 여부 확인 후 검토할 잡종지; 면적 856㎡","priority_score":55,"source":"경기부동산포털 국공유지조회·연속지적도","source_date":"2026-08-11","installed_solar_match":false}},{"type":"Feature","id":"4111313500109610010","geometry":{"type":"Point","coordinates":[126.9485818,37.2614793]},"properties":{"pnu":"4111313500109610010","municipality_code":"41110","municipality":"수원시","district":"수원시 권선구","locality":"호매실동","address":"수원시 권선구 호매실동 961-10","owner_type":"경기도유지","owner_label":"경기도","manager":"건설국 도로정책과","property_class":"행정재산","land_category":"잡종지","area_sqm":624.0,"area_band":"500~1,000㎡","interest_category":"잡종지","solar_candidate":"검토필요","candidate_reason":"실제 이용·점유 여부 확인 후 검토할 잡종지; 면적 624㎡","priority_score":55,"source":"경기부동산포털 국공유지조회·연속지적도","source_date":"2026-08-11","installed_solar_match":false}},{"type":"Feature","id":"4111313500109610000","geometry":{"type":"Point","coordinates":[126.9480231,37.2614087]},"properties":{"pnu":"4111313500109610000","municipality_code":"41110","municipality":"수원시","district":"수원시 권선구","locality":"호매실동","address":"수원시 권선구 호매실동 961","owner_type":"경기도유지","owner_label":"경기도","manager":"건설국 도로정책과","property_class":"행정재산","land_category":"잡종지","area_sqm":566.0,"area_band":"500~1,000㎡","interest_category":"잡종지","solar_candidate":"검토필요","candidate_reason":"실제 이용·점유 여부 확인 후 검토할 잡종지; 면적 566㎡","priority_score":55,"source":"경기부동산포털 국공유지조회·연속지적도","source_date":"2026-08-11","installed_solar_match":false}},{"type":"Feature","id":"4111312600106650008","geometry":{"type":"Point","coordinates":[127.0076104,37.2528192]},"properties":{"pnu":"4111312600106650008","municipality_code":"41110","municipality":"수원시","district":"수원시 권선구","locality":"세류동","address":"수원시 권선구 세류동 665-8","owner_type":"경기도유지","owner_label":"경기도","manager":"자치행정국 자산관리과","property_class":"일반재산","land_category":"대","area_sqm":493.0,"area_band":"100~500㎡","interest_category":"대","solar_candidate":"검토필요","candidate_reason":"청사·공공건축물·주차장 현황 추가 확인 필요; 면적 493㎡","priority_score":55,"source":"경기부동산포털 국공유지조회·연속지적도","source_date":"2026-08-11","installed_solar_match":false}},{"type":"Feature","id":"4111312600106650010","geometry":{"type":"Point","coordinates":[127.0074586,37.2528638]},"properties":{"pnu":"4111312600106650010","municipality_code":"41110","municipality":"수원시","district":"수원시 권선구","locality":"세류동","address":"수원시 권선구 세류동 665-10","owner_type":"경기도유지","owner_label":"경기도","manager":"자치행정국 자산관리과","property_class":"일반재산","land_category":"대","area_sqm":281.0,"area_band":"100~500㎡","interest_category":"대","solar_candidate":"검토필요","candidate_reason":"청사·공공건축물·주차장 현황 추가 확인 필요; 면적 281㎡","priority_score":55,"source":"경기부동산포털 국공유지조회·연속지적도","source_date":"2026-08-11","installed_solar_match":false}},{"type":"Feature","id":"4111710700103390011","geometry":{"type":"Point","coordinates":[127.0579895,37.2443568]},"properties":{"pnu":"4111710700103390011","municipality_code":"41110","municipality":"수원시","district":"수원시 영통구","locality":"망포동","address":"수원시 영통구 망포동 339-11","owner_type":"경기도유지","owner_label":"경기도","manager":"자치행정국 자산관리과","property_class":"일반재산","land_category":"대","area_sqm":272.0,"area_band":"100~500㎡","interest_category":"대","solar_candidate":"검토필요","candidate_reason":"청사·공공건축물·주차장 현황 추가 확인 필요; 면적 272㎡","priority_score":55,"source":"경기부동산포털 국공유지조회·연속지적도","source_date":"2026-08-11","installed_solar_match":false}},{"type":"Feature","id":"4111312800100570020","geometry":{"type":"Point","coordinates":[126.9817173,37.2507557]},"properties":{"pnu":"4111312800100570020","municipality_code":"41110","municipality":"수원시","district":"수원시 권선구","locality":"고색동","address":"수원시 권선구 고색동 57-20","owner_type":"경기도유지","owner_label":"경기도","manager":"자치행정국 자산관리과","property_class":"일반재산","land_category":"대","area_sqm":238.0,"area_band":"100~500㎡","interest_category":"대","solar_candidate":"검토필요","candidate_reason":"청사·공공건축물·주차장 현황 추가 확인 필요; 면적 238㎡","priority_score":55,"source":"경기부동산포털 국공유지조회·연속지적도","source_date":"2026-08-11","installed_solar_match":false}},{"type":"Feature","id":"4111312800100570022","geometry":{"type":"Point","coordinates":[126.981689,37.2508608]},"properties":{"pnu":"4111312800100570022","municipality_code":"41110","municipality":"수원시","district":"수원시 권선구","locality":"고색동","address":"수원시 권선구 고색동 57-22","owner_type":"경기도유지","owner_label":"경기도","manager":"자치행정국 자산관리과","property_class":"일반재산","land_category":"대","area_sqm":109.0,"area_band":"100~500㎡","interest_category":"대","solar_candidate":"검토필요","candidate_reason":"청사·공공건축물·주차장 현황 추가 확인 필요; 면적 109㎡","priority_score":55,"source":"경기부동산포털 국공유지조회·연속지적도","source_date":"2026-08-11","installed_solar_match":false}},{"type":"Feature","id":"4111710300111520000","geometry":{"type":"Point","coordinates":[127.0458217,37.2938432]},"properties":{"pnu":"4111710300111520000","municipality_code":"41110","municipality":"수원시","district":"수원시 영통구","locality":"이의동","address":"수원시 영통구 이의동 1152","owner_type":"경기도유지","owner_label":"경기도","manager":"미래성장산업국 반도체산업과","property_class":"행정재산","land_category":"대","area_sqm":2517.0,"area_band":"1,000~3,000㎡","interest_category":"대","solar_candidate":"검토필요","candidate_reason":"청사·공공건축물·주차장 현황 추가 확인 필요; 면적 2,517㎡","priority_score":53,"source":"경기부동산포털 국공유지조회·연속지적도","source_date":"2026-08-11","installed_solar_match":false}},{"type":"Feature","id":"4111113600109150000","geometry":{"type":"Point","coordinates":[127.0233957,37.2972109]},"properties":{"pnu":"4111113600109150000","municipality_code":"41110","municipality":"수원시","district":"수원시 장안구","locality":"조원동","address":"수원시 장안구 조원동 915","owner_type":"경기도유지","owner_label":"경기도(경기도교육감)","manager":"","property_class":"","land_category":"대","area_sqm":2481.0,"area_band":"1,000~3,000㎡","interest_category":"대","solar_candidate":"검토필요","candidate_reason":"청사·공공건축물·주차장 현황 추가 확인 필요; 면적 2,481㎡","priority_score":53,"source":"경기부동산포털 국공유지조회·연속지적도","source_date":"2026-08-11","installed_solar_match":false}},{"type":"Feature","id":"4111113600105360008","geometry":{"type":"Point","coordinates":[127.016621,37.2955166]},"properties":{"pnu":"4111113600105360008","municipality_code":"41110","municipality":"수원시","district":"수원시 장안구","locality":"조원동","address":"수원시 장안구 조원동 536-8","owner_type":"경기도유지","owner_label":"경기도(교육감)","manager":"","property_class":"","land_category":"대","area_sqm":2199.0,"area_band":"1,000~3,000㎡","interest_category":"대","solar_candidate":"검토필요","candidate_reason":"청사·공공건축물·주차장 현황 추가 확인 필요; 면적 2,199㎡","priority_score":53,"source":"경기부동산포털 국공유지조회·연속지적도","source_date":"2026-08-11","installed_solar_match":true,"installed_solar_count":1,"installed_solar_area_sqm":181.7,"installed_solar_analysis_years":["2024"],"installed_solar_types":["공공시설물"],"installed_solar_permit_status_counts":{"N":1}}},{"type":"Feature","id":"4111513600100100032","geometry":{"type":"Point","coordinates":[127.0108849,37.2729393]},"properties":{"pnu":"4111513600100100032","municipality_code":"41110","municipality":"수원시","district":"수원시 팔달구","locality":"매산로3가","address":"수원시 팔달구 매산로3가 10-32","owner_type":"경기도유지","owner_label":"경기도","manager":"자치행정국 자산관리과","property_class":"행정재산","land_category":"대","area_sqm":2150.0,"area_band":"1,000~3,000㎡","interest_category":"대","solar_candidate":"검토필요","candidate_reason":"청사·공공건축물·주차장 현황 추가 확인 필요; 면적 2,150㎡","priority_score":53,"source":"경기부동산포털 국공유지조회·연속지적도","source_date":"2026-08-11","installed_solar_match":false}},{"type":"Feature","id":"4111113600109140000","geometry":{"type":"Point","coordinates":[127.0226427,37.297124]},"properties":{"pnu":"4111113600109140000","municipality_code":"41110","municipality":"수원시","district":"수원시 장안구","locality":"조원동","address":"수원시 장안구 조원동 914","owner_type":"경기도유지","owner_label":"경기도(경기도교육감)","manager":"","property_class":"","land_category":"대","area_sqm":2054.0,"area_band":"1,000~3,000㎡","interest_category":"대","solar_candidate":"검토필요","candidate_reason":"청사·공공건축물·주차장 현황 추가 확인 필요; 면적 2,054㎡","priority_score":53,"source":"경기부동산포털 국공유지조회·연속지적도","source_date":"2026-08-11","installed_solar_match":false}},{"type":"Feature","id":"4111710200106090000","geometry":{"type":"Point","coordinates":[127.0541437,37.2731848]},"properties":{"pnu":"4111710200106090000","municipality_code":"41110","municipality":"수원시","district":"수원시 영통구","locality":"원천동","address":"수원시 영통구 원천동 609","owner_type":"경기도유지","owner_label":"경기도","manager":"소방재난본부 회계장비담당관","property_class":"행정재산","land_category":"대","area_sqm":2018.8,"area_band":"1,000~3,000㎡","interest_category":"대","solar_candidate":"검토필요","candidate_reason":"청사·공공건축물·주차장 현황 추가 확인 필요; 면적 2,019㎡","priority_score":53,"source":"경기부동산포털 국공유지조회·연속지적도","source_date":"2026-08-11","installed_solar_match":false}},{"type":"Feature","id":"4111113000100290002","geometry":{"type":"Point","coordinates":[126.997476,37.2948514]},"properties":{"pnu":"4111113000100290002","municipality_code":"41110","municipality":"수원시","district":"수원시 장안구","locality":"정자동","address":"수원시 장안구 정자동 29-2","owner_type":"경기도유지","owner_label":"경기도","manager":"복지국 복지사업과","property_class":"행정재산","land_category":"대","area_sqm":1736.6,"area_band":"1,000~3,000㎡","interest_category":"대","solar_candidate":"검토필요","candidate_reason":"청사·공공건축물·주차장 현황 추가 확인 필요; 면적 1,737㎡","priority_score":53,"source":"경기부동산포털 국공유지조회·연속지적도","source_date":"2026-08-11","installed_solar_match":false}},{"type":"Feature","id":"4111710500109610010","geometry":{"type":"Point","coordinates":[127.0688991,37.2532227]},"properties":{"pnu":"4111710500109610010","municipality_code":"41110","municipality":"수원시","district":"수원시 영통구","locality":"영통동","address":"수원시 영통구 영통동 961-10","owner_type":"경기도유지","owner_label":"경기도","manager":"소방재난본부 회계장비담당관","property_class":"행정재산","land_category":"대","area_sqm":1605.9,"area_band":"1,000~3,000㎡","interest_category":"대","solar_candidate":"검토필요","candidate_reason":"청사·공공건축물·주차장 현황 추가 확인 필요; 면적 1,606㎡","priority_score":53,"source":"경기부동산포털 국공유지조회·연속지적도","source_date":"2026-08-11","installed_solar_match":false}},{"type":"Feature","id":"4111313100100610009","geometry":{"type":"Point","coordinates":[126.9888239,37.2640349]},"properties":{"pnu":"4111313100100610009","municipality_code":"41110","municipality":"수원시","district":"수원시 권선구","locality":"서둔동","address":"수원시 권선구 서둔동 61-9","owner_type":"경기도유지","owner_label":"경기도","manager":"건설국 하천과","property_class":"행정재산","land_category":"대","area_sqm":1496.0,"area_band":"1,000~3,000㎡","interest_category":"대","solar_candidate":"검토필요","candidate_reason":"청사·공공건축물·주차장 현황 추가 확인 필요; 면적 1,496㎡","priority_score":53,"source":"경기부동산포털 국공유지조회·연속지적도","source_date":"2026-08-11","installed_solar_match":false}},{"type":"Feature","id":"4111113600104950001","geometry":{"type":"Point","coordinates":[127.0225315,37.297508]},"properties":{"pnu":"4111113600104950001","municipality_code":"41110","municipality":"수원시","district":"수원시 장안구","locality":"조원동","address":"수원시 장안구 조원동 495-1","owner_type":"경기도유지","owner_label":"경기도(교육감)","manager":"","property_class":"","land_category":"대","area_sqm":1254.0,"area_band":"1,000~3,000㎡","interest_category":"대","solar_candidate":"검토필요","candidate_reason":"청사·공공건축물·주차장 현황 추가 확인 필요; 면적 1,254㎡","priority_score":53,"source":"경기부동산포털 국공유지조회·연속지적도","source_date":"2026-08-11","installed_solar_match":false}},{"type":"Feature","id":"4111313400107810001","geometry":{"type":"Point","coordinates":[126.9373643,37.2683002]},"properties":{"pnu":"4111313400107810001","municipality_code":"41110","municipality":"수원시","district":"수원시 권선구","locality":"금곡동","address":"수원시 권선구 금곡동 781-1","owner_type":"경기도유지","owner_label":"경기도","manager":"경기도건설본부","property_class":"행정재산","land_category":"대","area_sqm":1183.0,"area_band":"1,000~3,000㎡","interest_category":"대","solar_candidate":"검토필요","candidate_reason":"청사·공공건축물·주차장 현황 추가 확인 필요; 면적 1,183㎡","priority_score":53,"source":"경기부동산포털 국공유지조회·연속지적도","source_date":"2026-08-11","installed_solar_match":false}},{"type":"Feature","id":"4111313100100610013","geometry":{"type":"Point","coordinates":[126.9887017,37.2642481]},"properties":{"pnu":"4111313100100610013","municipality_code":"41110","municipality":"수원시","district":"수원시 권선구","locality":"서둔동","address":"수원시 권선구 서둔동 61-13","owner_type":"경기도유지","owner_label":"경기도","manager":"건설국 하천과","property_class":"행정재산","land_category":"대","area_sqm":1155.0,"area_band":"1,000~3,000㎡","interest_category":"대","solar_candidate":"검토필요","candidate_reason":"청사·공공건축물·주차장 현황 추가 확인 필요; 면적 1,155㎡","priority_score":53,"source":"경기부동산포털 국공유지조회·연속지적도","source_date":"2026-08-11","installed_solar_match":false}},{"type":"Feature","id":"4111513800100290001","geometry":{"type":"Point","coordinates":[127.0073037,37.2831981]},"properties":{"pnu":"4111513800100290001","municipality_code":"41110","municipality":"수원시","district":"수원시 팔달구","locality":"화서동","address":"수원시 팔달구 화서동 29-1","owner_type":"경기도유지","owner_label":"경기도","manager":"자치행정국 자산관리과","property_class":"행정재산","land_category":"대","area_sqm":1072.0,"area_band":"1,000~3,000㎡","interest_category":"대","solar_candidate":"검토필요","candidate_reason":"청사·공공건축물·주차장 현황 추가 확인 필요; 면적 1,072㎡","priority_score":53,"source":"경기부동산포털 국공유지조회·연속지적도","source_date":"2026-08-11","installed_solar_match":false}},{"type":"Feature","id":"4111514100109510006","geometry":{"type":"Point","coordinates":[127.0286862,37.2683465]},"properties":{"pnu":"4111514100109510006","municipality_code":"41110","municipality":"수원시","district":"수원시 팔달구","locality":"인계동","address":"수원시 팔달구 인계동 951-6","owner_type":"경기도유지","owner_label":"경기도","manager":"복지국 노인복지과","property_class":"행정재산","land_category":"대","area_sqm":1045.5,"area_band":"1,000~3,000㎡","interest_category":"대","solar_candidate":"검토필요","candidate_reason":"청사·공공건축물·주차장 현황 추가 확인 필요; 면적 1,046㎡","priority_score":53,"source":"경기부동산포털 국공유지조회·연속지적도","source_date":"2026-08-11","installed_solar_match":false}},{"type":"Feature","id":"4111313400111190000","geometry":{"type":"Point","coordinates":[126.9519643,37.2732831]},"properties":{"pnu":"4111313400111190000","municipality_code":"41110","municipality":"수원시","district":"수원시 권선구","locality":"금곡동","address":"수원시 권선구 금곡동 1119","owner_type":"경기도유지","owner_label":"경기도","manager":"소방재난본부 회계장비담당관","property_class":"행정재산","land_category":"대","area_sqm":1018.1,"area_band":"1,000~3,000㎡","interest_category":"대","solar_candidate":"검토필요","candidate_reason":"청사·공공건축물·주차장 현황 추가 확인 필요; 면적 1,018㎡","priority_score":53,"source":"경기부동산포털 국공유지조회·연속지적도","source_date":"2026-08-11","installed_solar_match":true,"installed_solar_count":1,"installed_solar_area_sqm":65.8,"installed_solar_analysis_years":["2024"],"installed_solar_types":["공공시설물"],"installed_solar_permit_status_counts":{"N":1}}},{"type":"Feature","id":"4111113800104490001","geometry":{"type":"Point","coordinates":[127.0205895,37.3508034]},"properties":{"pnu":"4111113800104490001","municipality_code":"41110","municipality":"수원시","district":"수원시 장안구","locality":"상광교동","address":"수원시 장안구 상광교동 449-1","owner_type":"경기도유지","owner_label":"경기도","manager":"소방재난본부 회계장비담당관","property_class":"행정재산","land_category":"잡종지","area_sqm":462.0,"area_band":"100~500㎡","interest_category":"잡종지","solar_candidate":"검토필요","candidate_reason":"실제 이용·점유 여부 확인 후 검토할 잡종지; 면적 462㎡","priority_score":50,"source":"경기부동산포털 국공유지조회·연속지적도","source_date":"2026-08-11","installed_solar_match":false}},{"type":"Feature","id":"4111312800102010008","geometry":{"type":"Point","coordinates":[126.9942194,37.2534674]},"properties":{"pnu":"4111312800102010008","municipality_code":"41110","municipality":"수원시","district":"수원시 권선구","locality":"고색동","address":"수원시 권선구 고색동 201-8","owner_type":"경기도유지","owner_label":"경기도","manager":"건설국 하천과","property_class":"행정재산","land_category":"잡종지","area_sqm":451.0,"area_band":"100~500㎡","interest_category":"잡종지","solar_candidate":"검토필요","candidate_reason":"실제 이용·점유 여부 확인 후 검토할 잡종지; 면적 451㎡","priority_score":50,"source":"경기부동산포털 국공유지조회·연속지적도","source_date":"2026-08-11","installed_solar_match":false}},{"type":"Feature","id":"4111710700105550000","geometry":{"type":"Point","coordinates":[127.0565932,37.2377464]},"properties":{"pnu":"4111710700105550000","municipality_code":"41110","municipality":"수원시","district":"수원시 영통구","locality":"망포동","address":"수원시 영통구 망포동 555","owner_type":"경기도유지","owner_label":"경기도(교육감)","manager":"","property_class":"","land_category":"잡종지","area_sqm":423.0,"area_band":"100~500㎡","interest_category":"잡종지","solar_candidate":"검토필요","candidate_reason":"실제 이용·점유 여부 확인 후 검토할 잡종지; 면적 423㎡","priority_score":50,"source":"경기부동산포털 국공유지조회·연속지적도","source_date":"2026-08-11","installed_solar_match":false}},{"type":"Feature","id":"4111313000101200011","geometry":{"type":"Point","coordinates":[126.9930379,37.2451351]},"properties":{"pnu":"4111313000101200011","municipality_code":"41110","municipality":"수원시","district":"수원시 권선구","locality":"평리동","address":"수원시 권선구 평리동 120-11","owner_type":"경기도유지","owner_label":"경기도","manager":"건설국 하천과","property_class":"행정재산","land_category":"잡종지","area_sqm":319.0,"area_band":"100~500㎡","interest_category":"잡종지","solar_candidate":"검토필요","candidate_reason":"실제 이용·점유 여부 확인 후 검토할 잡종지; 면적 319㎡","priority_score":50,"source":"경기부동산포털 국공유지조회·연속지적도","source_date":"2026-08-11","installed_solar_match":false}},{"type":"Feature","id":"4111312900103560014","geometry":{"type":"Point","coordinates":[126.9580921,37.243615]},"properties":{"pnu":"4111312900103560014","municipality_code":"41110","municipality":"수원시","district":"수원시 권선구","locality":"오목천동","address":"수원시 권선구 오목천동 356-14","owner_type":"경기도유지","owner_label":"경기도","manager":"건설국 도로정책과","property_class":"행정재산","land_category":"잡종지","area_sqm":309.0,"area_band":"100~500㎡","interest_category":"잡종지","solar_candidate":"검토필요","candidate_reason":"실제 이용·점유 여부 확인 후 검토할 잡종지; 면적 309㎡","priority_score":50,"source":"경기부동산포털 국공유지조회·연속지적도","source_date":"2026-08-11","installed_solar_match":false}},{"type":"Feature","id":"4111312700100920006","geometry":{"type":"Point","coordinates":[126.9950338,37.2533421]},"properties":{"pnu":"4111312700100920006","municipality_code":"41110","municipality":"수원시","district":"수원시 권선구","locality":"평동","address":"수원시 권선구 평동 92-6","owner_type":"경기도유지","owner_label":"경기도","manager":"건설국 하천과","property_class":"행정재산","land_category":"잡종지","area_sqm":270.0,"area_band":"100~500㎡","interest_category":"잡종지","solar_candidate":"검토필요","candidate_reason":"실제 이용·점유 여부 확인 후 검토할 잡종지; 면적 270㎡","priority_score":50,"source":"경기부동산포털 국공유지조회·연속지적도","source_date":"2026-08-11","installed_solar_match":false}},{"type":"Feature","id":"4111113800104490000","geometry":{"type":"Point","coordinates":[127.0206549,37.3507104]},"properties":{"pnu":"4111113800104490000","municipality_code":"41110","municipality":"수원시","district":"수원시 장안구","locality":"상광교동","address":"수원시 장안구 상광교동 449","owner_type":"경기도유지","owner_label":"경기도","manager":"소방재난본부 회계장비담당관","property_class":"행정재산","land_category":"잡종지","area_sqm":198.0,"area_band":"100~500㎡","interest_category":"잡종지","solar_candidate":"검토필요","candidate_reason":"실제 이용·점유 여부 확인 후 검토할 잡종지; 면적 198㎡","priority_score":50,"source":"경기부동산포털 국공유지조회·연속지적도","source_date":"2026-08-11","installed_solar_match":false}},{"type":"Feature","id":"4111313500109610004","geometry":{"type":"Point","coordinates":[126.9481677,37.2614361]},"properties":{"pnu":"4111313500109610004","municipality_code":"41110","municipality":"수원시","district":"수원시 권선구","locality":"호매실동","address":"수원시 권선구 호매실동 961-4","owner_type":"경기도유지","owner_label":"경기도","manager":"건설국 도로정책과","property_class":"행정재산","land_category":"잡종지","area_sqm":162.0,"area_band":"100~500㎡","interest_category":"잡종지","solar_candidate":"검토필요","candidate_reason":"실제 이용·점유 여부 확인 후 검토할 잡종지; 면적 162㎡","priority_score":50,"source":"경기부동산포털 국공유지조회·연속지적도","source_date":"2026-08-11","installed_solar_match":false}},{"type":"Feature","id":"4111313500109610005","geometry":{"type":"Point","coordinates":[126.9481449,37.2616488]},"properties":{"pnu":"4111313500109610005","municipality_code":"41110","municipality":"수원시","district":"수원시 권선구","locality":"호매실동","address":"수원시 권선구 호매실동 961-5","owner_type":"경기도유지","owner_label":"경기도","manager":"건설국 도로정책과","property_class":"행정재산","land_category":"잡종지","area_sqm":152.0,"area_band":"100~500㎡","interest_category":"잡종지","solar_candidate":"검토필요","candidate_reason":"실제 이용·점유 여부 확인 후 검토할 잡종지; 면적 152㎡","priority_score":50,"source":"경기부동산포털 국공유지조회·연속지적도","source_date":"2026-08-11","installed_solar_match":false}},{"type":"Feature","id":"4111112900101850013","geometry":{"type":"Point","coordinates":[126.9917602,37.315926]},"properties":{"pnu":"4111112900101850013","municipality_code":"41110","municipality":"수원시","district":"수원시 장안구","locality":"파장동","address":"수원시 장안구 파장동 185-13","owner_type":"경기도유지","owner_label":"경기도","manager":"도시개발국 자산개발과","property_class":"일반재산","land_category":"임야","area_sqm":18268.8,"area_band":"5,000㎡ 이상","interest_category":"대규모부지","solar_candidate":"검토필요","candidate_reason":"넓은 경기도유지로 실제 이용·규제 현황 추가 검토; 면적 18,269㎡","priority_score":45,"source":"경기부동산포털 국공유지조회·연속지적도","source_date":"2026-08-11","installed_solar_match":false}},{"type":"Feature","id":"4111710200105960000","geometry":{"type":"Point","coordinates":[127.063915,37.2726867]},"properties":{"pnu":"4111710200105960000","municipality_code":"41110","municipality":"수원시","district":"수원시 영통구","locality":"원천동","address":"수원시 영통구 원천동 596","owner_type":"경기도유지","owner_label":"경기도(교육감)","manager":"","property_class":"","land_category":"공원","area_sqm":15628.6,"area_band":"5,000㎡ 이상","interest_category":"공원","solar_candidate":"검토필요","candidate_reason":"도시공원 관련 법령 및 공원시설 기준 검토 필요; 면적 15,629㎡","priority_score":45,"source":"경기부동산포털 국공유지조회·연속지적도","source_date":"2026-08-11","installed_solar_match":true,"installed_solar_count":2,"installed_solar_area_sqm":1347.1,"installed_solar_analysis_years":["2024"],"installed_solar_types":["공공시설물"],"installed_solar_permit_status_counts":{"N":2}}},{"type":"Feature","id":"4111312900108830007","geometry":{"type":"Point","coordinates":[126.9718481,37.2312936]},"properties":{"pnu":"4111312900108830007","municipality_code":"41110","municipality":"수원시","district":"수원시 권선구","locality":"오목천동","address":"수원시 권선구 오목천동 883-7","owner_type":"경기도유지","owner_label":"경기도","manager":"자치행정국 자산관리과","property_class":"일반재산","land_category":"임야","area_sqm":5569.0,"area_band":"5,000㎡ 이상","interest_category":"대규모부지","solar_candidate":"검토필요","candidate_reason":"넓은 경기도유지로 실제 이용·규제 현황 추가 검토; 면적 5,569㎡","priority_score":45,"source":"경기부동산포털 국공유지조회·연속지적도","source_date":"2026-08-11","installed_solar_match":false}},{"type":"Feature","id":"4111710300108750003","geometry":{"type":"Point","coordinates":[127.0448,37.2929239]},"properties":{"pnu":"4111710300108750003","municipality_code":"41110","municipality":"수원시","district":"수원시 영통구","locality":"이의동","address":"수원시 영통구 이의동 875-3","owner_type":"경기도유지","owner_label":"경기도","manager":"미래성장산업국 반도체산업과","property_class":"행정재산","land_category":"대","area_sqm":929.0,"area_band":"500~1,000㎡","interest_category":"대","solar_candidate":"검토필요","candidate_reason":"청사·공공건축물·주차장 현황 추가 확인 필요; 면적 929㎡","priority_score":45,"source":"경기부동산포털 국공유지조회·연속지적도","source_date":"2026-08-11","installed_solar_match":false}},{"type":"Feature","id":"4111312800108860145","geometry":{"type":"Point","coordinates":[126.975304,37.2531741]},"properties":{"pnu":"4111312800108860145","municipality_code":"41110","municipality":"수원시","district":"수원시 권선구","locality":"고색동","address":"수원시 권선구 고색동 886-145","owner_type":"경기도유지","owner_label":"경기도","manager":"소방재난본부 회계장비담당관","property_class":"행정재산","land_category":"대","area_sqm":878.0,"area_band":"500~1,000㎡","interest_category":"대","solar_candidate":"검토필요","candidate_reason":"청사·공공건축물·주차장 현황 추가 확인 필요; 면적 878㎡","priority_score":45,"source":"경기부동산포털 국공유지조회·연속지적도","source_date":"2026-08-11","installed_solar_match":false}},{"type":"Feature","id":"4111710300108800001","geometry":{"type":"Point","coordinates":[127.0455789,37.2936472]},"properties":{"pnu":"4111710300108800001","municipality_code":"41110","municipality":"수원시","district":"수원시 영통구","locality":"이의동","address":"수원시 영통구 이의동 880-1","owner_type":"경기도유지","owner_label":"경기도","manager":"미래성장산업국 반도체산업과","property_class":"행정재산","land_category":"대","area_sqm":809.0,"area_band":"500~1,000㎡","interest_category":"대","solar_candidate":"검토필요","candidate_reason":"청사·공공건축물·주차장 현황 추가 확인 필요; 면적 809㎡","priority_score":45,"source":"경기부동산포털 국공유지조회·연속지적도","source_date":"2026-08-11","installed_solar_match":false}},{"type":"Feature","id":"4111710300111510002","geometry":{"type":"Point","coordinates":[127.0446609,37.2943398]},"properties":{"pnu":"4111710300111510002","municipality_code":"41110","municipality":"수원시","district":"수원시 영통구","locality":"이의동","address":"수원시 영통구 이의동 1151-2","owner_type":"경기도유지","owner_label":"경기도","manager":"미래성장산업국 바이오산업과","property_class":"행정재산","land_category":"대","area_sqm":738.0,"area_band":"500~1,000㎡","interest_category":"대","solar_candidate":"검토필요","candidate_reason":"청사·공공건축물·주차장 현황 추가 확인 필요; 면적 738㎡","priority_score":45,"source":"경기부동산포털 국공유지조회·연속지적도","source_date":"2026-08-11","installed_solar_match":false}},{"type":"Feature","id":"4111513600100010002","geometry":{"type":"Point","coordinates":[127.0105976,37.2760015]},"properties":{"pnu":"4111513600100010002","municipality_code":"41110","municipality":"수원시","district":"수원시 팔달구","locality":"매산로3가","address":"수원시 팔달구 매산로3가 1-2","owner_type":"경기도유지","owner_label":"경기도","manager":"자치행정국 자산관리과","property_class":"행정재산","land_category":"대","area_sqm":734.0,"area_band":"500~1,000㎡","interest_category":"대","solar_candidate":"검토필요","candidate_reason":"청사·공공건축물·주차장 현황 추가 확인 필요; 면적 734㎡","priority_score":45,"source":"경기부동산포털 국공유지조회·연속지적도","source_date":"2026-08-11","installed_solar_match":false}},{"type":"Feature","id":"4111512300100060011","geometry":{"type":"Point","coordinates":[127.014588,37.281637]},"properties":{"pnu":"4111512300100060011","municipality_code":"41110","municipality":"수원시","district":"수원시 팔달구","locality":"남창동","address":"수원시 팔달구 남창동 6-11","owner_type":"경기도유지","owner_label":"경기도","manager":"문화체육관광국 문화유산과","property_class":"행정재산","land_category":"대","area_sqm":704.0,"area_band":"500~1,000㎡","interest_category":"대","solar_candidate":"검토필요","candidate_reason":"청사·공공건축물·주차장 현황 추가 확인 필요; 면적 704㎡","priority_score":45,"source":"경기부동산포털 국공유지조회·연속지적도","source_date":"2026-08-11","installed_solar_match":false}},{"type":"Feature","id":"4111512300100060008","geometry":{"type":"Point","coordinates":[127.0143043,37.2816829]},"properties":{"pnu":"4111512300100060008","municipality_code":"41110","municipality":"수원시","district":"수원시 팔달구","locality":"남창동","address":"수원시 팔달구 남창동 6-8","owner_type":"경기도유지","owner_label":"경기도","manager":"문화체육관광국 문화유산과","property_class":"행정재산","land_category":"대","area_sqm":662.0,"area_band":"500~1,000㎡","interest_category":"대","solar_candidate":"검토필요","candidate_reason":"청사·공공건축물·주차장 현황 추가 확인 필요; 면적 662㎡","priority_score":45,"source":"경기부동산포털 국공유지조회·연속지적도","source_date":"2026-08-11","installed_solar_match":false}},{"type":"Feature","id":"4111514100109420006","geometry":{"type":"Point","coordinates":[127.0307463,37.2761085]},"properties":{"pnu":"4111514100109420006","municipality_code":"41110","municipality":"수원시","district":"수원시 팔달구","locality":"인계동","address":"수원시 팔달구 인계동 942-6","owner_type":"경기도유지","owner_label":"경기도","manager":"노동국 노동정책과","property_class":"행정재산","land_category":"대","area_sqm":661.0,"area_band":"500~1,000㎡","interest_category":"대","solar_candidate":"검토필요","candidate_reason":"청사·공공건축물·주차장 현황 추가 확인 필요; 면적 661㎡","priority_score":45,"source":"경기부동산포털 국공유지조회·연속지적도","source_date":"2026-08-11","installed_solar_match":false}},{"type":"Feature","id":"4111710300108800002","geometry":{"type":"Point","coordinates":[127.04594,37.2937261]},"properties":{"pnu":"4111710300108800002","municipality_code":"41110","municipality":"수원시","district":"수원시 영통구","locality":"이의동","address":"수원시 영통구 이의동 880-2","owner_type":"경기도유지","owner_label":"경기도","manager":"미래성장산업국 반도체산업과","property_class":"행정재산","land_category":"대","area_sqm":661.0,"area_band":"500~1,000㎡","interest_category":"대","solar_candidate":"검토필요","candidate_reason":"청사·공공건축물·주차장 현황 추가 확인 필요; 면적 661㎡","priority_score":45,"source":"경기부동산포털 국공유지조회·연속지적도","source_date":"2026-08-11","installed_solar_match":false}},{"type":"Feature","id":"4111314100101310004","geometry":{"type":"Point","coordinates":[126.9420493,37.2952795]},"properties":{"pnu":"4111314100101310004","municipality_code":"41110","municipality":"수원시","district":"수원시 권선구","locality":"당수동","address":"수원시 권선구 당수동 131-4","owner_type":"경기도유지","owner_label":"경기도","manager":"건설국 도로정책과","property_class":"행정재산","land_category":"대","area_sqm":645.0,"area_band":"500~1,000㎡","interest_category":"대","solar_candidate":"검토필요","candidate_reason":"청사·공공건축물·주차장 현황 추가 확인 필요; 면적 645㎡","priority_score":45,"source":"경기부동산포털 국공유지조회·연속지적도","source_date":"2026-08-11","installed_solar_match":false}},{"type":"Feature","id":"4111113100103920006","geometry":{"type":"Point","coordinates":[126.9791622,37.3123781]},"properties":{"pnu":"4111113100103920006","municipality_code":"41110","municipality":"수원시","district":"수원시 장안구","locality":"이목동","address":"수원시 장안구 이목동 392-6","owner_type":"경기도유지","owner_label":"경기도","manager":"소방재난본부 회계장비담당관","property_class":"행정재산","land_category":"대","area_sqm":615.0,"area_band":"500~1,000㎡","interest_category":"대","solar_candidate":"검토필요","candidate_reason":"청사·공공건축물·주차장 현황 추가 확인 필요; 면적 615㎡","priority_score":45,"source":"경기부동산포털 국공유지조회·연속지적도","source_date":"2026-08-11","installed_solar_match":false}},{"type":"Feature","id":"4111710300108750001","geometry":{"type":"Point","coordinates":[127.0443746,37.2929545]},"properties":{"pnu":"4111710300108750001","municipality_code":"41110","municipality":"수원시","district":"수원시 영통구","locality":"이의동","address":"수원시 영통구 이의동 875-1","owner_type":"경기도유지","owner_label":"경기도","manager":"미래성장산업국 반도체산업과","property_class":"행정재산","land_category":"대","area_sqm":603.0,"area_band":"500~1,000㎡","interest_category":"대","solar_candidate":"검토필요","candidate_reason":"청사·공공건축물·주차장 현황 추가 확인 필요; 면적 603㎡","priority_score":45,"source":"경기부동산포털 국공유지조회·연속지적도","source_date":"2026-08-11","installed_solar_match":false}},{"type":"Feature","id":"4111710300108800000","geometry":{"type":"Point","coordinates":[127.0452898,37.2934944]},"properties":{"pnu":"4111710300108800000","municipality_code":"41110","municipality":"수원시","district":"수원시 영통구","locality":"이의동","address":"수원시 영통구 이의동 880","owner_type":"경기도유지","owner_label":"경기도","manager":"미래성장산업국 반도체산업과","property_class":"행정재산","land_category":"대","area_sqm":603.0,"area_band":"500~1,000㎡","interest_category":"대","solar_candidate":"검토필요","candidate_reason":"청사·공공건축물·주차장 현황 추가 확인 필요; 면적 603㎡","priority_score":45,"source":"경기부동산포털 국공유지조회·연속지적도","source_date":"2026-08-11","installed_solar_match":false}},{"type":"Feature","id":"4111710300108820002","geometry":{"type":"Point","coordinates":[127.0475129,37.293371]},"properties":{"pnu":"4111710300108820002","municipality_code":"41110","municipality":"수원시","district":"수원시 영통구","locality":"이의동","address":"수원시 영통구 이의동 882-2","owner_type":"경기도유지","owner_label":"경기도","manager":"미래성장산업국 반도체산업과","property_class":"행정재산","land_category":"대","area_sqm":595.0,"area_band":"500~1,000㎡","interest_category":"대","solar_candidate":"검토필요","candidate_reason":"청사·공공건축물·주차장 현황 추가 확인 필요; 면적 595㎡","priority_score":45,"source":"경기부동산포털 국공유지조회·연속지적도","source_date":"2026-08-11","installed_solar_match":false}},{"type":"Feature","id":"4111313400107460003","geometry":{"type":"Point","coordinates":[126.9343783,37.2688715]},"properties":{"pnu":"4111313400107460003","municipality_code":"41110","municipality":"수원시","district":"수원시 권선구","locality":"금곡동","address":"수원시 권선구 금곡동 746-3","owner_type":"경기도유지","owner_label":"경기도","manager":"경기도동물위생시험소","property_class":"행정재산","land_category":"대","area_sqm":582.0,"area_band":"500~1,000㎡","interest_category":"대","solar_candidate":"검토필요","candidate_reason":"청사·공공건축물·주차장 현황 추가 확인 필요; 면적 582㎡","priority_score":45,"source":"경기부동산포털 국공유지조회·연속지적도","source_date":"2026-08-11","installed_solar_match":false}},{"type":"Feature","id":"4111113400103490039","geometry":{"type":"Point","coordinates":[127.0120888,37.2877408]},"properties":{"pnu":"4111113400103490039","municipality_code":"41110","municipality":"수원시","district":"수원시 장안구","locality":"영화동","address":"수원시 장안구 영화동 349-39","owner_type":"경기도유지","owner_label":"경기도","manager":"건설국 도로정책과","property_class":"행정재산","land_category":"대","area_sqm":539.0,"area_band":"500~1,000㎡","interest_category":"대","solar_candidate":"검토필요","candidate_reason":"청사·공공건축물·주차장 현황 추가 확인 필요; 면적 539㎡","priority_score":45,"source":"경기부동산포털 국공유지조회·연속지적도","source_date":"2026-08-11","installed_solar_match":false}},{"type":"Feature","id":"4111113600104560049","geometry":{"type":"Point","coordinates":[127.0207568,37.3019035]},"properties":{"pnu":"4111113600104560049","municipality_code":"41110","municipality":"수원시","district":"수원시 장안구","locality":"조원동","address":"수원시 장안구 조원동 456-49","owner_type":"경기도유지","owner_label":"경기도(교육감)","manager":"","property_class":"","land_category":"대","area_sqm":525.0,"area_band":"500~1,000㎡","interest_category":"대","solar_candidate":"검토필요","candidate_reason":"청사·공공건축물·주차장 현황 추가 확인 필요; 면적 525㎡","priority_score":45,"source":"경기부동산포털 국공유지조회·연속지적도","source_date":"2026-08-11","installed_solar_match":false}},{"type":"Feature","id":"4111313600101110022","geometry":{"type":"Point","coordinates":[127.0374532,37.2410067]},"properties":{"pnu":"4111313600101110022","municipality_code":"41110","municipality":"수원시","district":"수원시 권선구","locality":"곡반정동","address":"수원시 권선구 곡반정동 111-22","owner_type":"경기도유지","owner_label":"경기도","manager":"건설국 하천과","property_class":"행정재산","land_category":"대","area_sqm":513.0,"area_band":"500~1,000㎡","interest_category":"대","solar_candidate":"검토필요","candidate_reason":"청사·공공건축물·주차장 현황 추가 확인 필요; 면적 513㎡","priority_score":45,"source":"경기부동산포털 국공유지조회·연속지적도","source_date":"2026-08-11","installed_solar_match":false}},{"type":"Feature","id":"4111313600101110021","geometry":{"type":"Point","coordinates":[127.0380029,37.2417499]},"properties":{"pnu":"4111313600101110021","municipality_code":"41110","municipality":"수원시","district":"수원시 권선구","locality":"곡반정동","address":"수원시 권선구 곡반정동 111-21","owner_type":"경기도유지","owner_label":"경기도","manager":"건설국 하천과","property_class":"행정재산","land_category":"대","area_sqm":508.0,"area_band":"500~1,000㎡","interest_category":"대","solar_candidate":"검토필요","candidate_reason":"청사·공공건축물·주차장 현황 추가 확인 필요; 면적 508㎡","priority_score":45,"source":"경기부동산포털 국공유지조회·연속지적도","source_date":"2026-08-11","installed_solar_match":false}},{"type":"Feature","id":"4111710300111510000","geometry":{"type":"Point","coordinates":[127.0434613,37.2943106]},"properties":{"pnu":"4111710300111510000","municipality_code":"41110","municipality":"수원시","district":"수원시 영통구","locality":"이의동","address":"수원시 영통구 이의동 1151","owner_type":"경기도유지","owner_label":"경기도","manager":"미래성장산업국 바이오산업과","property_class":"행정재산","land_category":"대","area_sqm":508.0,"area_band":"500~1,000㎡","interest_category":"대","solar_candidate":"검토필요","candidate_reason":"청사·공공건축물·주차장 현황 추가 확인 필요; 면적 508㎡","priority_score":45,"source":"경기부동산포털 국공유지조회·연속지적도","source_date":"2026-08-11","installed_solar_match":true,"installed_solar_count":1,"installed_solar_area_sqm":35.1,"installed_solar_analysis_years":["2024"],"installed_solar_types":["공공시설물"],"installed_solar_permit_status_counts":{"N":1}}},{"type":"Feature","id":"4111710300108750004","geometry":{"type":"Point","coordinates":[127.0439838,37.2931637]},"properties":{"pnu":"4111710300108750004","municipality_code":"41110","municipality":"수원시","district":"수원시 영통구","locality":"이의동","address":"수원시 영통구 이의동 875-4","owner_type":"경기도유지","owner_label":"경기도","manager":"미래성장산업국 반도체산업과","property_class":"행정재산","land_category":"대","area_sqm":503.0,"area_band":"500~1,000㎡","interest_category":"대","solar_candidate":"검토필요","candidate_reason":"청사·공공건축물·주차장 현황 추가 확인 필요; 면적 503㎡","priority_score":45,"source":"경기부동산포털 국공유지조회·연속지적도","source_date":"2026-08-11","installed_solar_match":false}},{"type":"Feature","id":"4111710300111870005","geometry":{"type":"Point","coordinates":[127.0423228,37.3100063]},"properties":{"pnu":"4111710300111870005","municipality_code":"41110","municipality":"수원시","district":"수원시 영통구","locality":"이의동","address":"수원시 영통구 이의동 1187-5","owner_type":"경기도유지","owner_label":"경기도(경기도교육감)","manager":"","property_class":"","land_category":"대","area_sqm":502.3,"area_band":"500~1,000㎡","interest_category":"대","solar_candidate":"검토필요","candidate_reason":"청사·공공건축물·주차장 현황 추가 확인 필요; 면적 502㎡","priority_score":45,"source":"경기부동산포털 국공유지조회·연속지적도","source_date":"2026-08-11","installed_solar_match":true,"installed_solar_count":1,"installed_solar_area_sqm":20.8,"installed_solar_analysis_years":["2024"],"installed_solar_types":["개인주택"],"installed_solar_permit_status_counts":{"Y":1}}},{"type":"Feature","id":"4111710300108750005","geometry":{"type":"Point","coordinates":[127.044164,37.2930752]},"properties":{"pnu":"4111710300108750005","municipality_code":"41110","municipality":"수원시","district":"수원시 영통구","locality":"이의동","address":"수원시 영통구 이의동 875-5","owner_type":"경기도유지","owner_label":"경기도","manager":"미래성장산업국 반도체산업과","property_class":"행정재산","land_category":"대","area_sqm":502.0,"area_band":"500~1,000㎡","interest_category":"대","solar_candidate":"검토필요","candidate_reason":"청사·공공건축물·주차장 현황 추가 확인 필요; 면적 502㎡","priority_score":45,"source":"경기부동산포털 국공유지조회·연속지적도","source_date":"2026-08-11","installed_solar_match":false}},{"type":"Feature","id":"4111113200105560000","geometry":{"type":"Point","coordinates":[126.9633393,37.302883]},"properties":{"pnu":"4111113200105560000","municipality_code":"41110","municipality":"수원시","district":"수원시 장안구","locality":"율전동","address":"수원시 장안구 율전동 556","owner_type":"경기도유지","owner_label":"경기도","manager":"건설국 도로정책과","property_class":"행정재산","land_category":"도로","area_sqm":12398.0,"area_band":"5,000㎡ 이상","interest_category":"도로","solar_candidate":"검토필요","candidate_reason":"도로점용 및 실제 이용형태 추가 검토 필요; 면적 12,398㎡","priority_score":40,"source":"경기부동산포털 국공유지조회·연속지적도","source_date":"2026-08-11","installed_solar_match":false}},{"type":"Feature","id":"4111113200200690002","geometry":{"type":"Point","coordinates":[126.9669133,37.3113079]},"properties":{"pnu":"4111113200200690002","municipality_code":"41110","municipality":"수원시","district":"수원시 장안구","locality":"율전동","address":"수원시 장안구 율전동 산69-2","owner_type":"경기도유지","owner_label":"경기도","manager":"건설국 도로정책과","property_class":"행정재산","land_category":"도로","area_sqm":12182.0,"area_band":"5,000㎡ 이상","interest_category":"도로","solar_candidate":"검토필요","candidate_reason":"도로점용 및 실제 이용형태 추가 검토 필요; 면적 12,182㎡","priority_score":40,"source":"경기부동산포털 국공유지조회·연속지적도","source_date":"2026-08-11","installed_solar_match":false}},{"type":"Feature","id":"4111113200200380001","geometry":{"type":"Point","coordinates":[126.9658871,37.3068501]},"properties":{"pnu":"4111113200200380001","municipality_code":"41110","municipality":"수원시","district":"수원시 장안구","locality":"율전동","address":"수원시 장안구 율전동 산38-1","owner_type":"경기도유지","owner_label":"경기도","manager":"건설국 도로정책과","property_class":"행정재산","land_category":"도로","area_sqm":9756.0,"area_band":"5,000㎡ 이상","interest_category":"도로","solar_candidate":"검토필요","candidate_reason":"도로점용 및 실제 이용형태 추가 검토 필요; 면적 9,756㎡","priority_score":40,"source":"경기부동산포털 국공유지조회·연속지적도","source_date":"2026-08-11","installed_solar_match":false}},{"type":"Feature","id":"4111113200105570003","geometry":{"type":"Point","coordinates":[126.9627613,37.3022122]},"properties":{"pnu":"4111113200105570003","municipality_code":"41110","municipality":"수원시","district":"수원시 장안구","locality":"율전동","address":"수원시 장안구 율전동 557-3","owner_type":"경기도유지","owner_label":"경기도","manager":"건설국 도로정책과","property_class":"행정재산","land_category":"도로","area_sqm":9720.0,"area_band":"5,000㎡ 이상","interest_category":"도로","solar_candidate":"검토필요","candidate_reason":"도로점용 및 실제 이용형태 추가 검토 필요; 면적 9,720㎡","priority_score":40,"source":"경기부동산포털 국공유지조회·연속지적도","source_date":"2026-08-11","installed_solar_match":false}},{"type":"Feature","id":"4111113200200760000","geometry":{"type":"Point","coordinates":[126.9648391,37.3051034]},"properties":{"pnu":"4111113200200760000","municipality_code":"41110","municipality":"수원시","district":"수원시 장안구","locality":"율전동","address":"수원시 장안구 율전동 산76","owner_type":"경기도유지","owner_label":"경기도","manager":"건설국 도로정책과","property_class":"행정재산","land_category":"도로","area_sqm":8560.0,"area_band":"5,000㎡ 이상","interest_category":"도로","solar_candidate":"검토필요","candidate_reason":"도로점용 및 실제 이용형태 추가 검토 필요; 면적 8,560㎡","priority_score":40,"source":"경기부동산포털 국공유지조회·연속지적도","source_date":"2026-08-11","installed_solar_match":false}},{"type":"Feature","id":"4111113200105750000","geometry":{"type":"Point","coordinates":[126.9642871,37.303917]},"properties":{"pnu":"4111113200105750000","municipality_code":"41110","municipality":"수원시","district":"수원시 장안구","locality":"율전동","address":"수원시 장안구 율전동 575","owner_type":"경기도유지","owner_label":"경기도","manager":"건설국 도로정책과","property_class":"행정재산","land_category":"도로","area_sqm":6964.0,"area_band":"5,000㎡ 이상","interest_category":"도로","solar_candidate":"검토필요","candidate_reason":"도로점용 및 실제 이용형태 추가 검토 필요; 면적 6,964㎡","priority_score":40,"source":"경기부동산포털 국공유지조회·연속지적도","source_date":"2026-08-11","installed_solar_match":false}},{"type":"Feature","id":"4111710700105680003","geometry":{"type":"Point","coordinates":[127.0588915,37.2374379]},"properties":{"pnu":"4111710700105680003","municipality_code":"41110","municipality":"수원시","district":"수원시 영통구","locality":"망포동","address":"수원시 영통구 망포동 568-3","owner_type":"경기도유지","owner_label":"경기도","manager":"건설국 도로정책과","property_class":"행정재산","land_category":"도로","area_sqm":6756.0,"area_band":"5,000㎡ 이상","interest_category":"도로","solar_candidate":"검토필요","candidate_reason":"도로점용 및 실제 이용형태 추가 검토 필요; 면적 6,756㎡","priority_score":40,"source":"경기부동산포털 국공유지조회·연속지적도","source_date":"2026-08-11","installed_solar_match":false}},{"type":"Feature","id":"4111710700105420002","geometry":{"type":"Point","coordinates":[127.0565949,37.2385255]},"properties":{"pnu":"4111710700105420002","municipality_code":"41110","municipality":"수원시","district":"수원시 영통구","locality":"망포동","address":"수원시 영통구 망포동 542-2","owner_type":"경기도유지","owner_label":"경기도","manager":"건설국 도로정책과","property_class":"행정재산","land_category":"도로","area_sqm":6620.0,"area_band":"5,000㎡ 이상","interest_category":"도로","solar_candidate":"검토필요","candidate_reason":"도로점용 및 실제 이용형태 추가 검토 필요; 면적 6,620㎡","priority_score":40,"source":"경기부동산포털 국공유지조회·연속지적도","source_date":"2026-08-11","installed_solar_match":false}},{"type":"Feature","id":"4111112900101790004","geometry":{"type":"Point","coordinates":[126.9908093,37.3164492]},"properties":{"pnu":"4111112900101790004","municipality_code":"41110","municipality":"수원시","district":"수원시 장안구","locality":"파장동","address":"수원시 장안구 파장동 179-4","owner_type":"경기도유지","owner_label":"경기도","manager":"도시개발국 자산개발과","property_class":"일반재산","land_category":"임야","area_sqm":3889.8,"area_band":"3,000~5,000㎡","interest_category":"대규모부지","solar_candidate":"검토필요","candidate_reason":"넓은 경기도유지로 실제 이용·규제 현황 추가 검토; 면적 3,890㎡","priority_score":40,"source":"경기부동산포털 국공유지조회·연속지적도","source_date":"2026-08-11","installed_solar_match":false}},{"type":"Feature","id":"4111112900101790021","geometry":{"type":"Point","coordinates":[126.9903345,37.3160256]},"properties":{"pnu":"4111112900101790021","municipality_code":"41110","municipality":"수원시","district":"수원시 장안구","locality":"파장동","address":"수원시 장안구 파장동 179-21","owner_type":"경기도유지","owner_label":"경기도","manager":"도시개발국 자산개발과","property_class":"일반재산","land_category":"임야","area_sqm":3143.0,"area_band":"3,000~5,000㎡","interest_category":"대규모부지","solar_candidate":"검토필요","candidate_reason":"넓은 경기도유지로 실제 이용·규제 현황 추가 검토; 면적 3,143㎡","priority_score":40,"source":"경기부동산포털 국공유지조회·연속지적도","source_date":"2026-08-11","installed_solar_match":false}},{"type":"Feature","id":"4111313100102070051","geometry":{"type":"Point","coordinates":[126.9862122,37.271661]},"properties":{"pnu":"4111313100102070051","municipality_code":"41110","municipality":"수원시","district":"수원시 권선구","locality":"서둔동","address":"수원시 권선구 서둔동 207-51","owner_type":"경기도유지","owner_label":"경기도","manager":"건설국 하천과","property_class":"행정재산","land_category":"대","area_sqm":489.0,"area_band":"100~500㎡","interest_category":"대","solar_candidate":"검토필요","candidate_reason":"청사·공공건축물·주차장 현황 추가 확인 필요; 면적 489㎡","priority_score":40,"source":"경기부동산포털 국공유지조회·연속지적도","source_date":"2026-08-11","installed_solar_match":false}},{"type":"Feature","id":"4111113400104370011","geometry":{"type":"Point","coordinates":[127.0098,37.2879613]},"properties":{"pnu":"4111113400104370011","municipality_code":"41110","municipality":"수원시","district":"수원시 장안구","locality":"영화동","address":"수원시 장안구 영화동 437-11","owner_type":"경기도유지","owner_label":"경기도","manager":"여성가족국 아동돌봄과","property_class":"행정재산","land_category":"대","area_sqm":481.9,"area_band":"100~500㎡","interest_category":"대","solar_candidate":"검토필요","candidate_reason":"청사·공공건축물·주차장 현황 추가 확인 필요; 면적 482㎡","priority_score":40,"source":"경기부동산포털 국공유지조회·연속지적도","source_date":"2026-08-11","installed_solar_match":false}},{"type":"Feature","id":"4111710300112920003","geometry":{"type":"Point","coordinates":[127.0445951,37.2955202]},"properties":{"pnu":"4111710300112920003","municipality_code":"41110","municipality":"수원시","district":"수원시 영통구","locality":"이의동","address":"수원시 영통구 이의동 1292-3","owner_type":"경기도유지","owner_label":"경기도","manager":"미래성장산업국 바이오산업과","property_class":"행정재산","land_category":"대","area_sqm":452.5,"area_band":"100~500㎡","interest_category":"대","solar_candidate":"검토필요","candidate_reason":"청사·공공건축물·주차장 현황 추가 확인 필요; 면적 452㎡","priority_score":40,"source":"경기부동산포털 국공유지조회·연속지적도","source_date":"2026-08-11","installed_solar_match":false}},{"type":"Feature","id":"4111710300108850002","geometry":{"type":"Point","coordinates":[127.0473023,37.2930276]},"properties":{"pnu":"4111710300108850002","municipality_code":"41110","municipality":"수원시","district":"수원시 영통구","locality":"이의동","address":"수원시 영통구 이의동 885-2","owner_type":"경기도유지","owner_label":"경기도","manager":"미래성장산업국 반도체산업과","property_class":"행정재산","land_category":"대","area_sqm":442.0,"area_band":"100~500㎡","interest_category":"대","solar_candidate":"검토필요","candidate_reason":"청사·공공건축물·주차장 현황 추가 확인 필요; 면적 442㎡","priority_score":40,"source":"경기부동산포털 국공유지조회·연속지적도","source_date":"2026-08-11","installed_solar_match":false}},{"type":"Feature","id":"4111710300108760001","geometry":{"type":"Point","coordinates":[127.0448808,37.2931839]},"properties":{"pnu":"4111710300108760001","municipality_code":"41110","municipality":"수원시","district":"수원시 영통구","locality":"이의동","address":"수원시 영통구 이의동 876-1","owner_type":"경기도유지","owner_label":"경기도","manager":"미래성장산업국 반도체산업과","property_class":"행정재산","land_category":"대","area_sqm":433.0,"area_band":"100~500㎡","interest_category":"대","solar_candidate":"검토필요","candidate_reason":"청사·공공건축물·주차장 현황 추가 확인 필요; 면적 433㎡","priority_score":40,"source":"경기부동산포털 국공유지조회·연속지적도","source_date":"2026-08-11","installed_solar_match":false}},{"type":"Feature","id":"4111513600100040006","geometry":{"type":"Point","coordinates":[127.0106958,37.2751815]},"properties":{"pnu":"4111513600100040006","municipality_code":"41110","municipality":"수원시","district":"수원시 팔달구","locality":"매산로3가","address":"수원시 팔달구 매산로3가 4-6","owner_type":"경기도유지","owner_label":"경기도","manager":"건설국 도로정책과","property_class":"행정재산","land_category":"대","area_sqm":418.0,"area_band":"100~500㎡","interest_category":"대","solar_candidate":"검토필요","candidate_reason":"청사·공공건축물·주차장 현황 추가 확인 필요; 면적 418㎡","priority_score":40,"source":"경기부동산포털 국공유지조회·연속지적도","source_date":"2026-08-11","installed_solar_match":false}},{"type":"Feature","id":"4111512300100060005","geometry":{"type":"Point","coordinates":[127.013761,37.2814603]},"properties":{"pnu":"4111512300100060005","municipality_code":"41110","municipality":"수원시","district":"수원시 팔달구","locality":"남창동","address":"수원시 팔달구 남창동 6-5","owner_type":"경기도유지","owner_label":"경기도","manager":"문화체육관광국 문화유산과","property_class":"행정재산","land_category":"대","area_sqm":393.0,"area_band":"100~500㎡","interest_category":"대","solar_candidate":"검토필요","candidate_reason":"청사·공공건축물·주차장 현황 추가 확인 필요; 면적 393㎡","priority_score":40,"source":"경기부동산포털 국공유지조회·연속지적도","source_date":"2026-08-11","installed_solar_match":false}},{"type":"Feature","id":"4111313100100610010","geometry":{"type":"Point","coordinates":[126.9890744,37.2632158]},"properties":{"pnu":"4111313100100610010","municipality_code":"41110","municipality":"수원시","district":"수원시 권선구","locality":"서둔동","address":"수원시 권선구 서둔동 61-10","owner_type":"경기도유지","owner_label":"경기도","manager":"건설국 하천과","property_class":"행정재산","land_category":"대","area_sqm":354.0,"area_band":"100~500㎡","interest_category":"대","solar_candidate":"검토필요","candidate_reason":"청사·공공건축물·주차장 현황 추가 확인 필요; 면적 354㎡","priority_score":40,"source":"경기부동산포털 국공유지조회·연속지적도","source_date":"2026-08-11","installed_solar_match":false}},{"type":"Feature","id":"4111313100102070050","geometry":{"type":"Point","coordinates":[126.9862046,37.2719726]},"properties":{"pnu":"4111313100102070050","municipality_code":"41110","municipality":"수원시","district":"수원시 권선구","locality":"서둔동","address":"수원시 권선구 서둔동 207-50","owner_type":"경기도유지","owner_label":"경기도","manager":"건설국 하천과","property_class":"행정재산","land_category":"대","area_sqm":312.0,"area_band":"100~500㎡","interest_category":"대","solar_candidate":"검토필요","candidate_reason":"청사·공공건축물·주차장 현황 추가 확인 필요; 면적 312㎡","priority_score":40,"source":"경기부동산포털 국공유지조회·연속지적도","source_date":"2026-08-11","installed_solar_match":false}},{"type":"Feature","id":"4111513700100420138","geometry":{"type":"Point","coordinates":[127.0080414,37.2765823]},"properties":{"pnu":"4111513700100420138","municipality_code":"41110","municipality":"수원시","district":"수원시 팔달구","locality":"고등동","address":"수원시 팔달구 고등동 42-138","owner_type":"경기도유지","owner_label":"경기도","manager":"자치행정국 자산관리과","property_class":"행정재산","land_category":"대","area_sqm":309.0,"area_band":"100~500㎡","interest_category":"대","solar_candidate":"검토필요","candidate_reason":"청사·공공건축물·주차장 현황 추가 확인 필요; 면적 309㎡","priority_score":40,"source":"경기부동산포털 국공유지조회·연속지적도","source_date":"2026-08-11","installed_solar_match":false}},{"type":"Feature","id":"4111513800100430021","geometry":{"type":"Point","coordinates":[127.0068757,37.2830752]},"properties":{"pnu":"4111513800100430021","municipality_code":"41110","municipality":"수원시","district":"수원시 팔달구","locality":"화서동","address":"수원시 팔달구 화서동 43-21","owner_type":"경기도유지","owner_label":"경기도","manager":"자치행정국 자산관리과","property_class":"행정재산","land_category":"대","area_sqm":281.0,"area_band":"100~500㎡","interest_category":"대","solar_candidate":"검토필요","candidate_reason":"청사·공공건축물·주차장 현황 추가 확인 필요; 면적 281㎡","priority_score":40,"source":"경기부동산포털 국공유지조회·연속지적도","source_date":"2026-08-11","installed_solar_match":false}},{"type":"Feature","id":"4111313100100610016","geometry":{"type":"Point","coordinates":[126.9890418,37.2631203]},"properties":{"pnu":"4111313100100610016","municipality_code":"41110","municipality":"수원시","district":"수원시 권선구","locality":"서둔동","address":"수원시 권선구 서둔동 61-16","owner_type":"경기도유지","owner_label":"경기도","manager":"건설국 하천과","property_class":"행정재산","land_category":"대","area_sqm":257.0,"area_band":"100~500㎡","interest_category":"대","solar_candidate":"검토필요","candidate_reason":"청사·공공건축물·주차장 현황 추가 확인 필요; 면적 257㎡","priority_score":40,"source":"경기부동산포털 국공유지조회·연속지적도","source_date":"2026-08-11","installed_solar_match":false}},{"type":"Feature","id":"4111112900101850009","geometry":{"type":"Point","coordinates":[126.994266,37.3166539]},"properties":{"pnu":"4111112900101850009","municipality_code":"41110","municipality":"수원시","district":"수원시 장안구","locality":"파장동","address":"수원시 장안구 파장동 185-9","owner_type":"경기도유지","owner_label":"경기도","manager":"경기도인재개발원","property_class":"행정재산","land_category":"대","area_sqm":252.0,"area_band":"100~500㎡","interest_category":"대","solar_candidate":"검토필요","candidate_reason":"청사·공공건축물·주차장 현황 추가 확인 필요; 면적 252㎡","priority_score":40,"source":"경기부동산포털 국공유지조회·연속지적도","source_date":"2026-08-11","installed_solar_match":false}},{"type":"Feature","id":"4111512300100060016","geometry":{"type":"Point","coordinates":[127.0134154,37.2813739]},"properties":{"pnu":"4111512300100060016","municipality_code":"41110","municipality":"수원시","district":"수원시 팔달구","locality":"남창동","address":"수원시 팔달구 남창동 6-16","owner_type":"경기도유지","owner_label":"경기도","manager":"문화체육관광국 문화유산과","property_class":"행정재산","land_category":"대","area_sqm":234.0,"area_band":"100~500㎡","interest_category":"대","solar_candidate":"검토필요","candidate_reason":"청사·공공건축물·주차장 현황 추가 확인 필요; 면적 234㎡","priority_score":40,"source":"경기부동산포털 국공유지조회·연속지적도","source_date":"2026-08-11","installed_solar_match":false}},{"type":"Feature","id":"4111313100100540008","geometry":{"type":"Point","coordinates":[126.9886555,37.2653539]},"properties":{"pnu":"4111313100100540008","municipality_code":"41110","municipality":"수원시","district":"수원시 권선구","locality":"서둔동","address":"수원시 권선구 서둔동 54-8","owner_type":"경기도유지","owner_label":"경기도","manager":"건설국 하천과","property_class":"행정재산","land_category":"대","area_sqm":223.0,"area_band":"100~500㎡","interest_category":"대","solar_candidate":"검토필요","candidate_reason":"청사·공공건축물·주차장 현황 추가 확인 필요; 면적 223㎡","priority_score":40,"source":"경기부동산포털 국공유지조회·연속지적도","source_date":"2026-08-11","installed_solar_match":false}},{"type":"Feature","id":"4111513600100100031","geometry":{"type":"Point","coordinates":[127.0106007,37.2732749]},"properties":{"pnu":"4111513600100100031","municipality_code":"41110","municipality":"수원시","district":"수원시 팔달구","locality":"매산로3가","address":"수원시 팔달구 매산로3가 10-31","owner_type":"경기도유지","owner_label":"경기도","manager":"자치행정국 자산관리과","property_class":"행정재산","land_category":"대","area_sqm":215.0,"area_band":"100~500㎡","interest_category":"대","solar_candidate":"검토필요","candidate_reason":"청사·공공건축물·주차장 현황 추가 확인 필요; 면적 215㎡","priority_score":40,"source":"경기부동산포털 국공유지조회·연속지적도","source_date":"2026-08-11","installed_solar_match":false}},{"type":"Feature","id":"4111113400103720017","geometry":{"type":"Point","coordinates":[127.0087146,37.2857955]},"properties":{"pnu":"4111113400103720017","municipality_code":"41110","municipality":"수원시","district":"수원시 장안구","locality":"영화동","address":"수원시 장안구 영화동 372-17","owner_type":"경기도유지","owner_label":"경기도","manager":"건설국 도로정책과","property_class":"행정재산","land_category":"대","area_sqm":208.0,"area_band":"100~500㎡","interest_category":"대","solar_candidate":"검토필요","candidate_reason":"청사·공공건축물·주차장 현황 추가 확인 필요; 면적 208㎡","priority_score":40,"source":"경기부동산포털 국공유지조회·연속지적도","source_date":"2026-08-11","installed_solar_match":false}},{"type":"Feature","id":"4111514100102460010","geometry":{"type":"Point","coordinates":[127.0268824,37.2750179]},"properties":{"pnu":"4111514100102460010","municipality_code":"41110","municipality":"수원시","district":"수원시 팔달구","locality":"인계동","address":"수원시 팔달구 인계동 246-10","owner_type":"경기도유지","owner_label":"경기도교육감","manager":"","property_class":"","land_category":"대","area_sqm":208.0,"area_band":"100~500㎡","interest_category":"대","solar_candidate":"검토필요","candidate_reason":"청사·공공건축물·주차장 현황 추가 확인 필요; 면적 208㎡","priority_score":40,"source":"경기부동산포털 국공유지조회·연속지적도","source_date":"2026-08-11","installed_solar_match":false}},{"type":"Feature","id":"4111113500100680028","geometry":{"type":"Point","coordinates":[127.0047946,37.3083696]},"properties":{"pnu":"4111113500100680028","municipality_code":"41110","municipality":"수원시","district":"수원시 장안구","locality":"송죽동","address":"수원시 장안구 송죽동 68-28","owner_type":"경기도유지","owner_label":"경기도(교육감)","manager":"","property_class":"","land_category":"대","area_sqm":192.0,"area_band":"100~500㎡","interest_category":"대","solar_candidate":"검토필요","candidate_reason":"청사·공공건축물·주차장 현황 추가 확인 필요; 면적 192㎡","priority_score":40,"source":"경기부동산포털 국공유지조회·연속지적도","source_date":"2026-08-11","installed_solar_match":false}},{"type":"Feature","id":"4111113600104560057","geometry":{"type":"Point","coordinates":[127.0202537,37.3016735]},"properties":{"pnu":"4111113600104560057","municipality_code":"41110","municipality":"수원시","district":"수원시 장안구","locality":"조원동","address":"수원시 장안구 조원동 456-57","owner_type":"경기도유지","owner_label":"경기도(교육감)","manager":"","property_class":"","land_category":"대","area_sqm":174.0,"area_band":"100~500㎡","interest_category":"대","solar_candidate":"검토필요","candidate_reason":"청사·공공건축물·주차장 현황 추가 확인 필요; 면적 174㎡","priority_score":40,"source":"경기부동산포털 국공유지조회·연속지적도","source_date":"2026-08-11","installed_solar_match":false}},{"type":"Feature","id":"4111313100102070046","geometry":{"type":"Point","coordinates":[126.986237,37.2714189]},"properties":{"pnu":"4111313100102070046","municipality_code":"41110","municipality":"수원시","district":"수원시 권선구","locality":"서둔동","address":"수원시 권선구 서둔동 207-46","owner_type":"경기도유지","owner_label":"경기도","manager":"건설국 하천과","property_class":"행정재산","land_category":"대","area_sqm":174.0,"area_band":"100~500㎡","interest_category":"대","solar_candidate":"검토필요","candidate_reason":"청사·공공건축물·주차장 현황 추가 확인 필요; 면적 174㎡","priority_score":40,"source":"경기부동산포털 국공유지조회·연속지적도","source_date":"2026-08-11","installed_solar_match":false}},{"type":"Feature","id":"4111313400107460007","geometry":{"type":"Point","coordinates":[126.9344838,37.2686124]},"properties":{"pnu":"4111313400107460007","municipality_code":"41110","municipality":"수원시","district":"수원시 권선구","locality":"금곡동","address":"수원시 권선구 금곡동 746-7","owner_type":"경기도유지","owner_label":"경기도","manager":"경기도동물위생시험소","property_class":"행정재산","land_category":"대","area_sqm":159.0,"area_band":"100~500㎡","interest_category":"대","solar_candidate":"검토필요","candidate_reason":"청사·공공건축물·주차장 현황 추가 확인 필요; 면적 159㎡","priority_score":40,"source":"경기부동산포털 국공유지조회·연속지적도","source_date":"2026-08-11","installed_solar_match":false}},{"type":"Feature","id":"4111312600100660005","geometry":{"type":"Point","coordinates":[127.008809,37.265956]},"properties":{"pnu":"4111312600100660005","municipality_code":"41110","municipality":"수원시","district":"수원시 권선구","locality":"세류동","address":"수원시 권선구 세류동 66-5","owner_type":"경기도유지","owner_label":"경기도(교육감)","manager":"","property_class":"","land_category":"대","area_sqm":152.0,"area_band":"100~500㎡","interest_category":"대","solar_candidate":"검토필요","candidate_reason":"청사·공공건축물·주차장 현황 추가 확인 필요; 면적 152㎡","priority_score":40,"source":"경기부동산포털 국공유지조회·연속지적도","source_date":"2026-08-11","installed_solar_match":false}},{"type":"Feature","id":"4111113400103720002","geometry":{"type":"Point","coordinates":[127.0088739,37.2858299]},"properties":{"pnu":"4111113400103720002","municipality_code":"41110","municipality":"수원시","district":"수원시 장안구","locality":"영화동","address":"수원시 장안구 영화동 372-2","owner_type":"경기도유지","owner_label":"경기도","manager":"건설국 도로정책과","property_class":"행정재산","land_category":"대","area_sqm":145.0,"area_band":"100~500㎡","interest_category":"대","solar_candidate":"검토필요","candidate_reason":"청사·공공건축물·주차장 현황 추가 확인 필요; 면적 145㎡","priority_score":40,"source":"경기부동산포털 국공유지조회·연속지적도","source_date":"2026-08-11","installed_solar_match":false}},{"type":"Feature","id":"4111312700100390094","geometry":{"type":"Point","coordinates":[126.9914811,37.2579295]},"properties":{"pnu":"4111312700100390094","municipality_code":"41110","municipality":"수원시","district":"수원시 권선구","locality":"평동","address":"수원시 권선구 평동 39-94","owner_type":"경기도유지","owner_label":"경기도","manager":"건설국 하천과","property_class":"행정재산","land_category":"대","area_sqm":140.0,"area_band":"100~500㎡","interest_category":"대","solar_candidate":"검토필요","candidate_reason":"청사·공공건축물·주차장 현황 추가 확인 필요; 면적 140㎡","priority_score":40,"source":"경기부동산포털 국공유지조회·연속지적도","source_date":"2026-08-11","installed_solar_match":false}},{"type":"Feature","id":"4111313000102050008","geometry":{"type":"Point","coordinates":[126.9917377,37.2434307]},"properties":{"pnu":"4111313000102050008","municipality_code":"41110","municipality":"수원시","district":"수원시 권선구","locality":"평리동","address":"수원시 권선구 평리동 205-8","owner_type":"경기도유지","owner_label":"경기도","manager":"건설국 하천과","property_class":"행정재산","land_category":"대","area_sqm":140.0,"area_band":"100~500㎡","interest_category":"대","solar_candidate":"검토필요","candidate_reason":"청사·공공건축물·주차장 현황 추가 확인 필요; 면적 140㎡","priority_score":40,"source":"경기부동산포털 국공유지조회·연속지적도","source_date":"2026-08-11","installed_solar_match":false}},{"type":"Feature","id":"4111113400103740003","geometry":{"type":"Point","coordinates":[127.0085622,37.2857546]},"properties":{"pnu":"4111113400103740003","municipality_code":"41110","municipality":"수원시","district":"수원시 장안구","locality":"영화동","address":"수원시 장안구 영화동 374-3","owner_type":"경기도유지","owner_label":"경기도","manager":"건설국 도로정책과","property_class":"행정재산","land_category":"대","area_sqm":139.0,"area_band":"100~500㎡","interest_category":"대","solar_candidate":"검토필요","candidate_reason":"청사·공공건축물·주차장 현황 추가 확인 필요; 면적 139㎡","priority_score":40,"source":"경기부동산포털 국공유지조회·연속지적도","source_date":"2026-08-11","installed_solar_match":false}},{"type":"Feature","id":"4111710300108750008","geometry":{"type":"Point","coordinates":[127.0446312,37.2926821]},"properties":{"pnu":"4111710300108750008","municipality_code":"41110","municipality":"수원시","district":"수원시 영통구","locality":"이의동","address":"수원시 영통구 이의동 875-8","owner_type":"경기도유지","owner_label":"경기도","manager":"미래성장산업국 반도체산업과","property_class":"행정재산","land_category":"대","area_sqm":131.0,"area_band":"100~500㎡","interest_category":"대","solar_candidate":"검토필요","candidate_reason":"청사·공공건축물·주차장 현황 추가 확인 필요; 면적 131㎡","priority_score":40,"source":"경기부동산포털 국공유지조회·연속지적도","source_date":"2026-08-11","installed_solar_match":false}},{"type":"Feature","id":"4111113600104950002","geometry":{"type":"Point","coordinates":[127.0225826,37.2973442]},"properties":{"pnu":"4111113600104950002","municipality_code":"41110","municipality":"수원시","district":"수원시 장안구","locality":"조원동","address":"수원시 장안구 조원동 495-2","owner_type":"경기도유지","owner_label":"경기도(교육감)","manager":"","property_class":"","land_category":"대","area_sqm":129.0,"area_band":"100~500㎡","interest_category":"대","solar_candidate":"검토필요","candidate_reason":"청사·공공건축물·주차장 현황 추가 확인 필요; 면적 129㎡","priority_score":40,"source":"경기부동산포털 국공유지조회·연속지적도","source_date":"2026-08-11","installed_solar_match":false}},{"type":"Feature","id":"4111113400103720015","geometry":{"type":"Point","coordinates":[127.0088102,37.2857048]},"properties":{"pnu":"4111113400103720015","municipality_code":"41110","municipality":"수원시","district":"수원시 장안구","locality":"영화동","address":"수원시 장안구 영화동 372-15","owner_type":"경기도유지","owner_label":"경기도","manager":"건설국 도로정책과","property_class":"행정재산","land_category":"대","area_sqm":122.0,"area_band":"100~500㎡","interest_category":"대","solar_candidate":"검토필요","candidate_reason":"청사·공공건축물·주차장 현황 추가 확인 필요; 면적 122㎡","priority_score":40,"source":"경기부동산포털 국공유지조회·연속지적도","source_date":"2026-08-11","installed_solar_match":false}},{"type":"Feature","id":"4111313100100530001","geometry":{"type":"Point","coordinates":[126.988558,37.2675514]},"properties":{"pnu":"4111313100100530001","municipality_code":"41110","municipality":"수원시","district":"수원시 권선구","locality":"서둔동","address":"수원시 권선구 서둔동 53-1","owner_type":"경기도유지","owner_label":"경기도","manager":"건설국 하천과","property_class":"행정재산","land_category":"대","area_sqm":112.0,"area_band":"100~500㎡","interest_category":"대","solar_candidate":"검토필요","candidate_reason":"청사·공공건축물·주차장 현황 추가 확인 필요; 면적 112㎡","priority_score":40,"source":"경기부동산포털 국공유지조회·연속지적도","source_date":"2026-08-11","installed_solar_match":false}},{"type":"Feature","id":"4111314100101340013","geometry":{"type":"Point","coordinates":[126.9428979,37.2945203]},"properties":{"pnu":"4111314100101340013","municipality_code":"41110","municipality":"수원시","district":"수원시 권선구","locality":"당수동","address":"수원시 권선구 당수동 134-13","owner_type":"경기도유지","owner_label":"경기도","manager":"건설국 도로정책과","property_class":"행정재산","land_category":"대","area_sqm":112.0,"area_band":"100~500㎡","interest_category":"대","solar_candidate":"검토필요","candidate_reason":"청사·공공건축물·주차장 현황 추가 확인 필요; 면적 112㎡","priority_score":40,"source":"경기부동산포털 국공유지조회·연속지적도","source_date":"2026-08-11","installed_solar_match":false}},{"type":"Feature","id":"4111710100100500006","geometry":{"type":"Point","coordinates":[127.0508555,37.269526]},"properties":{"pnu":"4111710100100500006","municipality_code":"41110","municipality":"수원시","district":"수원시 영통구","locality":"매탄동","address":"수원시 영통구 매탄동 50-6","owner_type":"경기도유지","owner_label":"경기도(교육감)","manager":"","property_class":"","land_category":"대","area_sqm":109.0,"area_band":"100~500㎡","interest_category":"대","solar_candidate":"검토필요","candidate_reason":"청사·공공건축물·주차장 현황 추가 확인 필요; 면적 109㎡","priority_score":40,"source":"경기부동산포털 국공유지조회·연속지적도","source_date":"2026-08-11","installed_solar_match":false}},{"type":"Feature","id":"4111113400103740004","geometry":{"type":"Point","coordinates":[127.0086714,37.2857046]},"properties":{"pnu":"4111113400103740004","municipality_code":"41110","municipality":"수원시","district":"수원시 장안구","locality":"영화동","address":"수원시 장안구 영화동 374-4","owner_type":"경기도유지","owner_label":"경기도","manager":"건설국 도로정책과","property_class":"행정재산","land_category":"대","area_sqm":106.0,"area_band":"100~500㎡","interest_category":"대","solar_candidate":"검토필요","candidate_reason":"청사·공공건축물·주차장 현황 추가 확인 필요; 면적 106㎡","priority_score":40,"source":"경기부동산포털 국공유지조회·연속지적도","source_date":"2026-08-11","installed_solar_match":false}},{"type":"Feature","id":"4111710700103660014","geometry":{"type":"Point","coordinates":[127.055317,37.2422789]},"properties":{"pnu":"4111710700103660014","municipality_code":"41110","municipality":"수원시","district":"수원시 영통구","locality":"망포동","address":"수원시 영통구 망포동 366-14","owner_type":"경기도유지","owner_label":"경기도","manager":"건설국 도로정책과","property_class":"행정재산","land_category":"도로","area_sqm":4765.0,"area_band":"3,000~5,000㎡","interest_category":"도로","solar_candidate":"검토필요","candidate_reason":"도로점용 및 실제 이용형태 추가 검토 필요; 면적 4,765㎡","priority_score":35,"source":"경기부동산포털 국공유지조회·연속지적도","source_date":"2026-08-11","installed_solar_match":false}},{"type":"Feature","id":"4111314000103820001","geometry":{"type":"Point","coordinates":[126.9526917,37.2954251]},"properties":{"pnu":"4111314000103820001","municipality_code":"41110","municipality":"수원시","district":"수원시 권선구","locality":"입북동","address":"수원시 권선구 입북동 382-1","owner_type":"경기도유지","owner_label":"경기도","manager":"건설국 도로정책과","property_class":"행정재산","land_category":"도로","area_sqm":4433.0,"area_band":"3,000~5,000㎡","interest_category":"도로","solar_candidate":"검토필요","candidate_reason":"도로점용 및 실제 이용형태 추가 검토 필요; 면적 4,433㎡","priority_score":35,"source":"경기부동산포털 국공유지조회·연속지적도","source_date":"2026-08-11","installed_solar_match":false}},{"type":"Feature","id":"4111710700103950008","geometry":{"type":"Point","coordinates":[127.0555937,37.2407921]},"properties":{"pnu":"4111710700103950008","municipality_code":"41110","municipality":"수원시","district":"수원시 영통구","locality":"망포동","address":"수원시 영통구 망포동 395-8","owner_type":"경기도유지","owner_label":"경기도","manager":"건설국 도로정책과","property_class":"행정재산","land_category":"도로","area_sqm":4271.0,"area_band":"3,000~5,000㎡","interest_category":"도로","solar_candidate":"검토필요","candidate_reason":"도로점용 및 실제 이용형태 추가 검토 필요; 면적 4,271㎡","priority_score":35,"source":"경기부동산포털 국공유지조회·연속지적도","source_date":"2026-08-11","installed_solar_match":false}},{"type":"Feature","id":"4111113600105340003","geometry":{"type":"Point","coordinates":[127.018069,37.2957233]},"properties":{"pnu":"4111113600105340003","municipality_code":"41110","municipality":"수원시","district":"수원시 장안구","locality":"조원동","address":"수원시 장안구 조원동 534-3","owner_type":"경기도유지","owner_label":"경기도","manager":"건설국 도로정책과","property_class":"행정재산","land_category":"도로","area_sqm":3839.0,"area_band":"3,000~5,000㎡","interest_category":"도로","solar_candidate":"검토필요","candidate_reason":"도로점용 및 실제 이용형태 추가 검토 필요; 면적 3,839㎡","priority_score":35,"source":"경기부동산포털 국공유지조회·연속지적도","source_date":"2026-08-11","installed_solar_match":false}},{"type":"Feature","id":"4111710700103230008","geometry":{"type":"Point","coordinates":[127.0561451,37.24441]},"properties":{"pnu":"4111710700103230008","municipality_code":"41110","municipality":"수원시","district":"수원시 영통구","locality":"망포동","address":"수원시 영통구 망포동 323-8","owner_type":"경기도유지","owner_label":"경기도","manager":"건설국 도로정책과","property_class":"행정재산","land_category":"도로","area_sqm":3350.0,"area_band":"3,000~5,000㎡","interest_category":"도로","solar_candidate":"검토필요","candidate_reason":"도로점용 및 실제 이용형태 추가 검토 필요; 면적 3,350㎡","priority_score":35,"source":"경기부동산포털 국공유지조회·연속지적도","source_date":"2026-08-11","installed_solar_match":false}},{"type":"Feature","id":"4111113200200780000","geometry":{"type":"Point","coordinates":[126.9637389,37.3035691]},"properties":{"pnu":"4111113200200780000","municipality_code":"41110","municipality":"수원시","district":"수원시 장안구","locality":"율전동","address":"수원시 장안구 율전동 산78","owner_type":"경기도유지","owner_label":"경기도","manager":"건설국 도로정책과","property_class":"행정재산","land_category":"도로","area_sqm":3035.0,"area_band":"3,000~5,000㎡","interest_category":"도로","solar_candidate":"검토필요","candidate_reason":"도로점용 및 실제 이용형태 추가 검토 필요; 면적 3,035㎡","priority_score":35,"source":"경기부동산포털 국공유지조회·연속지적도","source_date":"2026-08-11","installed_solar_match":false}},{"type":"Feature","id":"4111314100101340012","geometry":{"type":"Point","coordinates":[126.9427213,37.2945942]},"properties":{"pnu":"4111314100101340012","municipality_code":"41110","municipality":"수원시","district":"수원시 권선구","locality":"당수동","address":"수원시 권선구 당수동 134-12","owner_type":"경기도유지","owner_label":"경기도","manager":"건설국 도로정책과","property_class":"행정재산","land_category":"창고용지","area_sqm":126.0,"area_band":"100~500㎡","interest_category":"창고용지","solar_candidate":"검토필요","candidate_reason":"지목·면적 기준 1차 검토 대상; 면적 126㎡","priority_score":35,"source":"경기부동산포털 국공유지조회·연속지적도","source_date":"2026-08-11","installed_solar_match":false}}]}