{"type":"FeatureCollection","name":"gyeonggi_41130_province_solar_candidates","metadata":{"generated_on":"2026-08-11","source":"경기부동산포털 국공유지조회·연속지적도","source_agency":"경기도","ownership_source":"경기부동산포털 국공유지조회","coverage":"성남시","owner_code":"4","owner_type":"경기도유지","minimum_area_sqm":100.0,"feature_count":47,"coordinate_reference":"GRIS native values interpreted as EPSG:5174 and projected to EPSG:4326","coordinate_precision":"7 decimals, increased only when needed to keep narrow-parcel points inside","disclaimer":"설치 가능 확정이 아닌 현장조사 우선순위"},"features":[{"type":"Feature","id":"4113510900107000000","geometry":{"type":"Point","coordinates":[127.1088129,37.4043362]},"properties":{"pnu":"4113510900107000000","municipality_code":"41130","municipality":"성남시","district":"성남시 분당구","locality":"삼평동","address":"성남시 분당구 삼평동 700","owner_type":"경기도유지","owner_label":"경기도","manager":"미래성장산업국 첨단모빌리티산업과","property_class":"일반재산","land_category":"대","area_sqm":5288.0,"area_band":"5,000㎡ 이상","interest_category":"대","solar_candidate":"Y","candidate_reason":"청사·공공건축물·주차장 현황 추가 확인 필요; 면적 5,288㎡","priority_score":80,"source":"경기부동산포털 국공유지조회·연속지적도","source_date":"2026-08-11","installed_solar_match":true,"installed_solar_count":1,"installed_solar_area_sqm":145.5,"installed_solar_analysis_years":["2024"],"installed_solar_types":["공동주택"],"installed_solar_permit_status_counts":{"N":1}}},{"type":"Feature","id":"4113310400119320007","geometry":{"type":"Point","coordinates":[127.1647863,37.4513414]},"properties":{"pnu":"4113310400119320007","municipality_code":"41130","municipality":"성남시","district":"성남시 중원구","locality":"은행동","address":"성남시 중원구 은행동 1932-7","owner_type":"경기도유지","owner_label":"경기도(교육감)","manager":"","property_class":"","land_category":"잡종지","area_sqm":17796.6,"area_band":"5,000㎡ 이상","interest_category":"잡종지","solar_candidate":"Y","candidate_reason":"실제 이용·점유 여부 확인 후 검토할 잡종지; 면적 17,797㎡","priority_score":75,"source":"경기부동산포털 국공유지조회·연속지적도","source_date":"2026-08-11","installed_solar_match":false}},{"type":"Feature","id":"4113510900106980000","geometry":{"type":"Point","coordinates":[127.1062446,37.4045876]},"properties":{"pnu":"4113510900106980000","municipality_code":"41130","municipality":"성남시","district":"성남시 분당구","locality":"삼평동","address":"성남시 분당구 삼평동 698","owner_type":"경기도유지","owner_label":"경기도","manager":"미래성장산업국 첨단모빌리티산업과","property_class":"행정재산","land_category":"대","area_sqm":17364.0,"area_band":"5,000㎡ 이상","interest_category":"대","solar_candidate":"Y","candidate_reason":"청사·공공건축물·주차장 현황 추가 확인 필요; 면적 17,364㎡","priority_score":65,"source":"경기부동산포털 국공유지조회·연속지적도","source_date":"2026-08-11","installed_solar_match":true,"installed_solar_count":32,"installed_solar_area_sqm":1487.8,"installed_solar_analysis_years":["2024"],"installed_solar_types":["기타"],"installed_solar_permit_status_counts":{"N":32}}},{"type":"Feature","id":"4113510900106290000","geometry":{"type":"Point","coordinates":[127.1044136,37.4005689]},"properties":{"pnu":"4113510900106290000","municipality_code":"41130","municipality":"성남시","district":"성남시 분당구","locality":"삼평동","address":"성남시 분당구 삼평동 629","owner_type":"경기도유지","owner_label":"경기도","manager":"미래성장산업국 첨단모빌리티산업과","property_class":"행정재산","land_category":"대","area_sqm":16863.0,"area_band":"5,000㎡ 이상","interest_category":"대","solar_candidate":"Y","candidate_reason":"청사·공공건축물·주차장 현황 추가 확인 필요; 면적 16,863㎡","priority_score":65,"source":"경기부동산포털 국공유지조회·연속지적도","source_date":"2026-08-11","installed_solar_match":false}},{"type":"Feature","id":"4113510900106960000","geometry":{"type":"Point","coordinates":[127.1033618,37.4066047]},"properties":{"pnu":"4113510900106960000","municipality_code":"41130","municipality":"성남시","district":"성남시 분당구","locality":"삼평동","address":"성남시 분당구 삼평동 696","owner_type":"경기도유지","owner_label":"경기도","manager":"미래성장산업국 바이오산업과","property_class":"행정재산","land_category":"대","area_sqm":14287.2,"area_band":"5,000㎡ 이상","interest_category":"대","solar_candidate":"Y","candidate_reason":"청사·공공건축물·주차장 현황 추가 확인 필요; 면적 14,287㎡","priority_score":65,"source":"경기부동산포털 국공유지조회·연속지적도","source_date":"2026-08-11","installed_solar_match":false}},{"type":"Feature","id":"4113510900106960001","geometry":{"type":"Point","coordinates":[127.1017666,37.4066519]},"properties":{"pnu":"4113510900106960001","municipality_code":"41130","municipality":"성남시","district":"성남시 분당구","locality":"삼평동","address":"성남시 분당구 삼평동 696-1","owner_type":"경기도유지","owner_label":"경기도","manager":"미래성장산업국 첨단모빌리티산업과","property_class":"행정재산","land_category":"대","area_sqm":8802.9,"area_band":"5,000㎡ 이상","interest_category":"대","solar_candidate":"Y","candidate_reason":"청사·공공건축물·주차장 현황 추가 확인 필요; 면적 8,803㎡","priority_score":65,"source":"경기부동산포털 국공유지조회·연속지적도","source_date":"2026-08-11","installed_solar_match":true,"installed_solar_count":18,"installed_solar_area_sqm":231.0,"installed_solar_analysis_years":["2024"],"installed_solar_types":["공공시설물"],"installed_solar_permit_status_counts":{"N":18}}},{"type":"Feature","id":"4113310900100020000","geometry":{"type":"Point","coordinates":[127.13696,37.4279185]},"properties":{"pnu":"4113310900100020000","municipality_code":"41130","municipality":"성남시","district":"성남시 중원구","locality":"하대원동","address":"성남시 중원구 하대원동 2","owner_type":"경기도유지","owner_label":"경기도","manager":"소방재난본부 회계장비담당관","property_class":"행정재산","land_category":"대","area_sqm":7300.0,"area_band":"5,000㎡ 이상","interest_category":"대","solar_candidate":"Y","candidate_reason":"청사·공공건축물·주차장 현황 추가 확인 필요; 면적 7,300㎡","priority_score":65,"source":"경기부동산포털 국공유지조회·연속지적도","source_date":"2026-08-11","installed_solar_match":true,"installed_solar_count":9,"installed_solar_area_sqm":915.8,"installed_solar_analysis_years":["2024"],"installed_solar_types":["공공시설물"],"installed_solar_permit_status_counts":{"N":9}}},{"type":"Feature","id":"4113510500102780000","geometry":{"type":"Point","coordinates":[127.1193947,37.3860517]},"properties":{"pnu":"4113510500102780000","municipality_code":"41130","municipality":"성남시","district":"성남시 분당구","locality":"서현동","address":"성남시 분당구 서현동 278","owner_type":"경기도유지","owner_label":"경기도","manager":"소방재난본부 회계장비담당관","property_class":"행정재산","land_category":"대","area_sqm":5148.4,"area_band":"5,000㎡ 이상","interest_category":"대","solar_candidate":"Y","candidate_reason":"청사·공공건축물·주차장 현황 추가 확인 필요; 면적 5,148㎡","priority_score":65,"source":"경기부동산포털 국공유지조회·연속지적도","source_date":"2026-08-11","installed_solar_match":false}},{"type":"Feature","id":"4113510500102790000","geometry":{"type":"Point","coordinates":[127.1200042,37.3866467]},"properties":{"pnu":"4113510500102790000","municipality_code":"41130","municipality":"성남시","district":"성남시 분당구","locality":"서현동","address":"성남시 분당구 서현동 279","owner_type":"경기도유지","owner_label":"경기도(교육감)","manager":"","property_class":"","land_category":"대","area_sqm":5005.2,"area_band":"5,000㎡ 이상","interest_category":"대","solar_candidate":"Y","candidate_reason":"청사·공공건축물·주차장 현황 추가 확인 필요; 면적 5,005㎡","priority_score":65,"source":"경기부동산포털 국공유지조회·연속지적도","source_date":"2026-08-11","installed_solar_match":false}},{"type":"Feature","id":"4113111100100230006","geometry":{"type":"Point","coordinates":[127.118118,37.4398072]},"properties":{"pnu":"4113111100100230006","municipality_code":"41130","municipality":"성남시","district":"성남시 수정구","locality":"심곡동","address":"성남시 수정구 심곡동 23-6","owner_type":"경기도유지","owner_label":"경기도","manager":"건설국 하천과","property_class":"행정재산","land_category":"잡종지","area_sqm":2268.0,"area_band":"1,000~3,000㎡","interest_category":"잡종지","solar_candidate":"Y","candidate_reason":"실제 이용·점유 여부 확인 후 검토할 잡종지; 면적 2,268㎡","priority_score":63,"source":"경기부동산포털 국공유지조회·연속지적도","source_date":"2026-08-11","installed_solar_match":false}},{"type":"Feature","id":"4113510900106960002","geometry":{"type":"Point","coordinates":[127.1025833,37.406095]},"properties":{"pnu":"4113510900106960002","municipality_code":"41130","municipality":"성남시","district":"성남시 분당구","locality":"삼평동","address":"성남시 분당구 삼평동 696-2","owner_type":"경기도유지","owner_label":"경기도","manager":"미래성장산업국 첨단모빌리티산업과","property_class":"행정재산","land_category":"대","area_sqm":3774.8,"area_band":"3,000~5,000㎡","interest_category":"대","solar_candidate":"Y","candidate_reason":"청사·공공건축물·주차장 현황 추가 확인 필요; 면적 3,775㎡","priority_score":60,"source":"경기부동산포털 국공유지조회·연속지적도","source_date":"2026-08-11","installed_solar_match":false}},{"type":"Feature","id":"4113511500109510000","geometry":{"type":"Point","coordinates":[127.0726847,37.3913477]},"properties":{"pnu":"4113511500109510000","municipality_code":"41130","municipality":"성남시","district":"성남시 분당구","locality":"운중동","address":"성남시 분당구 운중동 951","owner_type":"경기도유지","owner_label":"경기도","manager":"소방재난본부 회계장비담당관","property_class":"행정재산","land_category":"대","area_sqm":1656.5,"area_band":"1,000~3,000㎡","interest_category":"대","solar_candidate":"검토필요","candidate_reason":"청사·공공건축물·주차장 현황 추가 확인 필요; 면적 1,656㎡","priority_score":53,"source":"경기부동산포털 국공유지조회·연속지적도","source_date":"2026-08-11","installed_solar_match":false}},{"type":"Feature","id":"4113510900107330000","geometry":{"type":"Point","coordinates":[127.1137061,37.3996009]},"properties":{"pnu":"4113510900107330000","municipality_code":"41130","municipality":"성남시","district":"성남시 분당구","locality":"삼평동","address":"성남시 분당구 삼평동 733","owner_type":"경기도유지","owner_label":"경기도(분당소방서)","manager":"소방재난본부 회계장비담당관","property_class":"행정재산","land_category":"대","area_sqm":1646.7,"area_band":"1,000~3,000㎡","interest_category":"대","solar_candidate":"검토필요","candidate_reason":"청사·공공건축물·주차장 현황 추가 확인 필요; 면적 1,647㎡","priority_score":53,"source":"경기부동산포털 국공유지조회·연속지적도","source_date":"2026-08-11","installed_solar_match":false}},{"type":"Feature","id":"4113110800104370001","geometry":{"type":"Point","coordinates":[127.1437016,37.4619676]},"properties":{"pnu":"4113110800104370001","municipality_code":"41130","municipality":"성남시","district":"성남시 수정구","locality":"창곡동","address":"성남시 수정구 창곡동 437-1","owner_type":"경기도유지","owner_label":"경기도","manager":"소방재난본부 회계장비담당관","property_class":"행정재산","land_category":"대","area_sqm":1479.5,"area_band":"1,000~3,000㎡","interest_category":"대","solar_candidate":"검토필요","candidate_reason":"청사·공공건축물·주차장 현황 추가 확인 필요; 면적 1,480㎡","priority_score":53,"source":"경기부동산포털 국공유지조회·연속지적도","source_date":"2026-08-11","installed_solar_match":false}},{"type":"Feature","id":"4113111200106170000","geometry":{"type":"Point","coordinates":[127.1015736,37.4234156]},"properties":{"pnu":"4113111200106170000","municipality_code":"41130","municipality":"성남시","district":"성남시 수정구","locality":"고등동","address":"성남시 수정구 고등동 617","owner_type":"경기도유지","owner_label":"경기도","manager":"소방재난본부 회계장비담당관","property_class":"행정재산","land_category":"대","area_sqm":1256.0,"area_band":"1,000~3,000㎡","interest_category":"대","solar_candidate":"검토필요","candidate_reason":"청사·공공건축물·주차장 현황 추가 확인 필요; 면적 1,256㎡","priority_score":53,"source":"경기부동산포털 국공유지조회·연속지적도","source_date":"2026-08-11","installed_solar_match":true,"installed_solar_count":3,"installed_solar_area_sqm":179.8,"installed_solar_analysis_years":["2024"],"installed_solar_types":["공공시설물"],"installed_solar_permit_status_counts":{"N":3}}},{"type":"Feature","id":"4113510900107240000","geometry":{"type":"Point","coordinates":[127.1164031,37.4022136]},"properties":{"pnu":"4113510900107240000","municipality_code":"41130","municipality":"성남시","district":"성남시 분당구","locality":"삼평동","address":"성남시 분당구 삼평동 724","owner_type":"경기도유지","owner_label":"경기도(경기도교육감)","manager":"","property_class":"","land_category":"대","area_sqm":1174.1,"area_band":"1,000~3,000㎡","interest_category":"대","solar_candidate":"검토필요","candidate_reason":"청사·공공건축물·주차장 현황 추가 확인 필요; 면적 1,174㎡","priority_score":53,"source":"경기부동산포털 국공유지조회·연속지적도","source_date":"2026-08-11","installed_solar_match":false}},{"type":"Feature","id":"4113310800104310003","geometry":{"type":"Point","coordinates":[127.1602752,37.4200865]},"properties":{"pnu":"4113310800104310003","municipality_code":"41130","municipality":"성남시","district":"성남시 중원구","locality":"갈현동","address":"성남시 중원구 갈현동 431-3","owner_type":"경기도유지","owner_label":"경기도","manager":"건설국 하천과","property_class":"행정재산","land_category":"잡종지","area_sqm":406.3,"area_band":"100~500㎡","interest_category":"잡종지","solar_candidate":"검토필요","candidate_reason":"실제 이용·점유 여부 확인 후 검토할 잡종지; 면적 406㎡","priority_score":50,"source":"경기부동산포털 국공유지조회·연속지적도","source_date":"2026-08-11","installed_solar_match":false}},{"type":"Feature","id":"4113510800104790018","geometry":{"type":"Point","coordinates":[127.0891032,37.3856419]},"properties":{"pnu":"4113510800104790018","municipality_code":"41130","municipality":"성남시","district":"성남시 분당구","locality":"판교동","address":"성남시 분당구 판교동 479-18","owner_type":"경기도유지","owner_label":"경기도","manager":"자치행정국 자산관리과","property_class":"일반재산","land_category":"임야","area_sqm":5138.0,"area_band":"5,000㎡ 이상","interest_category":"대규모부지","solar_candidate":"검토필요","candidate_reason":"넓은 경기도유지로 실제 이용·규제 현황 추가 검토; 면적 5,138㎡","priority_score":45,"source":"경기부동산포털 국공유지조회·연속지적도","source_date":"2026-08-11","installed_solar_match":false}},{"type":"Feature","id":"4113310700105060000","geometry":{"type":"Point","coordinates":[127.1497746,37.4138928]},"properties":{"pnu":"4113310700105060000","municipality_code":"41130","municipality":"성남시","district":"성남시 중원구","locality":"도촌동","address":"성남시 중원구 도촌동 506","owner_type":"경기도유지","owner_label":"경기도(경기도교육감)","manager":"","property_class":"","land_category":"대","area_sqm":911.0,"area_band":"500~1,000㎡","interest_category":"대","solar_candidate":"검토필요","candidate_reason":"청사·공공건축물·주차장 현황 추가 확인 필요; 면적 911㎡","priority_score":45,"source":"경기부동산포털 국공유지조회·연속지적도","source_date":"2026-08-11","installed_solar_match":true,"installed_solar_count":1,"installed_solar_area_sqm":125.9,"installed_solar_analysis_years":["2024"],"installed_solar_types":["공공시설물"],"installed_solar_permit_status_counts":{"N":1}}},{"type":"Feature","id":"4113511400100710000","geometry":{"type":"Point","coordinates":[127.1164505,37.3519203]},"properties":{"pnu":"4113511400100710000","municipality_code":"41130","municipality":"성남시","district":"성남시 분당구","locality":"구미동","address":"성남시 분당구 구미동 71","owner_type":"경기도유지","owner_label":"경기도","manager":"소방재난본부 회계장비담당관","property_class":"행정재산","land_category":"대","area_sqm":720.0,"area_band":"500~1,000㎡","interest_category":"대","solar_candidate":"검토필요","candidate_reason":"청사·공공건축물·주차장 현황 추가 확인 필요; 면적 720㎡","priority_score":45,"source":"경기부동산포털 국공유지조회·연속지적도","source_date":"2026-08-11","installed_solar_match":false}},{"type":"Feature","id":"4113510700102030000","geometry":{"type":"Point","coordinates":[127.1360416,37.4164187]},"properties":{"pnu":"4113510700102030000","municipality_code":"41130","municipality":"성남시","district":"성남시 분당구","locality":"야탑동","address":"성남시 분당구 야탑동 203","owner_type":"경기도유지","owner_label":"경기도","manager":"소방재난본부 회계장비담당관","property_class":"행정재산","land_category":"대","area_sqm":712.9,"area_band":"500~1,000㎡","interest_category":"대","solar_candidate":"검토필요","candidate_reason":"청사·공공건축물·주차장 현황 추가 확인 필요; 면적 713㎡","priority_score":45,"source":"경기부동산포털 국공유지조회·연속지적도","source_date":"2026-08-11","installed_solar_match":false}},{"type":"Feature","id":"4113110200151840001","geometry":{"type":"Point","coordinates":[127.1272178,37.4468552]},"properties":{"pnu":"4113110200151840001","municipality_code":"41130","municipality":"성남시","district":"성남시 수정구","locality":"태평동","address":"성남시 수정구 태평동 5184-1","owner_type":"경기도유지","owner_label":"경기도","manager":"소방재난본부 회계장비담당관","property_class":"행정재산","land_category":"대","area_sqm":660.2,"area_band":"500~1,000㎡","interest_category":"대","solar_candidate":"검토필요","candidate_reason":"청사·공공건축물·주차장 현황 추가 확인 필요; 면적 660㎡","priority_score":45,"source":"경기부동산포털 국공유지조회·연속지적도","source_date":"2026-08-11","installed_solar_match":false}},{"type":"Feature","id":"4113510600101080000","geometry":{"type":"Point","coordinates":[127.1272355,37.3993877]},"properties":{"pnu":"4113510600101080000","municipality_code":"41130","municipality":"성남시","district":"성남시 분당구","locality":"이매동","address":"성남시 분당구 이매동 108","owner_type":"경기도유지","owner_label":"경기도","manager":"소방재난본부 회계장비담당관","property_class":"행정재산","land_category":"대","area_sqm":660.1,"area_band":"500~1,000㎡","interest_category":"대","solar_candidate":"검토필요","candidate_reason":"청사·공공건축물·주차장 현황 추가 확인 필요; 면적 660㎡","priority_score":45,"source":"경기부동산포털 국공유지조회·연속지적도","source_date":"2026-08-11","installed_solar_match":false}},{"type":"Feature","id":"4113511500200870002","geometry":{"type":"Point","coordinates":[127.0443064,37.3923012]},"properties":{"pnu":"4113511500200870002","municipality_code":"41130","municipality":"성남시","district":"성남시 분당구","locality":"운중동","address":"성남시 분당구 운중동 산87-2","owner_type":"경기도유지","owner_label":"경기도","manager":"건설국 도로정책과","property_class":"행정재산","land_category":"도로","area_sqm":66897.0,"area_band":"5,000㎡ 이상","interest_category":"도로","solar_candidate":"검토필요","candidate_reason":"도로점용 및 실제 이용형태 추가 검토 필요; 면적 66,897㎡","priority_score":40,"source":"경기부동산포털 국공유지조회·연속지적도","source_date":"2026-08-11","installed_solar_match":false}},{"type":"Feature","id":"4113511500200800001","geometry":{"type":"Point","coordinates":[127.0399701,37.395717]},"properties":{"pnu":"4113511500200800001","municipality_code":"41130","municipality":"성남시","district":"성남시 분당구","locality":"운중동","address":"성남시 분당구 운중동 산80-1","owner_type":"경기도유지","owner_label":"경기도","manager":"건설국 도로정책과","property_class":"행정재산","land_category":"도로","area_sqm":27987.0,"area_band":"5,000㎡ 이상","interest_category":"도로","solar_candidate":"검토필요","candidate_reason":"도로점용 및 실제 이용형태 추가 검토 필요; 면적 27,987㎡","priority_score":40,"source":"경기부동산포털 국공유지조회·연속지적도","source_date":"2026-08-11","installed_solar_match":false}},{"type":"Feature","id":"4113511500200700025","geometry":{"type":"Point","coordinates":[127.0462509,37.3953287]},"properties":{"pnu":"4113511500200700025","municipality_code":"41130","municipality":"성남시","district":"성남시 분당구","locality":"운중동","address":"성남시 분당구 운중동 산70-25","owner_type":"경기도유지","owner_label":"경기도","manager":"건설국 도로정책과","property_class":"행정재산","land_category":"도로","area_sqm":23902.0,"area_band":"5,000㎡ 이상","interest_category":"도로","solar_candidate":"검토필요","candidate_reason":"도로점용 및 실제 이용형태 추가 검토 필요; 면적 23,902㎡","priority_score":40,"source":"경기부동산포털 국공유지조회·연속지적도","source_date":"2026-08-11","installed_solar_match":false}},{"type":"Feature","id":"4113511500200940031","geometry":{"type":"Point","coordinates":[127.0541692,37.3899332]},"properties":{"pnu":"4113511500200940031","municipality_code":"41130","municipality":"성남시","district":"성남시 분당구","locality":"운중동","address":"성남시 분당구 운중동 산94-31","owner_type":"경기도유지","owner_label":"경기도","manager":"건설국 도로정책과","property_class":"행정재산","land_category":"도로","area_sqm":18219.0,"area_band":"5,000㎡ 이상","interest_category":"도로","solar_candidate":"검토필요","candidate_reason":"도로점용 및 실제 이용형태 추가 검토 필요; 면적 18,219㎡","priority_score":40,"source":"경기부동산포털 국공유지조회·연속지적도","source_date":"2026-08-11","installed_solar_match":false}},{"type":"Feature","id":"4113511500200950002","geometry":{"type":"Point","coordinates":[127.0600318,37.3897918]},"properties":{"pnu":"4113511500200950002","municipality_code":"41130","municipality":"성남시","district":"성남시 분당구","locality":"운중동","address":"성남시 분당구 운중동 산95-2","owner_type":"경기도유지","owner_label":"경기도","manager":"건설국 도로정책과","property_class":"행정재산","land_category":"도로","area_sqm":14750.0,"area_band":"5,000㎡ 이상","interest_category":"도로","solar_candidate":"검토필요","candidate_reason":"도로점용 및 실제 이용형태 추가 검토 필요; 면적 14,750㎡","priority_score":40,"source":"경기부동산포털 국공유지조회·연속지적도","source_date":"2026-08-11","installed_solar_match":false}},{"type":"Feature","id":"4113510100100780005","geometry":{"type":"Point","coordinates":[127.1496222,37.3619529]},"properties":{"pnu":"4113510100100780005","municipality_code":"41130","municipality":"성남시","district":"성남시 분당구","locality":"분당동","address":"성남시 분당구 분당동 78-5","owner_type":"경기도유지","owner_label":"경기도","manager":"건설국 도로정책과","property_class":"행정재산","land_category":"도로","area_sqm":12101.0,"area_band":"5,000㎡ 이상","interest_category":"도로","solar_candidate":"검토필요","candidate_reason":"도로점용 및 실제 이용형태 추가 검토 필요; 면적 12,101㎡","priority_score":40,"source":"경기부동산포털 국공유지조회·연속지적도","source_date":"2026-08-11","installed_solar_match":false}},{"type":"Feature","id":"4113511500102130001","geometry":{"type":"Point","coordinates":[127.0613953,37.3910341]},"properties":{"pnu":"4113511500102130001","municipality_code":"41130","municipality":"성남시","district":"성남시 분당구","locality":"운중동","address":"성남시 분당구 운중동 213-1","owner_type":"경기도유지","owner_label":"경기도","manager":"건설국 도로정책과","property_class":"행정재산","land_category":"도로","area_sqm":8036.0,"area_band":"5,000㎡ 이상","interest_category":"도로","solar_candidate":"검토필요","candidate_reason":"도로점용 및 실제 이용형태 추가 검토 필요; 면적 8,036㎡","priority_score":40,"source":"경기부동산포털 국공유지조회·연속지적도","source_date":"2026-08-11","installed_solar_match":false}},{"type":"Feature","id":"4113310800105410011","geometry":{"type":"Point","coordinates":[127.1570283,37.4218451]},"properties":{"pnu":"4113310800105410011","municipality_code":"41130","municipality":"성남시","district":"성남시 중원구","locality":"갈현동","address":"성남시 중원구 갈현동 541-11","owner_type":"경기도유지","owner_label":"경기도","manager":"건설국 도로정책과","property_class":"행정재산","land_category":"도로","area_sqm":6958.2,"area_band":"5,000㎡ 이상","interest_category":"도로","solar_candidate":"검토필요","candidate_reason":"도로점용 및 실제 이용형태 추가 검토 필요; 면적 6,958㎡","priority_score":40,"source":"경기부동산포털 국공유지조회·연속지적도","source_date":"2026-08-11","installed_solar_match":false}},{"type":"Feature","id":"4113510500101180000","geometry":{"type":"Point","coordinates":[127.1379945,37.3832111]},"properties":{"pnu":"4113510500101180000","municipality_code":"41130","municipality":"성남시","district":"성남시 분당구","locality":"서현동","address":"성남시 분당구 서현동 118","owner_type":"경기도유지","owner_label":"경기도","manager":"건설국 도로정책과","property_class":"행정재산","land_category":"도로","area_sqm":6517.0,"area_band":"5,000㎡ 이상","interest_category":"도로","solar_candidate":"검토필요","candidate_reason":"도로점용 및 실제 이용형태 추가 검토 필요; 면적 6,517㎡","priority_score":40,"source":"경기부동산포털 국공유지조회·연속지적도","source_date":"2026-08-11","installed_solar_match":false}},{"type":"Feature","id":"4113510500100430001","geometry":{"type":"Point","coordinates":[127.1412765,37.3832524]},"properties":{"pnu":"4113510500100430001","municipality_code":"41130","municipality":"성남시","district":"성남시 분당구","locality":"서현동","address":"성남시 분당구 서현동 43-1","owner_type":"경기도유지","owner_label":"경기도","manager":"건설국 도로정책과","property_class":"행정재산","land_category":"도로","area_sqm":5762.0,"area_band":"5,000㎡ 이상","interest_category":"도로","solar_candidate":"검토필요","candidate_reason":"도로점용 및 실제 이용형태 추가 검토 필요; 면적 5,762㎡","priority_score":40,"source":"경기부동산포털 국공유지조회·연속지적도","source_date":"2026-08-11","installed_solar_match":false}},{"type":"Feature","id":"4113511500100410005","geometry":{"type":"Point","coordinates":[127.0579083,37.3904267]},"properties":{"pnu":"4113511500100410005","municipality_code":"41130","municipality":"성남시","district":"성남시 분당구","locality":"운중동","address":"성남시 분당구 운중동 41-5","owner_type":"경기도유지","owner_label":"경기도","manager":"건설국 도로정책과","property_class":"행정재산","land_category":"도로","area_sqm":5497.0,"area_band":"5,000㎡ 이상","interest_category":"도로","solar_candidate":"검토필요","candidate_reason":"도로점용 및 실제 이용형태 추가 검토 필요; 면적 5,497㎡","priority_score":40,"source":"경기부동산포털 국공유지조회·연속지적도","source_date":"2026-08-11","installed_solar_match":false}},{"type":"Feature","id":"4113511500104690000","geometry":{"type":"Point","coordinates":[127.051794,37.3903673]},"properties":{"pnu":"4113511500104690000","municipality_code":"41130","municipality":"성남시","district":"성남시 분당구","locality":"운중동","address":"성남시 분당구 운중동 469","owner_type":"경기도유지","owner_label":"경기도","manager":"건설국 도로정책과","property_class":"행정재산","land_category":"도로","area_sqm":5211.0,"area_band":"5,000㎡ 이상","interest_category":"도로","solar_candidate":"검토필요","candidate_reason":"도로점용 및 실제 이용형태 추가 검토 필요; 면적 5,211㎡","priority_score":40,"source":"경기부동산포털 국공유지조회·연속지적도","source_date":"2026-08-11","installed_solar_match":false}},{"type":"Feature","id":"4113511300100370003","geometry":{"type":"Point","coordinates":[127.1020031,37.3460593]},"properties":{"pnu":"4113511300100370003","municipality_code":"41130","municipality":"성남시","district":"성남시 분당구","locality":"동원동","address":"성남시 분당구 동원동 37-3","owner_type":"경기도유지","owner_label":"경기도","manager":"건설국 도로정책과","property_class":"행정재산","land_category":"대","area_sqm":467.0,"area_band":"100~500㎡","interest_category":"대","solar_candidate":"검토필요","candidate_reason":"청사·공공건축물·주차장 현황 추가 확인 필요; 면적 467㎡","priority_score":40,"source":"경기부동산포털 국공유지조회·연속지적도","source_date":"2026-08-11","installed_solar_match":false}},{"type":"Feature","id":"4113511300100370001","geometry":{"type":"Point","coordinates":[127.102017,37.3464808]},"properties":{"pnu":"4113511300100370001","municipality_code":"41130","municipality":"성남시","district":"성남시 분당구","locality":"동원동","address":"성남시 분당구 동원동 37-1","owner_type":"경기도유지","owner_label":"경기도","manager":"건설국 도로정책과","property_class":"행정재산","land_category":"대","area_sqm":162.0,"area_band":"100~500㎡","interest_category":"대","solar_candidate":"검토필요","candidate_reason":"청사·공공건축물·주차장 현황 추가 확인 필요; 면적 162㎡","priority_score":40,"source":"경기부동산포털 국공유지조회·연속지적도","source_date":"2026-08-11","installed_solar_match":false}},{"type":"Feature","id":"4113111600103600007","geometry":{"type":"Point","coordinates":[127.0854647,37.4037818]},"properties":{"pnu":"4113111600103600007","municipality_code":"41130","municipality":"성남시","district":"성남시 수정구","locality":"금토동","address":"성남시 수정구 금토동 360-7","owner_type":"경기도유지","owner_label":"경기도","manager":"건설국 하천과","property_class":"행정재산","land_category":"대","area_sqm":158.0,"area_band":"100~500㎡","interest_category":"대","solar_candidate":"검토필요","candidate_reason":"청사·공공건축물·주차장 현황 추가 확인 필요; 면적 158㎡","priority_score":40,"source":"경기부동산포털 국공유지조회·연속지적도","source_date":"2026-08-11","installed_solar_match":false}},{"type":"Feature","id":"4113511300100850001","geometry":{"type":"Point","coordinates":[127.0963598,37.3445101]},"properties":{"pnu":"4113511300100850001","municipality_code":"41130","municipality":"성남시","district":"성남시 분당구","locality":"동원동","address":"성남시 분당구 동원동 85-1","owner_type":"경기도유지","owner_label":"경기도","manager":"건설국 하천과","property_class":"행정재산","land_category":"공장용지","area_sqm":265.0,"area_band":"100~500㎡","interest_category":"공장용지","solar_candidate":"검토필요","candidate_reason":"지목·면적 기준 1차 검토 대상; 면적 265㎡","priority_score":37,"source":"경기부동산포털 국공유지조회·연속지적도","source_date":"2026-08-11","installed_solar_match":false}},{"type":"Feature","id":"4113310800101030009","geometry":{"type":"Point","coordinates":[127.1865071,37.419957]},"properties":{"pnu":"4113310800101030009","municipality_code":"41130","municipality":"성남시","district":"성남시 중원구","locality":"갈현동","address":"성남시 중원구 갈현동 103-9","owner_type":"경기도유지","owner_label":"경기도","manager":"건설국 도로정책과","property_class":"행정재산","land_category":"도로","area_sqm":4637.0,"area_band":"3,000~5,000㎡","interest_category":"도로","solar_candidate":"검토필요","candidate_reason":"도로점용 및 실제 이용형태 추가 검토 필요; 면적 4,637㎡","priority_score":35,"source":"경기부동산포털 국공유지조회·연속지적도","source_date":"2026-08-11","installed_solar_match":false}},{"type":"Feature","id":"4113511500104420000","geometry":{"type":"Point","coordinates":[127.0567652,37.3901245]},"properties":{"pnu":"4113511500104420000","municipality_code":"41130","municipality":"성남시","district":"성남시 분당구","locality":"운중동","address":"성남시 분당구 운중동 442","owner_type":"경기도유지","owner_label":"경기도","manager":"건설국 도로정책과","property_class":"행정재산","land_category":"도로","area_sqm":4555.0,"area_band":"3,000~5,000㎡","interest_category":"도로","solar_candidate":"검토필요","candidate_reason":"도로점용 및 실제 이용형태 추가 검토 필요; 면적 4,555㎡","priority_score":35,"source":"경기부동산포털 국공유지조회·연속지적도","source_date":"2026-08-11","installed_solar_match":false}},{"type":"Feature","id":"4113511500104820001","geometry":{"type":"Point","coordinates":[127.0514937,37.3916881]},"properties":{"pnu":"4113511500104820001","municipality_code":"41130","municipality":"성남시","district":"성남시 분당구","locality":"운중동","address":"성남시 분당구 운중동 482-1","owner_type":"경기도유지","owner_label":"경기도","manager":"건설국 도로정책과","property_class":"행정재산","land_category":"도로","area_sqm":4211.0,"area_band":"3,000~5,000㎡","interest_category":"도로","solar_candidate":"검토필요","candidate_reason":"도로점용 및 실제 이용형태 추가 검토 필요; 면적 4,211㎡","priority_score":35,"source":"경기부동산포털 국공유지조회·연속지적도","source_date":"2026-08-11","installed_solar_match":false}},{"type":"Feature","id":"4113511500101700005","geometry":{"type":"Point","coordinates":[127.0601697,37.3906509]},"properties":{"pnu":"4113511500101700005","municipality_code":"41130","municipality":"성남시","district":"성남시 분당구","locality":"운중동","address":"성남시 분당구 운중동 170-5","owner_type":"경기도유지","owner_label":"경기도","manager":"건설국 도로정책과","property_class":"행정재산","land_category":"도로","area_sqm":3798.0,"area_band":"3,000~5,000㎡","interest_category":"도로","solar_candidate":"검토필요","candidate_reason":"도로점용 및 실제 이용형태 추가 검토 필요; 면적 3,798㎡","priority_score":35,"source":"경기부동산포털 국공유지조회·연속지적도","source_date":"2026-08-11","installed_solar_match":false}},{"type":"Feature","id":"4113511500102150002","geometry":{"type":"Point","coordinates":[127.0621634,37.3912075]},"properties":{"pnu":"4113511500102150002","municipality_code":"41130","municipality":"성남시","district":"성남시 분당구","locality":"운중동","address":"성남시 분당구 운중동 215-2","owner_type":"경기도유지","owner_label":"경기도","manager":"건설국 도로정책과","property_class":"행정재산","land_category":"도로","area_sqm":3524.0,"area_band":"3,000~5,000㎡","interest_category":"도로","solar_candidate":"검토필요","candidate_reason":"도로점용 및 실제 이용형태 추가 검토 필요; 면적 3,524㎡","priority_score":35,"source":"경기부동산포털 국공유지조회·연속지적도","source_date":"2026-08-11","installed_solar_match":false}},{"type":"Feature","id":"4113510500102300001","geometry":{"type":"Point","coordinates":[127.1330814,37.38379]},"properties":{"pnu":"4113510500102300001","municipality_code":"41130","municipality":"성남시","district":"성남시 분당구","locality":"서현동","address":"성남시 분당구 서현동 230-1","owner_type":"경기도유지","owner_label":"경기도","manager":"건설국 도로정책과","property_class":"행정재산","land_category":"도로","area_sqm":3439.0,"area_band":"3,000~5,000㎡","interest_category":"도로","solar_candidate":"검토필요","candidate_reason":"도로점용 및 실제 이용형태 추가 검토 필요; 면적 3,439㎡","priority_score":35,"source":"경기부동산포털 국공유지조회·연속지적도","source_date":"2026-08-11","installed_solar_match":false}},{"type":"Feature","id":"4113510400101310003","geometry":{"type":"Point","coordinates":[127.1539218,37.3863633]},"properties":{"pnu":"4113510400101310003","municipality_code":"41130","municipality":"성남시","district":"성남시 분당구","locality":"율동","address":"성남시 분당구 율동 131-3","owner_type":"경기도유지","owner_label":"경기도","manager":"건설국 도로정책과","property_class":"행정재산","land_category":"도로","area_sqm":3405.5,"area_band":"3,000~5,000㎡","interest_category":"도로","solar_candidate":"검토필요","candidate_reason":"도로점용 및 실제 이용형태 추가 검토 필요; 면적 3,406㎡","priority_score":35,"source":"경기부동산포털 국공유지조회·연속지적도","source_date":"2026-08-11","installed_solar_match":false}},{"type":"Feature","id":"4113310800101030007","geometry":{"type":"Point","coordinates":[127.184536,37.4219838]},"properties":{"pnu":"4113310800101030007","municipality_code":"41130","municipality":"성남시","district":"성남시 중원구","locality":"갈현동","address":"성남시 중원구 갈현동 103-7","owner_type":"경기도유지","owner_label":"경기도","manager":"건설국 도로정책과","property_class":"행정재산","land_category":"도로","area_sqm":3313.0,"area_band":"3,000~5,000㎡","interest_category":"도로","solar_candidate":"검토필요","candidate_reason":"도로점용 및 실제 이용형태 추가 검토 필요; 면적 3,313㎡","priority_score":35,"source":"경기부동산포털 국공유지조회·연속지적도","source_date":"2026-08-11","installed_solar_match":false}}]}