{"type":"FeatureCollection","name":"gyeonggi_41150_province_solar_candidates","metadata":{"generated_on":"2026-08-11","source":"경기부동산포털 국공유지조회·연속지적도","source_agency":"경기도","ownership_source":"경기부동산포털 국공유지조회","coverage":"의정부시","owner_code":"4","owner_type":"경기도유지","minimum_area_sqm":100.0,"feature_count":61,"coordinate_reference":"GRIS native values interpreted as EPSG:5174 and projected to EPSG:4326","coordinate_precision":"7 decimals, increased only when needed to keep narrow-parcel points inside","disclaimer":"설치 가능 확정이 아닌 현장조사 우선순위"},"features":[{"type":"Feature","id":"4115010900104310008","geometry":{"type":"Point","coordinates":[127.0529428,37.7509727]},"properties":{"pnu":"4115010900104310008","municipality_code":"41150","municipality":"의정부시","district":"의정부시","locality":"금오동","address":"의정부시 금오동 431-8","owner_type":"경기도유지","owner_label":"경기도(경기도교육감)","manager":"","property_class":"","land_category":"잡종지","area_sqm":12340.0,"area_band":"5,000㎡ 이상","interest_category":"잡종지","solar_candidate":"Y","candidate_reason":"실제 이용·점유 여부 확인 후 검토할 잡종지; 면적 12,340㎡","priority_score":75,"source":"경기부동산포털 국공유지조회·연속지적도","source_date":"2026-08-11","installed_solar_match":true,"installed_solar_count":5,"installed_solar_area_sqm":302.1,"installed_solar_analysis_years":["2024"],"installed_solar_types":["주차장"],"installed_solar_permit_status_counts":{"N":5}}},{"type":"Feature","id":"4115010200101250000","geometry":{"type":"Point","coordinates":[127.0513455,37.7059321]},"properties":{"pnu":"4115010200101250000","municipality_code":"41150","municipality":"의정부시","district":"의정부시","locality":"호원동","address":"의정부시 호원동 125","owner_type":"경기도유지","owner_label":"경기도","manager":"건설국 하천과","property_class":"행정재산","land_category":"잡종지","area_sqm":8106.0,"area_band":"5,000㎡ 이상","interest_category":"잡종지","solar_candidate":"Y","candidate_reason":"실제 이용·점유 여부 확인 후 검토할 잡종지; 면적 8,106㎡","priority_score":75,"source":"경기부동산포털 국공유지조회·연속지적도","source_date":"2026-08-11","installed_solar_match":false}},{"type":"Feature","id":"4115010200101190151","geometry":{"type":"Point","coordinates":[127.0446262,37.7088235]},"properties":{"pnu":"4115010200101190151","municipality_code":"41150","municipality":"의정부시","district":"의정부시","locality":"호원동","address":"의정부시 호원동 119-151","owner_type":"경기도유지","owner_label":"경기도","manager":"미래성장산업국 벤처스타트업과","property_class":"일반재산","land_category":"대","area_sqm":4098.0,"area_band":"3,000~5,000㎡","interest_category":"대","solar_candidate":"Y","candidate_reason":"청사·공공건축물·주차장 현황 추가 확인 필요; 면적 4,098㎡","priority_score":75,"source":"경기부동산포털 국공유지조회·연속지적도","source_date":"2026-08-11","installed_solar_match":false}},{"type":"Feature","id":"4115010400107980001","geometry":{"type":"Point","coordinates":[127.0737343,37.7485395]},"properties":{"pnu":"4115010400107980001","municipality_code":"41150","municipality":"의정부시","district":"의정부시","locality":"신곡동","address":"의정부시 신곡동 798-1","owner_type":"경기도유지","owner_label":"경기도","manager":"균형발전기획실 회계담당관","property_class":"행정재산","land_category":"주차장","area_sqm":3085.8,"area_band":"3,000~5,000㎡","interest_category":"주차장","solar_candidate":"Y","candidate_reason":"주차면 상부 태양광을 우선 검토할 지목; 면적 3,086㎡","priority_score":75,"source":"경기부동산포털 국공유지조회·연속지적도","source_date":"2026-08-11","installed_solar_match":false}},{"type":"Feature","id":"4115010900104320027","geometry":{"type":"Point","coordinates":[127.0521344,37.7510394]},"properties":{"pnu":"4115010900104320027","municipality_code":"41150","municipality":"의정부시","district":"의정부시","locality":"금오동","address":"의정부시 금오동 432-27","owner_type":"경기도유지","owner_label":"경기도(경기도교육감)","manager":"","property_class":"","land_category":"잡종지","area_sqm":3398.0,"area_band":"3,000~5,000㎡","interest_category":"잡종지","solar_candidate":"Y","candidate_reason":"실제 이용·점유 여부 확인 후 검토할 잡종지; 면적 3,398㎡","priority_score":70,"source":"경기부동산포털 국공유지조회·연속지적도","source_date":"2026-08-11","installed_solar_match":true,"installed_solar_count":1,"installed_solar_area_sqm":60.4,"installed_solar_analysis_years":["2024"],"installed_solar_types":["주차장"],"installed_solar_permit_status_counts":{"N":1}}},{"type":"Feature","id":"4115010400108000000","geometry":{"type":"Point","coordinates":[127.0718839,37.7473508]},"properties":{"pnu":"4115010400108000000","municipality_code":"41150","municipality":"의정부시","district":"의정부시","locality":"신곡동","address":"의정부시 신곡동 800","owner_type":"경기도유지","owner_label":"경기도","manager":"균형발전기획실 회계담당관","property_class":"행정재산","land_category":"대","area_sqm":66115.3,"area_band":"5,000㎡ 이상","interest_category":"대","solar_candidate":"Y","candidate_reason":"청사·공공건축물·주차장 현황 추가 확인 필요; 면적 66,115㎡","priority_score":65,"source":"경기부동산포털 국공유지조회·연속지적도","source_date":"2026-08-11","installed_solar_match":true,"installed_solar_count":29,"installed_solar_area_sqm":1685.2,"installed_solar_analysis_years":["2024"],"installed_solar_types":["공공시설물","주차장"],"installed_solar_permit_status_counts":{"Y":26,"N":3}}},{"type":"Feature","id":"4115010400107590001","geometry":{"type":"Point","coordinates":[127.0713309,37.74843]},"properties":{"pnu":"4115010400107590001","municipality_code":"41150","municipality":"의정부시","district":"의정부시","locality":"신곡동","address":"의정부시 신곡동 759-1","owner_type":"경기도유지","owner_label":"경기도","manager":"균형발전기획실 회계담당관","property_class":"행정재산","land_category":"대","area_sqm":13337.7,"area_band":"5,000㎡ 이상","interest_category":"대","solar_candidate":"Y","candidate_reason":"청사·공공건축물·주차장 현황 추가 확인 필요; 면적 13,338㎡","priority_score":65,"source":"경기부동산포털 국공유지조회·연속지적도","source_date":"2026-08-11","installed_solar_match":false}},{"type":"Feature","id":"4115010900104840000","geometry":{"type":"Point","coordinates":[127.0699945,37.7551578]},"properties":{"pnu":"4115010900104840000","municipality_code":"41150","municipality":"의정부시","district":"의정부시","locality":"금오동","address":"의정부시 금오동 484","owner_type":"경기도유지","owner_label":"경기도","manager":"소방재난본부 회계장비담당관","property_class":"행정재산","land_category":"대","area_sqm":9061.0,"area_band":"5,000㎡ 이상","interest_category":"대","solar_candidate":"Y","candidate_reason":"청사·공공건축물·주차장 현황 추가 확인 필요; 면적 9,061㎡","priority_score":65,"source":"경기부동산포털 국공유지조회·연속지적도","source_date":"2026-08-11","installed_solar_match":true,"installed_solar_count":8,"installed_solar_area_sqm":809.6,"installed_solar_analysis_years":["2024"],"installed_solar_types":["공공시설물"],"installed_solar_permit_status_counts":{"N":8}}},{"type":"Feature","id":"4115010600108810000","geometry":{"type":"Point","coordinates":[127.1066324,37.7477058]},"properties":{"pnu":"4115010600108810000","municipality_code":"41150","municipality":"의정부시","district":"의정부시","locality":"민락동","address":"의정부시 민락동 881","owner_type":"경기도유지","owner_label":"경기도(교육감)","manager":"","property_class":"","land_category":"대","area_sqm":7364.9,"area_band":"5,000㎡ 이상","interest_category":"대","solar_candidate":"Y","candidate_reason":"청사·공공건축물·주차장 현황 추가 확인 필요; 면적 7,365㎡","priority_score":65,"source":"경기부동산포털 국공유지조회·연속지적도","source_date":"2026-08-11","installed_solar_match":true,"installed_solar_count":2,"installed_solar_area_sqm":617.8,"installed_solar_analysis_years":["2024"],"installed_solar_types":["공공시설물"],"installed_solar_permit_status_counts":{"N":2}}},{"type":"Feature","id":"4115010100104330000","geometry":{"type":"Point","coordinates":[127.0424878,37.7411212]},"properties":{"pnu":"4115010100104330000","municipality_code":"41150","municipality":"의정부시","district":"의정부시","locality":"의정부동","address":"의정부시 의정부동 433","owner_type":"경기도유지","owner_label":"경기도","manager":"보건건강국 의료자원과","property_class":"행정재산","land_category":"대","area_sqm":5424.3,"area_band":"5,000㎡ 이상","interest_category":"대","solar_candidate":"Y","candidate_reason":"청사·공공건축물·주차장 현황 추가 확인 필요; 면적 5,424㎡","priority_score":65,"source":"경기부동산포털 국공유지조회·연속지적도","source_date":"2026-08-11","installed_solar_match":false}},{"type":"Feature","id":"4115010900103670045","geometry":{"type":"Point","coordinates":[127.0556401,37.7453794]},"properties":{"pnu":"4115010900103670045","municipality_code":"41150","municipality":"의정부시","district":"의정부시","locality":"금오동","address":"의정부시 금오동 367-45","owner_type":"경기도유지","owner_label":"경기도","manager":"건설국 하천과","property_class":"일반재산","land_category":"잡종지","area_sqm":156.0,"area_band":"100~500㎡","interest_category":"잡종지","solar_candidate":"Y","candidate_reason":"실제 이용·점유 여부 확인 후 검토할 잡종지; 면적 156㎡","priority_score":65,"source":"경기부동산포털 국공유지조회·연속지적도","source_date":"2026-08-11","installed_solar_match":false}},{"type":"Feature","id":"4115010900103670012","geometry":{"type":"Point","coordinates":[127.0555436,37.7452781]},"properties":{"pnu":"4115010900103670012","municipality_code":"41150","municipality":"의정부시","district":"의정부시","locality":"금오동","address":"의정부시 금오동 367-12","owner_type":"경기도유지","owner_label":"경기도","manager":"건설국 하천과","property_class":"일반재산","land_category":"잡종지","area_sqm":144.0,"area_band":"100~500㎡","interest_category":"잡종지","solar_candidate":"Y","candidate_reason":"실제 이용·점유 여부 확인 후 검토할 잡종지; 면적 144㎡","priority_score":65,"source":"경기부동산포털 국공유지조회·연속지적도","source_date":"2026-08-11","installed_solar_match":false}},{"type":"Feature","id":"4115010900103670047","geometry":{"type":"Point","coordinates":[127.0557158,37.7453366]},"properties":{"pnu":"4115010900103670047","municipality_code":"41150","municipality":"의정부시","district":"의정부시","locality":"금오동","address":"의정부시 금오동 367-47","owner_type":"경기도유지","owner_label":"경기도","manager":"건설국 하천과","property_class":"일반재산","land_category":"잡종지","area_sqm":111.0,"area_band":"100~500㎡","interest_category":"잡종지","solar_candidate":"Y","candidate_reason":"실제 이용·점유 여부 확인 후 검토할 잡종지; 면적 111㎡","priority_score":65,"source":"경기부동산포털 국공유지조회·연속지적도","source_date":"2026-08-11","installed_solar_match":false}},{"type":"Feature","id":"4115010900104310000","geometry":{"type":"Point","coordinates":[127.0533053,37.7505814]},"properties":{"pnu":"4115010900104310000","municipality_code":"41150","municipality":"의정부시","district":"의정부시","locality":"금오동","address":"의정부시 금오동 431","owner_type":"경기도유지","owner_label":"경기도(경기도교육감)","manager":"","property_class":"","land_category":"잡종지","area_sqm":2046.0,"area_band":"1,000~3,000㎡","interest_category":"잡종지","solar_candidate":"Y","candidate_reason":"실제 이용·점유 여부 확인 후 검토할 잡종지; 면적 2,046㎡","priority_score":63,"source":"경기부동산포털 국공유지조회·연속지적도","source_date":"2026-08-11","installed_solar_match":true,"installed_solar_count":2,"installed_solar_area_sqm":356.8,"installed_solar_analysis_years":["2024"],"installed_solar_types":["공공시설물"],"installed_solar_permit_status_counts":{"N":2}}},{"type":"Feature","id":"4115010200101260003","geometry":{"type":"Point","coordinates":[127.0511047,37.7049201]},"properties":{"pnu":"4115010200101260003","municipality_code":"41150","municipality":"의정부시","district":"의정부시","locality":"호원동","address":"의정부시 호원동 126-3","owner_type":"경기도유지","owner_label":"경기도","manager":"건설국 하천과","property_class":"행정재산","land_category":"잡종지","area_sqm":1862.0,"area_band":"1,000~3,000㎡","interest_category":"잡종지","solar_candidate":"Y","candidate_reason":"실제 이용·점유 여부 확인 후 검토할 잡종지; 면적 1,862㎡","priority_score":63,"source":"경기부동산포털 국공유지조회·연속지적도","source_date":"2026-08-11","installed_solar_match":false}},{"type":"Feature","id":"4115010900103940001","geometry":{"type":"Point","coordinates":[127.0526689,37.7502385]},"properties":{"pnu":"4115010900103940001","municipality_code":"41150","municipality":"의정부시","district":"의정부시","locality":"금오동","address":"의정부시 금오동 394-1","owner_type":"경기도유지","owner_label":"경기도(경기도교육감)","manager":"","property_class":"","land_category":"잡종지","area_sqm":1666.0,"area_band":"1,000~3,000㎡","interest_category":"잡종지","solar_candidate":"Y","candidate_reason":"실제 이용·점유 여부 확인 후 검토할 잡종지; 면적 1,666㎡","priority_score":63,"source":"경기부동산포털 국공유지조회·연속지적도","source_date":"2026-08-11","installed_solar_match":false}},{"type":"Feature","id":"4115010900104320028","geometry":{"type":"Point","coordinates":[127.0517523,37.7507231]},"properties":{"pnu":"4115010900104320028","municipality_code":"41150","municipality":"의정부시","district":"의정부시","locality":"금오동","address":"의정부시 금오동 432-28","owner_type":"경기도유지","owner_label":"경기도(경기도교육감)","manager":"","property_class":"","land_category":"잡종지","area_sqm":1418.0,"area_band":"1,000~3,000㎡","interest_category":"잡종지","solar_candidate":"Y","candidate_reason":"실제 이용·점유 여부 확인 후 검토할 잡종지; 면적 1,418㎡","priority_score":63,"source":"경기부동산포털 국공유지조회·연속지적도","source_date":"2026-08-11","installed_solar_match":false}},{"type":"Feature","id":"4115010900104310005","geometry":{"type":"Point","coordinates":[127.0523141,37.750919]},"properties":{"pnu":"4115010900104310005","municipality_code":"41150","municipality":"의정부시","district":"의정부시","locality":"금오동","address":"의정부시 금오동 431-5","owner_type":"경기도유지","owner_label":"경기도(경기도교육감)","manager":"","property_class":"","land_category":"잡종지","area_sqm":1388.0,"area_band":"1,000~3,000㎡","interest_category":"잡종지","solar_candidate":"Y","candidate_reason":"실제 이용·점유 여부 확인 후 검토할 잡종지; 면적 1,388㎡","priority_score":63,"source":"경기부동산포털 국공유지조회·연속지적도","source_date":"2026-08-11","installed_solar_match":true,"installed_solar_count":1,"installed_solar_area_sqm":60.4,"installed_solar_analysis_years":["2024"],"installed_solar_types":["주차장"],"installed_solar_permit_status_counts":{"N":1}}},{"type":"Feature","id":"4115010200100970002","geometry":{"type":"Point","coordinates":[127.0497756,37.7101748]},"properties":{"pnu":"4115010200100970002","municipality_code":"41150","municipality":"의정부시","district":"의정부시","locality":"호원동","address":"의정부시 호원동 97-2","owner_type":"경기도유지","owner_label":"경기도","manager":"건설국 하천과","property_class":"행정재산","land_category":"잡종지","area_sqm":1316.0,"area_band":"1,000~3,000㎡","interest_category":"잡종지","solar_candidate":"Y","candidate_reason":"실제 이용·점유 여부 확인 후 검토할 잡종지; 면적 1,316㎡","priority_score":63,"source":"경기부동산포털 국공유지조회·연속지적도","source_date":"2026-08-11","installed_solar_match":false}},{"type":"Feature","id":"4115010100102400007","geometry":{"type":"Point","coordinates":[127.0430929,37.7463416]},"properties":{"pnu":"4115010100102400007","municipality_code":"41150","municipality":"의정부시","district":"의정부시","locality":"의정부동","address":"의정부시 의정부동 240-7","owner_type":"경기도유지","owner_label":"경기도","manager":"평화협력국 평화기반조성과","property_class":"행정재산","land_category":"잡종지","area_sqm":1108.0,"area_band":"1,000~3,000㎡","interest_category":"잡종지","solar_candidate":"Y","candidate_reason":"실제 이용·점유 여부 확인 후 검토할 잡종지; 면적 1,108㎡","priority_score":63,"source":"경기부동산포털 국공유지조회·연속지적도","source_date":"2026-08-11","installed_solar_match":false}},{"type":"Feature","id":"4115010100105100000","geometry":{"type":"Point","coordinates":[127.0406674,37.7361443]},"properties":{"pnu":"4115010100105100000","municipality_code":"41150","municipality":"의정부시","district":"의정부시","locality":"의정부동","address":"의정부시 의정부동 510","owner_type":"경기도유지","owner_label":"경기도","manager":"경제실 일자리경제정책과","property_class":"행정재산","land_category":"대","area_sqm":4614.3,"area_band":"3,000~5,000㎡","interest_category":"대","solar_candidate":"Y","candidate_reason":"청사·공공건축물·주차장 현황 추가 확인 필요; 면적 4,614㎡","priority_score":60,"source":"경기부동산포털 국공유지조회·연속지적도","source_date":"2026-08-11","installed_solar_match":true,"installed_solar_count":2,"installed_solar_area_sqm":229.3,"installed_solar_analysis_years":["2024"],"installed_solar_types":["공공시설물"],"installed_solar_permit_status_counts":{"Y":2}}},{"type":"Feature","id":"4115011000105940039","geometry":{"type":"Point","coordinates":[127.0156966,37.7371]},"properties":{"pnu":"4115011000105940039","municipality_code":"41150","municipality":"의정부시","district":"의정부시","locality":"가능동","address":"의정부시 가능동 594-39","owner_type":"경기도유지","owner_label":"경기도","manager":"건설국 하천과","property_class":"행정재산","land_category":"대","area_sqm":3972.0,"area_band":"3,000~5,000㎡","interest_category":"대","solar_candidate":"Y","candidate_reason":"청사·공공건축물·주차장 현황 추가 확인 필요; 면적 3,972㎡","priority_score":60,"source":"경기부동산포털 국공유지조회·연속지적도","source_date":"2026-08-11","installed_solar_match":false}},{"type":"Feature","id":"4115010100105510002","geometry":{"type":"Point","coordinates":[127.0403571,37.7356205]},"properties":{"pnu":"4115010100105510002","municipality_code":"41150","municipality":"의정부시","district":"의정부시","locality":"의정부동","address":"의정부시 의정부동 551-2","owner_type":"경기도유지","owner_label":"경기도","manager":"경기도건설본부","property_class":"행정재산","land_category":"대","area_sqm":3590.4,"area_band":"3,000~5,000㎡","interest_category":"대","solar_candidate":"Y","candidate_reason":"청사·공공건축물·주차장 현황 추가 확인 필요; 면적 3,590㎡","priority_score":60,"source":"경기부동산포털 국공유지조회·연속지적도","source_date":"2026-08-11","installed_solar_match":false}},{"type":"Feature","id":"4115010100102250003","geometry":{"type":"Point","coordinates":[127.046892,37.7458004]},"properties":{"pnu":"4115010100102250003","municipality_code":"41150","municipality":"의정부시","district":"의정부시","locality":"의정부동","address":"의정부시 의정부동 225-3","owner_type":"경기도유지","owner_label":"경기도(경기도교육감)","manager":"","property_class":"","land_category":"대","area_sqm":3473.7,"area_band":"3,000~5,000㎡","interest_category":"대","solar_candidate":"Y","candidate_reason":"청사·공공건축물·주차장 현황 추가 확인 필요; 면적 3,474㎡","priority_score":60,"source":"경기부동산포털 국공유지조회·연속지적도","source_date":"2026-08-11","installed_solar_match":false}},{"type":"Feature","id":"4115010900104190013","geometry":{"type":"Point","coordinates":[127.0529048,37.7503282]},"properties":{"pnu":"4115010900104190013","municipality_code":"41150","municipality":"의정부시","district":"의정부시","locality":"금오동","address":"의정부시 금오동 419-13","owner_type":"경기도유지","owner_label":"경기도(경기도교육감)","manager":"","property_class":"","land_category":"잡종지","area_sqm":734.0,"area_band":"500~1,000㎡","interest_category":"잡종지","solar_candidate":"검토필요","candidate_reason":"실제 이용·점유 여부 확인 후 검토할 잡종지; 면적 734㎡","priority_score":55,"source":"경기부동산포털 국공유지조회·연속지적도","source_date":"2026-08-11","installed_solar_match":false}},{"type":"Feature","id":"4115010900103960001","geometry":{"type":"Point","coordinates":[127.0534524,37.7502329]},"properties":{"pnu":"4115010900103960001","municipality_code":"41150","municipality":"의정부시","district":"의정부시","locality":"금오동","address":"의정부시 금오동 396-1","owner_type":"경기도유지","owner_label":"경기도(경기도교육감)","manager":"","property_class":"","land_category":"잡종지","area_sqm":707.0,"area_band":"500~1,000㎡","interest_category":"잡종지","solar_candidate":"검토필요","candidate_reason":"실제 이용·점유 여부 확인 후 검토할 잡종지; 면적 707㎡","priority_score":55,"source":"경기부동산포털 국공유지조회·연속지적도","source_date":"2026-08-11","installed_solar_match":false}},{"type":"Feature","id":"4115010900103940013","geometry":{"type":"Point","coordinates":[127.0525369,37.7501137]},"properties":{"pnu":"4115010900103940013","municipality_code":"41150","municipality":"의정부시","district":"의정부시","locality":"금오동","address":"의정부시 금오동 394-13","owner_type":"경기도유지","owner_label":"경기도(경기도교육감)","manager":"","property_class":"","land_category":"잡종지","area_sqm":503.0,"area_band":"500~1,000㎡","interest_category":"잡종지","solar_candidate":"검토필요","candidate_reason":"실제 이용·점유 여부 확인 후 검토할 잡종지; 면적 503㎡","priority_score":55,"source":"경기부동산포털 국공유지조회·연속지적도","source_date":"2026-08-11","installed_solar_match":false}},{"type":"Feature","id":"4115010400100730017","geometry":{"type":"Point","coordinates":[127.0685142,37.745723]},"properties":{"pnu":"4115010400100730017","municipality_code":"41150","municipality":"의정부시","district":"의정부시","locality":"신곡동","address":"의정부시 신곡동 73-17","owner_type":"경기도유지","owner_label":"경기도","manager":"균형발전기획실 회계담당관","property_class":"행정재산","land_category":"대","area_sqm":2273.0,"area_band":"1,000~3,000㎡","interest_category":"대","solar_candidate":"검토필요","candidate_reason":"청사·공공건축물·주차장 현황 추가 확인 필요; 면적 2,273㎡","priority_score":53,"source":"경기부동산포털 국공유지조회·연속지적도","source_date":"2026-08-11","installed_solar_match":false}},{"type":"Feature","id":"4115010600108840000","geometry":{"type":"Point","coordinates":[127.1051984,37.7456165]},"properties":{"pnu":"4115010600108840000","municipality_code":"41150","municipality":"의정부시","district":"의정부시","locality":"민락동","address":"의정부시 민락동 884","owner_type":"경기도유지","owner_label":"경기도","manager":"소방재난본부 회계장비담당관","property_class":"행정재산","land_category":"대","area_sqm":1989.8,"area_band":"1,000~3,000㎡","interest_category":"대","solar_candidate":"검토필요","candidate_reason":"청사·공공건축물·주차장 현황 추가 확인 필요; 면적 1,990㎡","priority_score":53,"source":"경기부동산포털 국공유지조회·연속지적도","source_date":"2026-08-11","installed_solar_match":false}},{"type":"Feature","id":"4115011100104070001","geometry":{"type":"Point","coordinates":[127.0350603,37.7608517]},"properties":{"pnu":"4115011100104070001","municipality_code":"41150","municipality":"의정부시","district":"의정부시","locality":"녹양동","address":"의정부시 녹양동 407-1","owner_type":"경기도유지","owner_label":"경기도","manager":"소방재난본부 회계장비담당관","property_class":"행정재산","land_category":"대","area_sqm":1956.3,"area_band":"1,000~3,000㎡","interest_category":"대","solar_candidate":"검토필요","candidate_reason":"청사·공공건축물·주차장 현황 추가 확인 필요; 면적 1,956㎡","priority_score":53,"source":"경기부동산포털 국공유지조회·연속지적도","source_date":"2026-08-11","installed_solar_match":true,"installed_solar_count":2,"installed_solar_area_sqm":186.2,"installed_solar_analysis_years":["2024"],"installed_solar_types":["공공시설물"],"installed_solar_permit_status_counts":{"N":2}}},{"type":"Feature","id":"4115010100102250004","geometry":{"type":"Point","coordinates":[127.047264,37.7457922]},"properties":{"pnu":"4115010100102250004","municipality_code":"41150","municipality":"의정부시","district":"의정부시","locality":"의정부동","address":"의정부시 의정부동 225-4","owner_type":"경기도유지","owner_label":"경기도(교육감)","manager":"","property_class":"","land_category":"대","area_sqm":1683.0,"area_band":"1,000~3,000㎡","interest_category":"대","solar_candidate":"검토필요","candidate_reason":"청사·공공건축물·주차장 현황 추가 확인 필요; 면적 1,683㎡","priority_score":53,"source":"경기부동산포털 국공유지조회·연속지적도","source_date":"2026-08-11","installed_solar_match":false}},{"type":"Feature","id":"4115010600108840001","geometry":{"type":"Point","coordinates":[127.1048922,37.7458764]},"properties":{"pnu":"4115010600108840001","municipality_code":"41150","municipality":"의정부시","district":"의정부시","locality":"민락동","address":"의정부시 민락동 884-1","owner_type":"경기도유지","owner_label":"경기도","manager":"소방재난본부 회계장비담당관","property_class":"행정재산","land_category":"대","area_sqm":1485.0,"area_band":"1,000~3,000㎡","interest_category":"대","solar_candidate":"검토필요","candidate_reason":"청사·공공건축물·주차장 현황 추가 확인 필요; 면적 1,485㎡","priority_score":53,"source":"경기부동산포털 국공유지조회·연속지적도","source_date":"2026-08-11","installed_solar_match":false}},{"type":"Feature","id":"4115011000106520016","geometry":{"type":"Point","coordinates":[127.0404018,37.7479112]},"properties":{"pnu":"4115011000106520016","municipality_code":"41150","municipality":"의정부시","district":"의정부시","locality":"가능동","address":"의정부시 가능동 652-16","owner_type":"경기도유지","owner_label":"경기도(교육감)","manager":"","property_class":"","land_category":"대","area_sqm":1346.8,"area_band":"1,000~3,000㎡","interest_category":"대","solar_candidate":"검토필요","candidate_reason":"청사·공공건축물·주차장 현황 추가 확인 필요; 면적 1,347㎡","priority_score":53,"source":"경기부동산포털 국공유지조회·연속지적도","source_date":"2026-08-11","installed_solar_match":false}},{"type":"Feature","id":"4115010900104670002","geometry":{"type":"Point","coordinates":[127.0612934,37.7493153]},"properties":{"pnu":"4115010900104670002","municipality_code":"41150","municipality":"의정부시","district":"의정부시","locality":"금오동","address":"의정부시 금오동 467-2","owner_type":"경기도유지","owner_label":"경기도","manager":"소방재난본부 회계장비담당관","property_class":"행정재산","land_category":"대","area_sqm":1082.4,"area_band":"1,000~3,000㎡","interest_category":"대","solar_candidate":"검토필요","candidate_reason":"청사·공공건축물·주차장 현황 추가 확인 필요; 면적 1,082㎡","priority_score":53,"source":"경기부동산포털 국공유지조회·연속지적도","source_date":"2026-08-11","installed_solar_match":false}},{"type":"Feature","id":"4115011000105960072","geometry":{"type":"Point","coordinates":[127.0114142,37.7364609]},"properties":{"pnu":"4115011000105960072","municipality_code":"41150","municipality":"의정부시","district":"의정부시","locality":"가능동","address":"의정부시 가능동 596-72","owner_type":"경기도유지","owner_label":"경기도","manager":"건설국 하천과","property_class":"행정재산","land_category":"잡종지","area_sqm":296.0,"area_band":"100~500㎡","interest_category":"잡종지","solar_candidate":"검토필요","candidate_reason":"실제 이용·점유 여부 확인 후 검토할 잡종지; 면적 296㎡","priority_score":50,"source":"경기부동산포털 국공유지조회·연속지적도","source_date":"2026-08-11","installed_solar_match":false}},{"type":"Feature","id":"4115010900104310007","geometry":{"type":"Point","coordinates":[127.0525668,37.7516675]},"properties":{"pnu":"4115010900104310007","municipality_code":"41150","municipality":"의정부시","district":"의정부시","locality":"금오동","address":"의정부시 금오동 431-7","owner_type":"경기도유지","owner_label":"경기도(경기도교육감)","manager":"","property_class":"","land_category":"잡종지","area_sqm":294.0,"area_band":"100~500㎡","interest_category":"잡종지","solar_candidate":"검토필요","candidate_reason":"실제 이용·점유 여부 확인 후 검토할 잡종지; 면적 294㎡","priority_score":50,"source":"경기부동산포털 국공유지조회·연속지적도","source_date":"2026-08-11","installed_solar_match":false}},{"type":"Feature","id":"4115010900104310003","geometry":{"type":"Point","coordinates":[127.052615,37.7514892]},"properties":{"pnu":"4115010900104310003","municipality_code":"41150","municipality":"의정부시","district":"의정부시","locality":"금오동","address":"의정부시 금오동 431-3","owner_type":"경기도유지","owner_label":"경기도(경기도교육감)","manager":"","property_class":"","land_category":"잡종지","area_sqm":288.0,"area_band":"100~500㎡","interest_category":"잡종지","solar_candidate":"검토필요","candidate_reason":"실제 이용·점유 여부 확인 후 검토할 잡종지; 면적 288㎡","priority_score":50,"source":"경기부동산포털 국공유지조회·연속지적도","source_date":"2026-08-11","installed_solar_match":true,"installed_solar_count":1,"installed_solar_area_sqm":60.4,"installed_solar_analysis_years":["2024"],"installed_solar_types":["주차장"],"installed_solar_permit_status_counts":{"N":1}}},{"type":"Feature","id":"4115011000105960073","geometry":{"type":"Point","coordinates":[127.0109142,37.7372302]},"properties":{"pnu":"4115011000105960073","municipality_code":"41150","municipality":"의정부시","district":"의정부시","locality":"가능동","address":"의정부시 가능동 596-73","owner_type":"경기도유지","owner_label":"경기도","manager":"건설국 하천과","property_class":"행정재산","land_category":"잡종지","area_sqm":249.0,"area_band":"100~500㎡","interest_category":"잡종지","solar_candidate":"검토필요","candidate_reason":"실제 이용·점유 여부 확인 후 검토할 잡종지; 면적 249㎡","priority_score":50,"source":"경기부동산포털 국공유지조회·연속지적도","source_date":"2026-08-11","installed_solar_match":false}},{"type":"Feature","id":"4115010900103670025","geometry":{"type":"Point","coordinates":[127.0554161,37.7450046]},"properties":{"pnu":"4115010900103670025","municipality_code":"41150","municipality":"의정부시","district":"의정부시","locality":"금오동","address":"의정부시 금오동 367-25","owner_type":"경기도유지","owner_label":"경기도","manager":"건설국 하천과","property_class":"행정재산","land_category":"잡종지","area_sqm":225.0,"area_band":"100~500㎡","interest_category":"잡종지","solar_candidate":"검토필요","candidate_reason":"실제 이용·점유 여부 확인 후 검토할 잡종지; 면적 225㎡","priority_score":50,"source":"경기부동산포털 국공유지조회·연속지적도","source_date":"2026-08-11","installed_solar_match":false}},{"type":"Feature","id":"4115010900104310006","geometry":{"type":"Point","coordinates":[127.052503,37.7515008]},"properties":{"pnu":"4115010900104310006","municipality_code":"41150","municipality":"의정부시","district":"의정부시","locality":"금오동","address":"의정부시 금오동 431-6","owner_type":"경기도유지","owner_label":"경기도(경기도교육감)","manager":"","property_class":"","land_category":"잡종지","area_sqm":165.0,"area_band":"100~500㎡","interest_category":"잡종지","solar_candidate":"검토필요","candidate_reason":"실제 이용·점유 여부 확인 후 검토할 잡종지; 면적 165㎡","priority_score":50,"source":"경기부동산포털 국공유지조회·연속지적도","source_date":"2026-08-11","installed_solar_match":true,"installed_solar_count":1,"installed_solar_area_sqm":60.4,"installed_solar_analysis_years":["2024"],"installed_solar_types":["주차장"],"installed_solar_permit_status_counts":{"N":1}}},{"type":"Feature","id":"4115010200100980001","geometry":{"type":"Point","coordinates":[127.049567,37.7099358]},"properties":{"pnu":"4115010200100980001","municipality_code":"41150","municipality":"의정부시","district":"의정부시","locality":"호원동","address":"의정부시 호원동 98-1","owner_type":"경기도유지","owner_label":"경기도","manager":"건설국 하천과","property_class":"행정재산","land_category":"잡종지","area_sqm":147.0,"area_band":"100~500㎡","interest_category":"잡종지","solar_candidate":"검토필요","candidate_reason":"실제 이용·점유 여부 확인 후 검토할 잡종지; 면적 147㎡","priority_score":50,"source":"경기부동산포털 국공유지조회·연속지적도","source_date":"2026-08-11","installed_solar_match":false}},{"type":"Feature","id":"4115011000106000001","geometry":{"type":"Point","coordinates":[127.007107,37.7367926]},"properties":{"pnu":"4115011000106000001","municipality_code":"41150","municipality":"의정부시","district":"의정부시","locality":"가능동","address":"의정부시 가능동 600-1","owner_type":"경기도유지","owner_label":"경기도","manager":"건설국 하천과","property_class":"행정재산","land_category":"잡종지","area_sqm":134.0,"area_band":"100~500㎡","interest_category":"잡종지","solar_candidate":"검토필요","candidate_reason":"실제 이용·점유 여부 확인 후 검토할 잡종지; 면적 134㎡","priority_score":50,"source":"경기부동산포털 국공유지조회·연속지적도","source_date":"2026-08-11","installed_solar_match":false}},{"type":"Feature","id":"4115010900104320029","geometry":{"type":"Point","coordinates":[127.0525837,37.7518359]},"properties":{"pnu":"4115010900104320029","municipality_code":"41150","municipality":"의정부시","district":"의정부시","locality":"금오동","address":"의정부시 금오동 432-29","owner_type":"경기도유지","owner_label":"경기도(경기도교육감)","manager":"","property_class":"","land_category":"잡종지","area_sqm":113.0,"area_band":"100~500㎡","interest_category":"잡종지","solar_candidate":"검토필요","candidate_reason":"실제 이용·점유 여부 확인 후 검토할 잡종지; 면적 113㎡","priority_score":50,"source":"경기부동산포털 국공유지조회·연속지적도","source_date":"2026-08-11","installed_solar_match":false}},{"type":"Feature","id":"4115010900103950001","geometry":{"type":"Point","coordinates":[127.0531903,37.75014]},"properties":{"pnu":"4115010900103950001","municipality_code":"41150","municipality":"의정부시","district":"의정부시","locality":"금오동","address":"의정부시 금오동 395-1","owner_type":"경기도유지","owner_label":"경기도(경기도교육감)","manager":"","property_class":"","land_category":"잡종지","area_sqm":109.0,"area_band":"100~500㎡","interest_category":"잡종지","solar_candidate":"검토필요","candidate_reason":"실제 이용·점유 여부 확인 후 검토할 잡종지; 면적 109㎡","priority_score":50,"source":"경기부동산포털 국공유지조회·연속지적도","source_date":"2026-08-11","installed_solar_match":false}},{"type":"Feature","id":"4115010500105510001","geometry":{"type":"Point","coordinates":[127.0865407,37.7397288]},"properties":{"pnu":"4115010500105510001","municipality_code":"41150","municipality":"의정부시","district":"의정부시","locality":"용현동","address":"의정부시 용현동 551-1","owner_type":"경기도유지","owner_label":"경기도","manager":"소방재난본부 회계장비담당관","property_class":"행정재산","land_category":"대","area_sqm":967.1,"area_band":"500~1,000㎡","interest_category":"대","solar_candidate":"검토필요","candidate_reason":"청사·공공건축물·주차장 현황 추가 확인 필요; 면적 967㎡","priority_score":45,"source":"경기부동산포털 국공유지조회·연속지적도","source_date":"2026-08-11","installed_solar_match":false}},{"type":"Feature","id":"4115010100105250001","geometry":{"type":"Point","coordinates":[127.0358218,37.7371429]},"properties":{"pnu":"4115010100105250001","municipality_code":"41150","municipality":"의정부시","district":"의정부시","locality":"의정부동","address":"의정부시 의정부동 525-1","owner_type":"경기도유지","owner_label":"경기도","manager":"소방재난본부 회계장비담당관","property_class":"행정재산","land_category":"대","area_sqm":661.0,"area_band":"500~1,000㎡","interest_category":"대","solar_candidate":"검토필요","candidate_reason":"청사·공공건축물·주차장 현황 추가 확인 필요; 면적 661㎡","priority_score":45,"source":"경기부동산포털 국공유지조회·연속지적도","source_date":"2026-08-11","installed_solar_match":false}},{"type":"Feature","id":"4115010200104320006","geometry":{"type":"Point","coordinates":[127.0481735,37.7207827]},"properties":{"pnu":"4115010200104320006","municipality_code":"41150","municipality":"의정부시","district":"의정부시","locality":"호원동","address":"의정부시 호원동 432-6","owner_type":"경기도유지","owner_label":"경기도","manager":"소방재난본부 회계장비담당관","property_class":"행정재산","land_category":"대","area_sqm":537.1,"area_band":"500~1,000㎡","interest_category":"대","solar_candidate":"검토필요","candidate_reason":"청사·공공건축물·주차장 현황 추가 확인 필요; 면적 537㎡","priority_score":45,"source":"경기부동산포털 국공유지조회·연속지적도","source_date":"2026-08-11","installed_solar_match":false}},{"type":"Feature","id":"4115010800200280000","geometry":{"type":"Point","coordinates":[127.1051328,37.7721237]},"properties":{"pnu":"4115010800200280000","municipality_code":"41150","municipality":"의정부시","district":"의정부시","locality":"자일동","address":"의정부시 자일동 산28","owner_type":"경기도유지","owner_label":"경기도","manager":"건설국 도로정책과","property_class":"행정재산","land_category":"도로","area_sqm":21025.0,"area_band":"5,000㎡ 이상","interest_category":"도로","solar_candidate":"검토필요","candidate_reason":"도로점용 및 실제 이용형태 추가 검토 필요; 면적 21,025㎡","priority_score":40,"source":"경기부동산포털 국공유지조회·연속지적도","source_date":"2026-08-11","installed_solar_match":false}},{"type":"Feature","id":"4115011000100960004","geometry":{"type":"Point","coordinates":[127.0391781,37.7546462]},"properties":{"pnu":"4115011000100960004","municipality_code":"41150","municipality":"의정부시","district":"의정부시","locality":"가능동","address":"의정부시 가능동 96-4","owner_type":"경기도유지","owner_label":"경기도","manager":"건설국 도로정책과","property_class":"행정재산","land_category":"도로","area_sqm":6174.0,"area_band":"5,000㎡ 이상","interest_category":"도로","solar_candidate":"검토필요","candidate_reason":"도로점용 및 실제 이용형태 추가 검토 필요; 면적 6,174㎡","priority_score":40,"source":"경기부동산포털 국공유지조회·연속지적도","source_date":"2026-08-11","installed_solar_match":false}},{"type":"Feature","id":"4115010400200250014","geometry":{"type":"Point","coordinates":[127.0681707,37.7420283]},"properties":{"pnu":"4115010400200250014","municipality_code":"41150","municipality":"의정부시","district":"의정부시","locality":"신곡동","address":"의정부시 신곡동 산25-14","owner_type":"경기도유지","owner_label":"경기도","manager":"건설국 도로정책과","property_class":"행정재산","land_category":"도로","area_sqm":5856.0,"area_band":"5,000㎡ 이상","interest_category":"도로","solar_candidate":"검토필요","candidate_reason":"도로점용 및 실제 이용형태 추가 검토 필요; 면적 5,856㎡","priority_score":40,"source":"경기부동산포털 국공유지조회·연속지적도","source_date":"2026-08-11","installed_solar_match":false}},{"type":"Feature","id":"4115010200102260041","geometry":{"type":"Point","coordinates":[127.0470956,37.7051378]},"properties":{"pnu":"4115010200102260041","municipality_code":"41150","municipality":"의정부시","district":"의정부시","locality":"호원동","address":"의정부시 호원동 226-41","owner_type":"경기도유지","owner_label":"경기도(경기도교육감)","manager":"","property_class":"","land_category":"대","area_sqm":357.0,"area_band":"100~500㎡","interest_category":"대","solar_candidate":"검토필요","candidate_reason":"청사·공공건축물·주차장 현황 추가 확인 필요; 면적 357㎡","priority_score":40,"source":"경기부동산포털 국공유지조회·연속지적도","source_date":"2026-08-11","installed_solar_match":false}},{"type":"Feature","id":"4115010100102380006","geometry":{"type":"Point","coordinates":[127.0456483,37.7444393]},"properties":{"pnu":"4115010100102380006","municipality_code":"41150","municipality":"의정부시","district":"의정부시","locality":"의정부동","address":"의정부시 의정부동 238-6","owner_type":"경기도유지","owner_label":"경기도(교육감)","manager":"","property_class":"","land_category":"대","area_sqm":314.4,"area_band":"100~500㎡","interest_category":"대","solar_candidate":"검토필요","candidate_reason":"청사·공공건축물·주차장 현황 추가 확인 필요; 면적 314㎡","priority_score":40,"source":"경기부동산포털 국공유지조회·연속지적도","source_date":"2026-08-11","installed_solar_match":false}},{"type":"Feature","id":"4115011000106460007","geometry":{"type":"Point","coordinates":[127.0429139,37.7474911]},"properties":{"pnu":"4115011000106460007","municipality_code":"41150","municipality":"의정부시","district":"의정부시","locality":"가능동","address":"의정부시 가능동 646-7","owner_type":"경기도유지","owner_label":"경기도(교육감)","manager":"","property_class":"","land_category":"대","area_sqm":272.0,"area_band":"100~500㎡","interest_category":"대","solar_candidate":"검토필요","candidate_reason":"청사·공공건축물·주차장 현황 추가 확인 필요; 면적 272㎡","priority_score":40,"source":"경기부동산포털 국공유지조회·연속지적도","source_date":"2026-08-11","installed_solar_match":false}},{"type":"Feature","id":"4115010100102370014","geometry":{"type":"Point","coordinates":[127.0456869,37.7451813]},"properties":{"pnu":"4115010100102370014","municipality_code":"41150","municipality":"의정부시","district":"의정부시","locality":"의정부동","address":"의정부시 의정부동 237-14","owner_type":"경기도유지","owner_label":"경기도(교육감)","manager":"","property_class":"","land_category":"대","area_sqm":269.1,"area_band":"100~500㎡","interest_category":"대","solar_candidate":"검토필요","candidate_reason":"청사·공공건축물·주차장 현황 추가 확인 필요; 면적 269㎡","priority_score":40,"source":"경기부동산포털 국공유지조회·연속지적도","source_date":"2026-08-11","installed_solar_match":false}},{"type":"Feature","id":"4115010200101300053","geometry":{"type":"Point","coordinates":[127.0504681,37.7044541]},"properties":{"pnu":"4115010200101300053","municipality_code":"41150","municipality":"의정부시","district":"의정부시","locality":"호원동","address":"의정부시 호원동 130-53","owner_type":"경기도유지","owner_label":"경기도","manager":"건설국 하천과","property_class":"행정재산","land_category":"대","area_sqm":269.0,"area_band":"100~500㎡","interest_category":"대","solar_candidate":"검토필요","candidate_reason":"청사·공공건축물·주차장 현황 추가 확인 필요; 면적 269㎡","priority_score":40,"source":"경기부동산포털 국공유지조회·연속지적도","source_date":"2026-08-11","installed_solar_match":false}},{"type":"Feature","id":"4115010100100380065","geometry":{"type":"Point","coordinates":[127.0531077,37.7357427]},"properties":{"pnu":"4115010100100380065","municipality_code":"41150","municipality":"의정부시","district":"의정부시","locality":"의정부동","address":"의정부시 의정부동 38-65","owner_type":"경기도유지","owner_label":"경기도","manager":"건설국 하천과","property_class":"행정재산","land_category":"대","area_sqm":149.0,"area_band":"100~500㎡","interest_category":"대","solar_candidate":"검토필요","candidate_reason":"청사·공공건축물·주차장 현황 추가 확인 필요; 면적 149㎡","priority_score":40,"source":"경기부동산포털 국공유지조회·연속지적도","source_date":"2026-08-11","installed_solar_match":false}},{"type":"Feature","id":"4115011000106690005","geometry":{"type":"Point","coordinates":[127.0350807,37.7481732]},"properties":{"pnu":"4115011000106690005","municipality_code":"41150","municipality":"의정부시","district":"의정부시","locality":"가능동","address":"의정부시 가능동 669-5","owner_type":"경기도유지","owner_label":"경기도(교육감)","manager":"","property_class":"","land_category":"대","area_sqm":133.4,"area_band":"100~500㎡","interest_category":"대","solar_candidate":"검토필요","candidate_reason":"청사·공공건축물·주차장 현황 추가 확인 필요; 면적 133㎡","priority_score":40,"source":"경기부동산포털 국공유지조회·연속지적도","source_date":"2026-08-11","installed_solar_match":false}},{"type":"Feature","id":"4115011000200440055","geometry":{"type":"Point","coordinates":[127.0207241,37.7405037]},"properties":{"pnu":"4115011000200440055","municipality_code":"41150","municipality":"의정부시","district":"의정부시","locality":"가능동","address":"의정부시 가능동 산44-55","owner_type":"경기도유지","owner_label":"경기도","manager":"건설국 도로정책과","property_class":"행정재산","land_category":"도로","area_sqm":4713.0,"area_band":"3,000~5,000㎡","interest_category":"도로","solar_candidate":"검토필요","candidate_reason":"도로점용 및 실제 이용형태 추가 검토 필요; 면적 4,713㎡","priority_score":35,"source":"경기부동산포털 국공유지조회·연속지적도","source_date":"2026-08-11","installed_solar_match":false}},{"type":"Feature","id":"4115011000100520000","geometry":{"type":"Point","coordinates":[127.0413036,37.7548577]},"properties":{"pnu":"4115011000100520000","municipality_code":"41150","municipality":"의정부시","district":"의정부시","locality":"가능동","address":"의정부시 가능동 52","owner_type":"경기도유지","owner_label":"경기도","manager":"건설국 도로정책과","property_class":"행정재산","land_category":"도로","area_sqm":4578.0,"area_band":"3,000~5,000㎡","interest_category":"도로","solar_candidate":"검토필요","candidate_reason":"도로점용 및 실제 이용형태 추가 검토 필요; 면적 4,578㎡","priority_score":35,"source":"경기부동산포털 국공유지조회·연속지적도","source_date":"2026-08-11","installed_solar_match":false}},{"type":"Feature","id":"4115010800200220006","geometry":{"type":"Point","coordinates":[127.0999339,37.7689261]},"properties":{"pnu":"4115010800200220006","municipality_code":"41150","municipality":"의정부시","district":"의정부시","locality":"자일동","address":"의정부시 자일동 산22-6","owner_type":"경기도유지","owner_label":"경기도","manager":"건설국 도로정책과","property_class":"행정재산","land_category":"도로","area_sqm":3591.0,"area_band":"3,000~5,000㎡","interest_category":"도로","solar_candidate":"검토필요","candidate_reason":"도로점용 및 실제 이용형태 추가 검토 필요; 면적 3,591㎡","priority_score":35,"source":"경기부동산포털 국공유지조회·연속지적도","source_date":"2026-08-11","installed_solar_match":false}},{"type":"Feature","id":"4115010400200310005","geometry":{"type":"Point","coordinates":[127.0596078,37.7358627]},"properties":{"pnu":"4115010400200310005","municipality_code":"41150","municipality":"의정부시","district":"의정부시","locality":"신곡동","address":"의정부시 신곡동 산31-5","owner_type":"경기도유지","owner_label":"경기도","manager":"건설국 도로정책과","property_class":"행정재산","land_category":"도로","area_sqm":3584.0,"area_band":"3,000~5,000㎡","interest_category":"도로","solar_candidate":"검토필요","candidate_reason":"도로점용 및 실제 이용형태 추가 검토 필요; 면적 3,584㎡","priority_score":35,"source":"경기부동산포털 국공유지조회·연속지적도","source_date":"2026-08-11","installed_solar_match":false}}]}