{"type":"FeatureCollection","name":"gyeonggi_41170_province_solar_candidates","metadata":{"generated_on":"2026-08-11","source":"경기부동산포털 국공유지조회·연속지적도","source_agency":"경기도","ownership_source":"경기부동산포털 국공유지조회","coverage":"안양시","owner_code":"4","owner_type":"경기도유지","minimum_area_sqm":100.0,"feature_count":39,"coordinate_reference":"GRIS native values interpreted as EPSG:5174 and projected to EPSG:4326","coordinate_precision":"7 decimals, increased only when needed to keep narrow-parcel points inside","disclaimer":"설치 가능 확정이 아닌 현장조사 우선순위"},"features":[{"type":"Feature","id":"4117110200100060009","geometry":{"type":"Point","coordinates":[126.9226117,37.4366145]},"properties":{"pnu":"4117110200100060009","municipality_code":"41170","municipality":"안양시","district":"안양시 만안구","locality":"석수동","address":"안양시 만안구 석수동 6-9","owner_type":"경기도유지","owner_label":"경기도","manager":"자치행정국 자산관리과","property_class":"일반재산","land_category":"잡종지","area_sqm":3119.0,"area_band":"3,000~5,000㎡","interest_category":"잡종지","solar_candidate":"Y","candidate_reason":"실제 이용·점유 여부 확인 후 검토할 잡종지; 면적 3,119㎡","priority_score":85,"source":"경기부동산포털 국공유지조회·연속지적도","source_date":"2026-08-11","installed_solar_match":false}},{"type":"Feature","id":"4117110100107280002","geometry":{"type":"Point","coordinates":[126.9147858,37.3873253]},"properties":{"pnu":"4117110100107280002","municipality_code":"41170","municipality":"안양시","district":"안양시 만안구","locality":"안양동","address":"안양시 만안구 안양동 728-2","owner_type":"경기도유지","owner_label":"경기도(교육감)","manager":"","property_class":"","land_category":"대","area_sqm":17465.0,"area_band":"5,000㎡ 이상","interest_category":"대","solar_candidate":"Y","candidate_reason":"청사·공공건축물·주차장 현황 추가 확인 필요; 면적 17,465㎡","priority_score":65,"source":"경기부동산포털 국공유지조회·연속지적도","source_date":"2026-08-11","installed_solar_match":false}},{"type":"Feature","id":"4117310200115920000","geometry":{"type":"Point","coordinates":[126.9597422,37.3953787]},"properties":{"pnu":"4117310200115920000","municipality_code":"41170","municipality":"안양시","district":"안양시 동안구","locality":"관양동","address":"안양시 동안구 관양동 1592","owner_type":"경기도유지","owner_label":"경기도(교육감)","manager":"","property_class":"","land_category":"대","area_sqm":9859.9,"area_band":"5,000㎡ 이상","interest_category":"대","solar_candidate":"Y","candidate_reason":"청사·공공건축물·주차장 현황 추가 확인 필요; 면적 9,860㎡","priority_score":65,"source":"경기부동산포털 국공유지조회·연속지적도","source_date":"2026-08-11","installed_solar_match":false}},{"type":"Feature","id":"4117310200115920001","geometry":{"type":"Point","coordinates":[126.9606293,37.3958776]},"properties":{"pnu":"4117310200115920001","municipality_code":"41170","municipality":"안양시","district":"안양시 동안구","locality":"관양동","address":"안양시 동안구 관양동 1592-1","owner_type":"경기도유지","owner_label":"경기도","manager":"소방재난본부 회계장비담당관","property_class":"행정재산","land_category":"대","area_sqm":5498.0,"area_band":"5,000㎡ 이상","interest_category":"대","solar_candidate":"Y","candidate_reason":"청사·공공건축물·주차장 현황 추가 확인 필요; 면적 5,498㎡","priority_score":65,"source":"경기부동산포털 국공유지조회·연속지적도","source_date":"2026-08-11","installed_solar_match":false}},{"type":"Feature","id":"4117110200107060033","geometry":{"type":"Point","coordinates":[126.8963703,37.4310673]},"properties":{"pnu":"4117110200107060033","municipality_code":"41170","municipality":"안양시","district":"안양시 만안구","locality":"석수동","address":"안양시 만안구 석수동 706-33","owner_type":"경기도유지","owner_label":"경기도","manager":"건설국 하천과","property_class":"일반재산","land_category":"잡종지","area_sqm":208.0,"area_band":"100~500㎡","interest_category":"잡종지","solar_candidate":"Y","candidate_reason":"실제 이용·점유 여부 확인 후 검토할 잡종지; 면적 208㎡","priority_score":65,"source":"경기부동산포털 국공유지조회·연속지적도","source_date":"2026-08-11","installed_solar_match":false}},{"type":"Feature","id":"4117110100112190079","geometry":{"type":"Point","coordinates":[126.9144477,37.39597]},"properties":{"pnu":"4117110100112190079","municipality_code":"41170","municipality":"안양시","district":"안양시 만안구","locality":"안양동","address":"안양시 만안구 안양동 1219-79","owner_type":"경기도유지","owner_label":"경기도","manager":"건설국 하천과","property_class":"일반재산","land_category":"잡종지","area_sqm":103.0,"area_band":"100~500㎡","interest_category":"잡종지","solar_candidate":"Y","candidate_reason":"실제 이용·점유 여부 확인 후 검토할 잡종지; 면적 103㎡","priority_score":65,"source":"경기부동산포털 국공유지조회·연속지적도","source_date":"2026-08-11","installed_solar_match":false}},{"type":"Feature","id":"4117310200107550014","geometry":{"type":"Point","coordinates":[126.9656452,37.4020735]},"properties":{"pnu":"4117310200107550014","municipality_code":"41170","municipality":"안양시","district":"안양시 동안구","locality":"관양동","address":"안양시 동안구 관양동 755-14","owner_type":"경기도유지","owner_label":"경기도","manager":"건설국 하천과","property_class":"행정재산","land_category":"잡종지","area_sqm":1755.1,"area_band":"1,000~3,000㎡","interest_category":"잡종지","solar_candidate":"Y","candidate_reason":"실제 이용·점유 여부 확인 후 검토할 잡종지; 면적 1,755㎡","priority_score":63,"source":"경기부동산포털 국공유지조회·연속지적도","source_date":"2026-08-11","installed_solar_match":false}},{"type":"Feature","id":"4117310200107660014","geometry":{"type":"Point","coordinates":[126.9635179,37.4015242]},"properties":{"pnu":"4117310200107660014","municipality_code":"41170","municipality":"안양시","district":"안양시 동안구","locality":"관양동","address":"안양시 동안구 관양동 766-14","owner_type":"경기도유지","owner_label":"경기도","manager":"건설국 하천과","property_class":"행정재산","land_category":"잡종지","area_sqm":599.7,"area_band":"500~1,000㎡","interest_category":"잡종지","solar_candidate":"검토필요","candidate_reason":"실제 이용·점유 여부 확인 후 검토할 잡종지; 면적 600㎡","priority_score":55,"source":"경기부동산포털 국공유지조회·연속지적도","source_date":"2026-08-11","installed_solar_match":false}},{"type":"Feature","id":"4117110100105800009","geometry":{"type":"Point","coordinates":[126.9259748,37.388044]},"properties":{"pnu":"4117110100105800009","municipality_code":"41170","municipality":"안양시","district":"안양시 만안구","locality":"안양동","address":"안양시 만안구 안양동 580-9","owner_type":"경기도유지","owner_label":"경기도","manager":"자치행정국 자산관리과","property_class":"일반재산","land_category":"대","area_sqm":239.0,"area_band":"100~500㎡","interest_category":"대","solar_candidate":"검토필요","candidate_reason":"청사·공공건축물·주차장 현황 추가 확인 필요; 면적 239㎡","priority_score":55,"source":"경기부동산포털 국공유지조회·연속지적도","source_date":"2026-08-11","installed_solar_match":false}},{"type":"Feature","id":"4117110100105800010","geometry":{"type":"Point","coordinates":[126.9261002,37.3880431]},"properties":{"pnu":"4117110100105800010","municipality_code":"41170","municipality":"안양시","district":"안양시 만안구","locality":"안양동","address":"안양시 만안구 안양동 580-10","owner_type":"경기도유지","owner_label":"경기도","manager":"자치행정국 자산관리과","property_class":"일반재산","land_category":"대","area_sqm":191.0,"area_band":"100~500㎡","interest_category":"대","solar_candidate":"검토필요","candidate_reason":"청사·공공건축물·주차장 현황 추가 확인 필요; 면적 191㎡","priority_score":55,"source":"경기부동산포털 국공유지조회·연속지적도","source_date":"2026-08-11","installed_solar_match":false}},{"type":"Feature","id":"4117310200114950015","geometry":{"type":"Point","coordinates":[126.9744808,37.3989171]},"properties":{"pnu":"4117310200114950015","municipality_code":"41170","municipality":"안양시","district":"안양시 동안구","locality":"관양동","address":"안양시 동안구 관양동 1495-15","owner_type":"경기도유지","owner_label":"경기도","manager":"건설국 하천과","property_class":"일반재산","land_category":"대","area_sqm":121.6,"area_band":"100~500㎡","interest_category":"대","solar_candidate":"검토필요","candidate_reason":"청사·공공건축물·주차장 현황 추가 확인 필요; 면적 122㎡","priority_score":55,"source":"경기부동산포털 국공유지조회·연속지적도","source_date":"2026-08-11","installed_solar_match":false}},{"type":"Feature","id":"4117110100112190447","geometry":{"type":"Point","coordinates":[126.9202917,37.4041462]},"properties":{"pnu":"4117110100112190447","municipality_code":"41170","municipality":"안양시","district":"안양시 만안구","locality":"안양동","address":"안양시 만안구 안양동 1219-447","owner_type":"경기도유지","owner_label":"경기도","manager":"건설국 하천과","property_class":"일반재산","land_category":"대","area_sqm":120.0,"area_band":"100~500㎡","interest_category":"대","solar_candidate":"검토필요","candidate_reason":"청사·공공건축물·주차장 현황 추가 확인 필요; 면적 120㎡","priority_score":55,"source":"경기부동산포털 국공유지조회·연속지적도","source_date":"2026-08-11","installed_solar_match":false}},{"type":"Feature","id":"4117310200114830033","geometry":{"type":"Point","coordinates":[126.9731487,37.4009895]},"properties":{"pnu":"4117310200114830033","municipality_code":"41170","municipality":"안양시","district":"안양시 동안구","locality":"관양동","address":"안양시 동안구 관양동 1483-33","owner_type":"경기도유지","owner_label":"경기도","manager":"건설국 하천과","property_class":"일반재산","land_category":"대","area_sqm":116.9,"area_band":"100~500㎡","interest_category":"대","solar_candidate":"검토필요","candidate_reason":"청사·공공건축물·주차장 현황 추가 확인 필요; 면적 117㎡","priority_score":55,"source":"경기부동산포털 국공유지조회·연속지적도","source_date":"2026-08-11","installed_solar_match":false}},{"type":"Feature","id":"4117310200114940031","geometry":{"type":"Point","coordinates":[126.9733696,37.3991266]},"properties":{"pnu":"4117310200114940031","municipality_code":"41170","municipality":"안양시","district":"안양시 동안구","locality":"관양동","address":"안양시 동안구 관양동 1494-31","owner_type":"경기도유지","owner_label":"경기도","manager":"건설국 하천과","property_class":"일반재산","land_category":"대","area_sqm":108.7,"area_band":"100~500㎡","interest_category":"대","solar_candidate":"검토필요","candidate_reason":"청사·공공건축물·주차장 현황 추가 확인 필요; 면적 109㎡","priority_score":55,"source":"경기부동산포털 국공유지조회·연속지적도","source_date":"2026-08-11","installed_solar_match":false}},{"type":"Feature","id":"4117310200114950061","geometry":{"type":"Point","coordinates":[126.9741983,37.3993713]},"properties":{"pnu":"4117310200114950061","municipality_code":"41170","municipality":"안양시","district":"안양시 동안구","locality":"관양동","address":"안양시 동안구 관양동 1495-61","owner_type":"경기도유지","owner_label":"경기도","manager":"건설국 하천과","property_class":"일반재산","land_category":"대","area_sqm":103.7,"area_band":"100~500㎡","interest_category":"대","solar_candidate":"검토필요","candidate_reason":"청사·공공건축물·주차장 현황 추가 확인 필요; 면적 104㎡","priority_score":55,"source":"경기부동산포털 국공유지조회·연속지적도","source_date":"2026-08-11","installed_solar_match":false}},{"type":"Feature","id":"4117110100105720005","geometry":{"type":"Point","coordinates":[126.9326737,37.3844444]},"properties":{"pnu":"4117110100105720005","municipality_code":"41170","municipality":"안양시","district":"안양시 만안구","locality":"안양동","address":"안양시 만안구 안양동 572-5","owner_type":"경기도유지","owner_label":"경기도","manager":"미래성장산업국 벤처스타트업과","property_class":"행정재산","land_category":"대","area_sqm":2690.9,"area_band":"1,000~3,000㎡","interest_category":"대","solar_candidate":"검토필요","candidate_reason":"청사·공공건축물·주차장 현황 추가 확인 필요; 면적 2,691㎡","priority_score":53,"source":"경기부동산포털 국공유지조회·연속지적도","source_date":"2026-08-11","installed_solar_match":false}},{"type":"Feature","id":"4117310200117180000","geometry":{"type":"Point","coordinates":[126.971626,37.4066532]},"properties":{"pnu":"4117310200117180000","municipality_code":"41170","municipality":"안양시","district":"안양시 동안구","locality":"관양동","address":"안양시 동안구 관양동 1718","owner_type":"경기도유지","owner_label":"경기도","manager":"소방재난본부 회계장비담당관","property_class":"행정재산","land_category":"대","area_sqm":2157.7,"area_band":"1,000~3,000㎡","interest_category":"대","solar_candidate":"검토필요","candidate_reason":"청사·공공건축물·주차장 현황 추가 확인 필요; 면적 2,158㎡","priority_score":53,"source":"경기부동산포털 국공유지조회·연속지적도","source_date":"2026-08-11","installed_solar_match":true,"installed_solar_count":1,"installed_solar_area_sqm":48.9,"installed_solar_analysis_years":["2024"],"installed_solar_types":["공공시설물"],"installed_solar_permit_status_counts":{"N":1}}},{"type":"Feature","id":"4117310400110510003","geometry":{"type":"Point","coordinates":[126.952804,37.3896207]},"properties":{"pnu":"4117310400110510003","municipality_code":"41170","municipality":"안양시","district":"안양시 동안구","locality":"호계동","address":"안양시 동안구 호계동 1051-3","owner_type":"경기도유지","owner_label":"경기도","manager":"소방재난본부 회계장비담당관","property_class":"행정재산","land_category":"대","area_sqm":1835.0,"area_band":"1,000~3,000㎡","interest_category":"대","solar_candidate":"검토필요","candidate_reason":"청사·공공건축물·주차장 현황 추가 확인 필요; 면적 1,835㎡","priority_score":53,"source":"경기부동산포털 국공유지조회·연속지적도","source_date":"2026-08-11","installed_solar_match":false}},{"type":"Feature","id":"4117310300109230000","geometry":{"type":"Point","coordinates":[126.961511,37.3818975]},"properties":{"pnu":"4117310300109230000","municipality_code":"41170","municipality":"안양시","district":"안양시 동안구","locality":"평촌동","address":"안양시 동안구 평촌동 923","owner_type":"경기도유지","owner_label":"경기도","manager":"소방재난본부 회계장비담당관","property_class":"행정재산","land_category":"대","area_sqm":1781.6,"area_band":"1,000~3,000㎡","interest_category":"대","solar_candidate":"검토필요","candidate_reason":"청사·공공건축물·주차장 현황 추가 확인 필요; 면적 1,782㎡","priority_score":53,"source":"경기부동산포털 국공유지조회·연속지적도","source_date":"2026-08-11","installed_solar_match":false}},{"type":"Feature","id":"4117110100104720002","geometry":{"type":"Point","coordinates":[126.9255658,37.3902788]},"properties":{"pnu":"4117110100104720002","municipality_code":"41170","municipality":"안양시","district":"안양시 만안구","locality":"안양동","address":"안양시 만안구 안양동 472-2","owner_type":"경기도유지","owner_label":"경기도","manager":"소방재난본부 회계장비담당관","property_class":"행정재산","land_category":"대","area_sqm":1352.4,"area_band":"1,000~3,000㎡","interest_category":"대","solar_candidate":"검토필요","candidate_reason":"청사·공공건축물·주차장 현황 추가 확인 필요; 면적 1,352㎡","priority_score":53,"source":"경기부동산포털 국공유지조회·연속지적도","source_date":"2026-08-11","installed_solar_match":false}},{"type":"Feature","id":"4117110300109320004","geometry":{"type":"Point","coordinates":[126.8847761,37.4079183]},"properties":{"pnu":"4117110300109320004","municipality_code":"41170","municipality":"안양시","district":"안양시 만안구","locality":"박달동","address":"안양시 만안구 박달동 932-4","owner_type":"경기도유지","owner_label":"경기도","manager":"소방재난본부 회계장비담당관","property_class":"행정재산","land_category":"대","area_sqm":1230.9,"area_band":"1,000~3,000㎡","interest_category":"대","solar_candidate":"검토필요","candidate_reason":"청사·공공건축물·주차장 현황 추가 확인 필요; 면적 1,231㎡","priority_score":53,"source":"경기부동산포털 국공유지조회·연속지적도","source_date":"2026-08-11","installed_solar_match":false}},{"type":"Feature","id":"4117310200107660000","geometry":{"type":"Point","coordinates":[126.9635659,37.4017759]},"properties":{"pnu":"4117310200107660000","municipality_code":"41170","municipality":"안양시","district":"안양시 동안구","locality":"관양동","address":"안양시 동안구 관양동 766","owner_type":"경기도유지","owner_label":"경기도","manager":"건설국 하천과","property_class":"행정재산","land_category":"잡종지","area_sqm":477.7,"area_band":"100~500㎡","interest_category":"잡종지","solar_candidate":"검토필요","candidate_reason":"실제 이용·점유 여부 확인 후 검토할 잡종지; 면적 478㎡","priority_score":50,"source":"경기부동산포털 국공유지조회·연속지적도","source_date":"2026-08-11","installed_solar_match":false}},{"type":"Feature","id":"4117310200107620004","geometry":{"type":"Point","coordinates":[126.9651446,37.4018264]},"properties":{"pnu":"4117310200107620004","municipality_code":"41170","municipality":"안양시","district":"안양시 동안구","locality":"관양동","address":"안양시 동안구 관양동 762-4","owner_type":"경기도유지","owner_label":"경기도","manager":"건설국 하천과","property_class":"행정재산","land_category":"잡종지","area_sqm":456.9,"area_band":"100~500㎡","interest_category":"잡종지","solar_candidate":"검토필요","candidate_reason":"실제 이용·점유 여부 확인 후 검토할 잡종지; 면적 457㎡","priority_score":50,"source":"경기부동산포털 국공유지조회·연속지적도","source_date":"2026-08-11","installed_solar_match":false}},{"type":"Feature","id":"4117310200107410000","geometry":{"type":"Point","coordinates":[126.9613994,37.4014922]},"properties":{"pnu":"4117310200107410000","municipality_code":"41170","municipality":"안양시","district":"안양시 동안구","locality":"관양동","address":"안양시 동안구 관양동 741","owner_type":"경기도유지","owner_label":"경기도","manager":"건설국 하천과","property_class":"행정재산","land_category":"잡종지","area_sqm":196.0,"area_band":"100~500㎡","interest_category":"잡종지","solar_candidate":"검토필요","candidate_reason":"실제 이용·점유 여부 확인 후 검토할 잡종지; 면적 196㎡","priority_score":50,"source":"경기부동산포털 국공유지조회·연속지적도","source_date":"2026-08-11","installed_solar_match":false}},{"type":"Feature","id":"4117110200105590051","geometry":{"type":"Point","coordinates":[126.8985312,37.4221867]},"properties":{"pnu":"4117110200105590051","municipality_code":"41170","municipality":"안양시","district":"안양시 만안구","locality":"석수동","address":"안양시 만안구 석수동 559-51","owner_type":"경기도유지","owner_label":"경기도","manager":"건설국 하천과","property_class":"행정재산","land_category":"잡종지","area_sqm":129.0,"area_band":"100~500㎡","interest_category":"잡종지","solar_candidate":"검토필요","candidate_reason":"실제 이용·점유 여부 확인 후 검토할 잡종지; 면적 129㎡","priority_score":50,"source":"경기부동산포털 국공유지조회·연속지적도","source_date":"2026-08-11","installed_solar_match":false}},{"type":"Feature","id":"4117310400107940004","geometry":{"type":"Point","coordinates":[126.9626362,37.3657955]},"properties":{"pnu":"4117310400107940004","municipality_code":"41170","municipality":"안양시","district":"안양시 동안구","locality":"호계동","address":"안양시 동안구 호계동 794-4","owner_type":"경기도유지","owner_label":"경기도(교육감)","manager":"","property_class":"","land_category":"잡종지","area_sqm":110.0,"area_band":"100~500㎡","interest_category":"잡종지","solar_candidate":"검토필요","candidate_reason":"실제 이용·점유 여부 확인 후 검토할 잡종지; 면적 110㎡","priority_score":50,"source":"경기부동산포털 국공유지조회·연속지적도","source_date":"2026-08-11","installed_solar_match":false}},{"type":"Feature","id":"4117110200200110022","geometry":{"type":"Point","coordinates":[126.9138846,37.4367657]},"properties":{"pnu":"4117110200200110022","municipality_code":"41170","municipality":"안양시","district":"안양시 만안구","locality":"석수동","address":"안양시 만안구 석수동 산11-22","owner_type":"경기도유지","owner_label":"경기도","manager":"자치행정국 자산관리과","property_class":"일반재산","land_category":"임야","area_sqm":5678.0,"area_band":"5,000㎡ 이상","interest_category":"대규모부지","solar_candidate":"검토필요","candidate_reason":"넓은 경기도유지로 실제 이용·규제 현황 추가 검토; 면적 5,678㎡","priority_score":45,"source":"경기부동산포털 국공유지조회·연속지적도","source_date":"2026-08-11","installed_solar_match":false}},{"type":"Feature","id":"4117110200200730002","geometry":{"type":"Point","coordinates":[126.9136042,37.4337478]},"properties":{"pnu":"4117110200200730002","municipality_code":"41170","municipality":"안양시","district":"안양시 만안구","locality":"석수동","address":"안양시 만안구 석수동 산73-2","owner_type":"경기도유지","owner_label":"경기도","manager":"자치행정국 자산관리과","property_class":"일반재산","land_category":"임야","area_sqm":5669.0,"area_band":"5,000㎡ 이상","interest_category":"대규모부지","solar_candidate":"검토필요","candidate_reason":"넓은 경기도유지로 실제 이용·규제 현황 추가 검토; 면적 5,669㎡","priority_score":45,"source":"경기부동산포털 국공유지조회·연속지적도","source_date":"2026-08-11","installed_solar_match":false}},{"type":"Feature","id":"4117310100102400005","geometry":{"type":"Point","coordinates":[126.948711,37.40169]},"properties":{"pnu":"4117310100102400005","municipality_code":"41170","municipality":"안양시","district":"안양시 동안구","locality":"비산동","address":"안양시 동안구 비산동 240-5","owner_type":"경기도유지","owner_label":"경기도","manager":"자치행정국 자산관리과","property_class":"일반재산","land_category":"도로","area_sqm":1221.9,"area_band":"1,000~3,000㎡","interest_category":"도로","solar_candidate":"검토필요","candidate_reason":"도로점용 및 실제 이용형태 추가 검토 필요; 면적 1,222㎡","priority_score":43,"source":"경기부동산포털 국공유지조회·연속지적도","source_date":"2026-08-11","installed_solar_match":false}},{"type":"Feature","id":"4117110200200720001","geometry":{"type":"Point","coordinates":[126.91425,37.4335335]},"properties":{"pnu":"4117110200200720001","municipality_code":"41170","municipality":"안양시","district":"안양시 만안구","locality":"석수동","address":"안양시 만안구 석수동 산72-1","owner_type":"경기도유지","owner_label":"경기도","manager":"건설국 도로정책과","property_class":"행정재산","land_category":"도로","area_sqm":6055.0,"area_band":"5,000㎡ 이상","interest_category":"도로","solar_candidate":"검토필요","candidate_reason":"도로점용 및 실제 이용형태 추가 검토 필요; 면적 6,055㎡","priority_score":40,"source":"경기부동산포털 국공유지조회·연속지적도","source_date":"2026-08-11","installed_solar_match":false}},{"type":"Feature","id":"4117110100107600001","geometry":{"type":"Point","coordinates":[126.9116379,37.3941623]},"properties":{"pnu":"4117110100107600001","municipality_code":"41170","municipality":"안양시","district":"안양시 만안구","locality":"안양동","address":"안양시 만안구 안양동 760-1","owner_type":"경기도유지","owner_label":"경기도","manager":"건설국 하천과","property_class":"행정재산","land_category":"대","area_sqm":294.0,"area_band":"100~500㎡","interest_category":"대","solar_candidate":"검토필요","candidate_reason":"청사·공공건축물·주차장 현황 추가 확인 필요; 면적 294㎡","priority_score":40,"source":"경기부동산포털 국공유지조회·연속지적도","source_date":"2026-08-11","installed_solar_match":false}},{"type":"Feature","id":"4117310400101720005","geometry":{"type":"Point","coordinates":[126.9455936,37.3771012]},"properties":{"pnu":"4117310400101720005","municipality_code":"41170","municipality":"안양시","district":"안양시 동안구","locality":"호계동","address":"안양시 동안구 호계동 172-5","owner_type":"경기도유지","owner_label":"경기도","manager":"건설국 도로정책과","property_class":"행정재산","land_category":"대","area_sqm":285.0,"area_band":"100~500㎡","interest_category":"대","solar_candidate":"검토필요","candidate_reason":"청사·공공건축물·주차장 현황 추가 확인 필요; 면적 285㎡","priority_score":40,"source":"경기부동산포털 국공유지조회·연속지적도","source_date":"2026-08-11","installed_solar_match":false}},{"type":"Feature","id":"4117110100109420003","geometry":{"type":"Point","coordinates":[126.9133432,37.3968826]},"properties":{"pnu":"4117110100109420003","municipality_code":"41170","municipality":"안양시","district":"안양시 만안구","locality":"안양동","address":"안양시 만안구 안양동 942-3","owner_type":"경기도유지","owner_label":"경기도(교육감)","manager":"","property_class":"","land_category":"대","area_sqm":210.5,"area_band":"100~500㎡","interest_category":"대","solar_candidate":"검토필요","candidate_reason":"청사·공공건축물·주차장 현황 추가 확인 필요; 면적 210㎡","priority_score":40,"source":"경기부동산포털 국공유지조회·연속지적도","source_date":"2026-08-11","installed_solar_match":false}},{"type":"Feature","id":"4117310400105860011","geometry":{"type":"Point","coordinates":[126.9462202,37.3741596]},"properties":{"pnu":"4117310400105860011","municipality_code":"41170","municipality":"안양시","district":"안양시 동안구","locality":"호계동","address":"안양시 동안구 호계동 586-11","owner_type":"경기도유지","owner_label":"경기도","manager":"건설국 하천과","property_class":"행정재산","land_category":"대","area_sqm":181.2,"area_band":"100~500㎡","interest_category":"대","solar_candidate":"검토필요","candidate_reason":"청사·공공건축물·주차장 현황 추가 확인 필요; 면적 181㎡","priority_score":40,"source":"경기부동산포털 국공유지조회·연속지적도","source_date":"2026-08-11","installed_solar_match":false}},{"type":"Feature","id":"4117110100107590093","geometry":{"type":"Point","coordinates":[126.9095276,37.3933213]},"properties":{"pnu":"4117110100107590093","municipality_code":"41170","municipality":"안양시","district":"안양시 만안구","locality":"안양동","address":"안양시 만안구 안양동 759-93","owner_type":"경기도유지","owner_label":"경기도","manager":"건설국 하천과","property_class":"행정재산","land_category":"대","area_sqm":173.0,"area_band":"100~500㎡","interest_category":"대","solar_candidate":"검토필요","candidate_reason":"청사·공공건축물·주차장 현황 추가 확인 필요; 면적 173㎡","priority_score":40,"source":"경기부동산포털 국공유지조회·연속지적도","source_date":"2026-08-11","installed_solar_match":false}},{"type":"Feature","id":"4117110100103800015","geometry":{"type":"Point","coordinates":[126.9264319,37.3939624]},"properties":{"pnu":"4117110100103800015","municipality_code":"41170","municipality":"안양시","district":"안양시 만안구","locality":"안양동","address":"안양시 만안구 안양동 380-15","owner_type":"경기도유지","owner_label":"경기도(교육감)","manager":"","property_class":"","land_category":"대","area_sqm":145.1,"area_band":"100~500㎡","interest_category":"대","solar_candidate":"검토필요","candidate_reason":"청사·공공건축물·주차장 현황 추가 확인 필요; 면적 145㎡","priority_score":40,"source":"경기부동산포털 국공유지조회·연속지적도","source_date":"2026-08-11","installed_solar_match":false}},{"type":"Feature","id":"4117110200100950006","geometry":{"type":"Point","coordinates":[126.9119446,37.4222564]},"properties":{"pnu":"4117110200100950006","municipality_code":"41170","municipality":"안양시","district":"안양시 만안구","locality":"석수동","address":"안양시 만안구 석수동 95-6","owner_type":"경기도유지","owner_label":"경기도","manager":"건설국 하천과","property_class":"행정재산","land_category":"대","area_sqm":122.0,"area_band":"100~500㎡","interest_category":"대","solar_candidate":"검토필요","candidate_reason":"청사·공공건축물·주차장 현황 추가 확인 필요; 면적 122㎡","priority_score":40,"source":"경기부동산포털 국공유지조회·연속지적도","source_date":"2026-08-11","installed_solar_match":false}},{"type":"Feature","id":"4117110200100950007","geometry":{"type":"Point","coordinates":[126.9118899,37.4221354]},"properties":{"pnu":"4117110200100950007","municipality_code":"41170","municipality":"안양시","district":"안양시 만안구","locality":"석수동","address":"안양시 만안구 석수동 95-7","owner_type":"경기도유지","owner_label":"경기도","manager":"건설국 하천과","property_class":"행정재산","land_category":"대","area_sqm":106.0,"area_band":"100~500㎡","interest_category":"대","solar_candidate":"검토필요","candidate_reason":"청사·공공건축물·주차장 현황 추가 확인 필요; 면적 106㎡","priority_score":40,"source":"경기부동산포털 국공유지조회·연속지적도","source_date":"2026-08-11","installed_solar_match":false}},{"type":"Feature","id":"4117310400105290006","geometry":{"type":"Point","coordinates":[126.9525559,37.3747746]},"properties":{"pnu":"4117310400105290006","municipality_code":"41170","municipality":"안양시","district":"안양시 동안구","locality":"호계동","address":"안양시 동안구 호계동 529-6","owner_type":"경기도유지","owner_label":"경기도(교육감)","manager":"","property_class":"","land_category":"대","area_sqm":101.7,"area_band":"100~500㎡","interest_category":"대","solar_candidate":"검토필요","candidate_reason":"청사·공공건축물·주차장 현황 추가 확인 필요; 면적 102㎡","priority_score":40,"source":"경기부동산포털 국공유지조회·연속지적도","source_date":"2026-08-11","installed_solar_match":false}}]}