{"type":"FeatureCollection","name":"gyeonggi_41190_province_solar_candidates","metadata":{"generated_on":"2026-08-11","source":"경기부동산포털 국공유지조회·연속지적도","source_agency":"경기도","ownership_source":"경기부동산포털 국공유지조회","coverage":"부천시","owner_code":"4","owner_type":"경기도유지","minimum_area_sqm":100.0,"feature_count":18,"coordinate_reference":"GRIS native values interpreted as EPSG:5174 and projected to EPSG:4326","coordinate_precision":"7 decimals, increased only when needed to keep narrow-parcel points inside","disclaimer":"설치 가능 확정이 아닌 현장조사 우선순위"},"features":[{"type":"Feature","id":"4119610100106270000","geometry":{"type":"Point","coordinates":[126.7902063,37.5259059]},"properties":{"pnu":"4119610100106270000","municipality_code":"41190","municipality":"부천시","district":"부천시 오정구","locality":"오정동","address":"부천시 오정구 오정동 627","owner_type":"경기도유지","owner_label":"경기도","manager":"자치행정국 자산관리과","property_class":"일반재산","land_category":"잡종지","area_sqm":2496.0,"area_band":"1,000~3,000㎡","interest_category":"잡종지","solar_candidate":"Y","candidate_reason":"실제 이용·점유 여부 확인 후 검토할 잡종지; 면적 2,496㎡","priority_score":78,"source":"경기부동산포털 국공유지조회·연속지적도","source_date":"2026-08-11","installed_solar_match":false}},{"type":"Feature","id":"4119610100101610002","geometry":{"type":"Point","coordinates":[126.7928301,37.526279]},"properties":{"pnu":"4119610100101610002","municipality_code":"41190","municipality":"부천시","district":"부천시 오정구","locality":"오정동","address":"부천시 오정구 오정동 161-2","owner_type":"경기도유지","owner_label":"경기도","manager":"자치행정국 자산관리과","property_class":"일반재산","land_category":"잡종지","area_sqm":757.0,"area_band":"500~1,000㎡","interest_category":"잡종지","solar_candidate":"Y","candidate_reason":"실제 이용·점유 여부 확인 후 검토할 잡종지; 면적 757㎡","priority_score":70,"source":"경기부동산포털 국공유지조회·연속지적도","source_date":"2026-08-11","installed_solar_match":false}},{"type":"Feature","id":"4119610100101590005","geometry":{"type":"Point","coordinates":[126.7950701,37.526626]},"properties":{"pnu":"4119610100101590005","municipality_code":"41190","municipality":"부천시","district":"부천시 오정구","locality":"오정동","address":"부천시 오정구 오정동 159-5","owner_type":"경기도유지","owner_label":"경기도","manager":"자치행정국 자산관리과","property_class":"일반재산","land_category":"잡종지","area_sqm":519.0,"area_band":"500~1,000㎡","interest_category":"잡종지","solar_candidate":"Y","candidate_reason":"실제 이용·점유 여부 확인 후 검토할 잡종지; 면적 519㎡","priority_score":70,"source":"경기부동산포털 국공유지조회·연속지적도","source_date":"2026-08-11","installed_solar_match":false}},{"type":"Feature","id":"4119610100101490002","geometry":{"type":"Point","coordinates":[126.7943827,37.5265251]},"properties":{"pnu":"4119610100101490002","municipality_code":"41190","municipality":"부천시","district":"부천시 오정구","locality":"오정동","address":"부천시 오정구 오정동 149-2","owner_type":"경기도유지","owner_label":"경기도","manager":"자치행정국 자산관리과","property_class":"일반재산","land_category":"잡종지","area_sqm":502.0,"area_band":"500~1,000㎡","interest_category":"잡종지","solar_candidate":"Y","candidate_reason":"실제 이용·점유 여부 확인 후 검토할 잡종지; 면적 502㎡","priority_score":70,"source":"경기부동산포털 국공유지조회·연속지적도","source_date":"2026-08-11","installed_solar_match":false}},{"type":"Feature","id":"4119210800110310000","geometry":{"type":"Point","coordinates":[126.7613691,37.5058053]},"properties":{"pnu":"4119210800110310000","municipality_code":"41190","municipality":"부천시","district":"부천시 원미구","locality":"중동","address":"부천시 원미구 중동 1031","owner_type":"경기도유지","owner_label":"경기도(교육감)","manager":"","property_class":"","land_category":"대","area_sqm":16782.0,"area_band":"5,000㎡ 이상","interest_category":"대","solar_candidate":"Y","candidate_reason":"청사·공공건축물·주차장 현황 추가 확인 필요; 면적 16,782㎡","priority_score":65,"source":"경기부동산포털 국공유지조회·연속지적도","source_date":"2026-08-11","installed_solar_match":true,"installed_solar_count":2,"installed_solar_area_sqm":168.9,"installed_solar_analysis_years":["2024"],"installed_solar_types":["공공시설물"],"installed_solar_permit_status_counts":{"N":2}}},{"type":"Feature","id":"4119610100104280048","geometry":{"type":"Point","coordinates":[126.7774559,37.527465]},"properties":{"pnu":"4119610100104280048","municipality_code":"41190","municipality":"부천시","district":"부천시 오정구","locality":"오정동","address":"부천시 오정구 오정동 428-48","owner_type":"경기도유지","owner_label":"경기도","manager":"소방재난본부 회계장비담당관","property_class":"행정재산","land_category":"대","area_sqm":7739.0,"area_band":"5,000㎡ 이상","interest_category":"대","solar_candidate":"Y","candidate_reason":"청사·공공건축물·주차장 현황 추가 확인 필요; 면적 7,739㎡","priority_score":65,"source":"경기부동산포털 국공유지조회·연속지적도","source_date":"2026-08-11","installed_solar_match":false}},{"type":"Feature","id":"4119210800112180000","geometry":{"type":"Point","coordinates":[126.77788,37.4937167]},"properties":{"pnu":"4119210800112180000","municipality_code":"41190","municipality":"부천시","district":"부천시 원미구","locality":"중동","address":"부천시 원미구 중동 1218","owner_type":"경기도유지","owner_label":"경기도","manager":"소방재난본부 회계장비담당관","property_class":"행정재산","land_category":"대","area_sqm":7070.0,"area_band":"5,000㎡ 이상","interest_category":"대","solar_candidate":"Y","candidate_reason":"청사·공공건축물·주차장 현황 추가 확인 필요; 면적 7,070㎡","priority_score":65,"source":"경기부동산포털 국공유지조회·연속지적도","source_date":"2026-08-11","installed_solar_match":false}},{"type":"Feature","id":"4119210800110510009","geometry":{"type":"Point","coordinates":[126.773561,37.5074726]},"properties":{"pnu":"4119210800110510009","municipality_code":"41190","municipality":"부천시","district":"부천시 원미구","locality":"중동","address":"부천시 원미구 중동 1051-9","owner_type":"경기도유지","owner_label":"경기도(교육감)","manager":"","property_class":"","land_category":"대","area_sqm":6630.3,"area_band":"5,000㎡ 이상","interest_category":"대","solar_candidate":"Y","candidate_reason":"청사·공공건축물·주차장 현황 추가 확인 필요; 면적 6,630㎡","priority_score":65,"source":"경기부동산포털 국공유지조회·연속지적도","source_date":"2026-08-11","installed_solar_match":true,"installed_solar_count":5,"installed_solar_area_sqm":470.3,"installed_solar_analysis_years":["2024"],"installed_solar_types":["공공시설물"],"installed_solar_permit_status_counts":{"N":5}}},{"type":"Feature","id":"4119610100106290000","geometry":{"type":"Point","coordinates":[126.7883153,37.5256132]},"properties":{"pnu":"4119610100106290000","municipality_code":"41190","municipality":"부천시","district":"부천시 오정구","locality":"오정동","address":"부천시 오정구 오정동 629","owner_type":"경기도유지","owner_label":"경기도","manager":"자치행정국 자산관리과","property_class":"일반재산","land_category":"잡종지","area_sqm":403.0,"area_band":"100~500㎡","interest_category":"잡종지","solar_candidate":"Y","candidate_reason":"실제 이용·점유 여부 확인 후 검토할 잡종지; 면적 403㎡","priority_score":65,"source":"경기부동산포털 국공유지조회·연속지적도","source_date":"2026-08-11","installed_solar_match":false}},{"type":"Feature","id":"4119610100106330000","geometry":{"type":"Point","coordinates":[126.7874951,37.5254824]},"properties":{"pnu":"4119610100106330000","municipality_code":"41190","municipality":"부천시","district":"부천시 오정구","locality":"오정동","address":"부천시 오정구 오정동 633","owner_type":"경기도유지","owner_label":"경기도","manager":"자치행정국 자산관리과","property_class":"일반재산","land_category":"잡종지","area_sqm":246.0,"area_band":"100~500㎡","interest_category":"잡종지","solar_candidate":"Y","candidate_reason":"실제 이용·점유 여부 확인 후 검토할 잡종지; 면적 246㎡","priority_score":65,"source":"경기부동산포털 국공유지조회·연속지적도","source_date":"2026-08-11","installed_solar_match":false}},{"type":"Feature","id":"4119610100106520000","geometry":{"type":"Point","coordinates":[126.7878676,37.5255487]},"properties":{"pnu":"4119610100106520000","municipality_code":"41190","municipality":"부천시","district":"부천시 오정구","locality":"오정동","address":"부천시 오정구 오정동 652","owner_type":"경기도유지","owner_label":"경기도","manager":"자치행정국 자산관리과","property_class":"일반재산","land_category":"잡종지","area_sqm":235.0,"area_band":"100~500㎡","interest_category":"잡종지","solar_candidate":"Y","candidate_reason":"실제 이용·점유 여부 확인 후 검토할 잡종지; 면적 235㎡","priority_score":65,"source":"경기부동산포털 국공유지조회·연속지적도","source_date":"2026-08-11","installed_solar_match":false}},{"type":"Feature","id":"4119410300101550003","geometry":{"type":"Point","coordinates":[126.8094551,37.4705706]},"properties":{"pnu":"4119410300101550003","municipality_code":"41190","municipality":"부천시","district":"부천시 소사구","locality":"범박동","address":"부천시 소사구 범박동 155-3","owner_type":"경기도유지","owner_label":"경기도","manager":"소방재난본부 회계장비담당관","property_class":"행정재산","land_category":"대","area_sqm":1386.0,"area_band":"1,000~3,000㎡","interest_category":"대","solar_candidate":"검토필요","candidate_reason":"청사·공공건축물·주차장 현황 추가 확인 필요; 면적 1,386㎡","priority_score":53,"source":"경기부동산포털 국공유지조회·연속지적도","source_date":"2026-08-11","installed_solar_match":false}},{"type":"Feature","id":"4119610200103290000","geometry":{"type":"Point","coordinates":[126.8053946,37.511369]},"properties":{"pnu":"4119610200103290000","municipality_code":"41190","municipality":"부천시","district":"부천시 오정구","locality":"여월동","address":"부천시 오정구 여월동 329","owner_type":"경기도유지","owner_label":"경기도","manager":"소방재난본부 회계장비담당관","property_class":"행정재산","land_category":"대","area_sqm":1241.0,"area_band":"1,000~3,000㎡","interest_category":"대","solar_candidate":"검토필요","candidate_reason":"청사·공공건축물·주차장 현황 추가 확인 필요; 면적 1,241㎡","priority_score":53,"source":"경기부동산포털 국공유지조회·연속지적도","source_date":"2026-08-11","installed_solar_match":false}},{"type":"Feature","id":"4119210900103940003","geometry":{"type":"Point","coordinates":[126.7545615,37.4943141]},"properties":{"pnu":"4119210900103940003","municipality_code":"41190","municipality":"부천시","district":"부천시 원미구","locality":"상동","address":"부천시 원미구 상동 394-3","owner_type":"경기도유지","owner_label":"경기도","manager":"소방재난본부 회계장비담당관","property_class":"행정재산","land_category":"대","area_sqm":1200.9,"area_band":"1,000~3,000㎡","interest_category":"대","solar_candidate":"검토필요","candidate_reason":"청사·공공건축물·주차장 현황 추가 확인 필요; 면적 1,201㎡","priority_score":53,"source":"경기부동산포털 국공유지조회·연속지적도","source_date":"2026-08-11","installed_solar_match":false}},{"type":"Feature","id":"4119210800110400003","geometry":{"type":"Point","coordinates":[126.7676906,37.5079396]},"properties":{"pnu":"4119210800110400003","municipality_code":"41190","municipality":"부천시","district":"부천시 원미구","locality":"중동","address":"부천시 원미구 중동 1040-3","owner_type":"경기도유지","owner_label":"경기도","manager":"소방재난본부 회계장비담당관","property_class":"행정재산","land_category":"대","area_sqm":1200.0,"area_band":"1,000~3,000㎡","interest_category":"대","solar_candidate":"검토필요","candidate_reason":"청사·공공건축물·주차장 현황 추가 확인 필요; 면적 1,200㎡","priority_score":53,"source":"경기부동산포털 국공유지조회·연속지적도","source_date":"2026-08-11","installed_solar_match":false}},{"type":"Feature","id":"4119210900105280004","geometry":{"type":"Point","coordinates":[126.7515447,37.5081224]},"properties":{"pnu":"4119210900105280004","municipality_code":"41190","municipality":"부천시","district":"부천시 원미구","locality":"상동","address":"부천시 원미구 상동 528-4","owner_type":"경기도유지","owner_label":"경기도","manager":"소방재난본부 회계장비담당관","property_class":"행정재산","land_category":"대","area_sqm":1200.0,"area_band":"1,000~3,000㎡","interest_category":"대","solar_candidate":"검토필요","candidate_reason":"청사·공공건축물·주차장 현황 추가 확인 필요; 면적 1,200㎡","priority_score":53,"source":"경기부동산포털 국공유지조회·연속지적도","source_date":"2026-08-11","installed_solar_match":false}},{"type":"Feature","id":"4119410100200600006","geometry":{"type":"Point","coordinates":[126.7917686,37.4659863]},"properties":{"pnu":"4119410100200600006","municipality_code":"41190","municipality":"부천시","district":"부천시 소사구","locality":"소사본동","address":"부천시 소사구 소사본동 산60-6","owner_type":"경기도유지","owner_label":"경기도","manager":"건설국 도로정책과","property_class":"행정재산","land_category":"도로","area_sqm":7975.0,"area_band":"5,000㎡ 이상","interest_category":"도로","solar_candidate":"검토필요","candidate_reason":"도로점용 및 실제 이용형태 추가 검토 필요; 면적 7,975㎡","priority_score":40,"source":"경기부동산포털 국공유지조회·연속지적도","source_date":"2026-08-11","installed_solar_match":false}},{"type":"Feature","id":"4119210500100330002","geometry":{"type":"Point","coordinates":[126.7648983,37.5141338]},"properties":{"pnu":"4119210500100330002","municipality_code":"41190","municipality":"부천시","district":"부천시 원미구","locality":"약대동","address":"부천시 원미구 약대동 33-2","owner_type":"경기도유지","owner_label":"경기도(교육감)","manager":"","property_class":"","land_category":"대","area_sqm":149.1,"area_band":"100~500㎡","interest_category":"대","solar_candidate":"검토필요","candidate_reason":"청사·공공건축물·주차장 현황 추가 확인 필요; 면적 149㎡","priority_score":40,"source":"경기부동산포털 국공유지조회·연속지적도","source_date":"2026-08-11","installed_solar_match":false}}]}