{"type":"FeatureCollection","name":"gyeonggi_41210_province_solar_candidates","metadata":{"generated_on":"2026-08-11","source":"경기부동산포털 국공유지조회·연속지적도","source_agency":"경기도","ownership_source":"경기부동산포털 국공유지조회","coverage":"광명시","owner_code":"4","owner_type":"경기도유지","minimum_area_sqm":100.0,"feature_count":32,"coordinate_reference":"GRIS native values interpreted as EPSG:5174 and projected to EPSG:4326","coordinate_precision":"7 decimals, increased only when needed to keep narrow-parcel points inside","disclaimer":"설치 가능 확정이 아닌 현장조사 우선순위"},"features":[{"type":"Feature","id":"4121010400113360000","geometry":{"type":"Point","coordinates":[126.8851617,37.4485933]},"properties":{"pnu":"4121010400113360000","municipality_code":"41210","municipality":"광명시","district":"광명시","locality":"소하동","address":"광명시 소하동 1336","owner_type":"경기도유지","owner_label":"경기도","manager":"소방재난본부 회계장비담당관","property_class":"행정재산","land_category":"대","area_sqm":8265.0,"area_band":"5,000㎡ 이상","interest_category":"대","solar_candidate":"Y","candidate_reason":"청사·공공건축물·주차장 현황 추가 확인 필요; 면적 8,265㎡","priority_score":65,"source":"경기부동산포털 국공유지조회·연속지적도","source_date":"2026-08-11","installed_solar_match":true,"installed_solar_count":2,"installed_solar_area_sqm":322.8,"installed_solar_analysis_years":["2024"],"installed_solar_types":["공공시설물"],"installed_solar_permit_status_counts":{"N":2}}},{"type":"Feature","id":"4121010400112830001","geometry":{"type":"Point","coordinates":[126.8818223,37.4555508]},"properties":{"pnu":"4121010400112830001","municipality_code":"41210","municipality":"광명시","district":"광명시","locality":"소하동","address":"광명시 소하동 1283-1","owner_type":"경기도유지","owner_label":"경기도(교육감)","manager":"","property_class":"","land_category":"대","area_sqm":4799.9,"area_band":"3,000~5,000㎡","interest_category":"대","solar_candidate":"Y","candidate_reason":"청사·공공건축물·주차장 현황 추가 확인 필요; 면적 4,800㎡","priority_score":60,"source":"경기부동산포털 국공유지조회·연속지적도","source_date":"2026-08-11","installed_solar_match":true,"installed_solar_count":4,"installed_solar_area_sqm":605.0,"installed_solar_analysis_years":["2024"],"installed_solar_types":["공공시설물"],"installed_solar_permit_status_counts":{"N":4}}},{"type":"Feature","id":"4121010100103840007","geometry":{"type":"Point","coordinates":[126.8481877,37.4698535]},"properties":{"pnu":"4121010100103840007","municipality_code":"41210","municipality":"광명시","district":"광명시","locality":"광명동","address":"광명시 광명동 384-7","owner_type":"경기도유지","owner_label":"경기도(교육감)","manager":"","property_class":"","land_category":"대","area_sqm":3884.0,"area_band":"3,000~5,000㎡","interest_category":"대","solar_candidate":"Y","candidate_reason":"청사·공공건축물·주차장 현황 추가 확인 필요; 면적 3,884㎡","priority_score":60,"source":"경기부동산포털 국공유지조회·연속지적도","source_date":"2026-08-11","installed_solar_match":false}},{"type":"Feature","id":"4121010100106790076","geometry":{"type":"Point","coordinates":[126.8472515,37.4811767]},"properties":{"pnu":"4121010100106790076","municipality_code":"41210","municipality":"광명시","district":"광명시","locality":"광명동","address":"광명시 광명동 679-76","owner_type":"경기도유지","owner_label":"경기도","manager":"도시주택실 도시재생과","property_class":"일반재산","land_category":"대","area_sqm":309.0,"area_band":"100~500㎡","interest_category":"대","solar_candidate":"검토필요","candidate_reason":"청사·공공건축물·주차장 현황 추가 확인 필요; 면적 309㎡","priority_score":55,"source":"경기부동산포털 국공유지조회·연속지적도","source_date":"2026-08-11","installed_solar_match":false}},{"type":"Feature","id":"4121010100101580961","geometry":{"type":"Point","coordinates":[126.8543941,37.4795043]},"properties":{"pnu":"4121010100101580961","municipality_code":"41210","municipality":"광명시","district":"광명시","locality":"광명동","address":"광명시 광명동 158-961","owner_type":"경기도유지","owner_label":"경기도","manager":"건설국 도로정책과","property_class":"행정재산","land_category":"도로","area_sqm":25865.1,"area_band":"5,000㎡ 이상","interest_category":"도로","solar_candidate":"검토필요","candidate_reason":"도로점용 및 실제 이용형태 추가 검토 필요; 면적 25,865㎡","priority_score":40,"source":"경기부동산포털 국공유지조회·연속지적도","source_date":"2026-08-11","installed_solar_match":false}},{"type":"Feature","id":"4121010100101580232","geometry":{"type":"Point","coordinates":[126.851011,37.4804013]},"properties":{"pnu":"4121010100101580232","municipality_code":"41210","municipality":"광명시","district":"광명시","locality":"광명동","address":"광명시 광명동 158-232","owner_type":"경기도유지","owner_label":"경기도","manager":"건설국 도로정책과","property_class":"행정재산","land_category":"도로","area_sqm":20303.1,"area_band":"5,000㎡ 이상","interest_category":"도로","solar_candidate":"검토필요","candidate_reason":"도로점용 및 실제 이용형태 추가 검토 필요; 면적 20,303㎡","priority_score":40,"source":"경기부동산포털 국공유지조회·연속지적도","source_date":"2026-08-11","installed_solar_match":false}},{"type":"Feature","id":"4121010100100110159","geometry":{"type":"Point","coordinates":[126.8635428,37.4906027]},"properties":{"pnu":"4121010100100110159","municipality_code":"41210","municipality":"광명시","district":"광명시","locality":"광명동","address":"광명시 광명동 11-159","owner_type":"경기도유지","owner_label":"경기도","manager":"건설국 도로정책과","property_class":"행정재산","land_category":"도로","area_sqm":19956.6,"area_band":"5,000㎡ 이상","interest_category":"도로","solar_candidate":"검토필요","candidate_reason":"도로점용 및 실제 이용형태 추가 검토 필요; 면적 19,957㎡","priority_score":40,"source":"경기부동산포털 국공유지조회·연속지적도","source_date":"2026-08-11","installed_solar_match":false}},{"type":"Feature","id":"4121010100101581583","geometry":{"type":"Point","coordinates":[126.8570108,37.4772416]},"properties":{"pnu":"4121010100101581583","municipality_code":"41210","municipality":"광명시","district":"광명시","locality":"광명동","address":"광명시 광명동 158-1583","owner_type":"경기도유지","owner_label":"경기도","manager":"건설국 도로정책과","property_class":"행정재산","land_category":"도로","area_sqm":19526.9,"area_band":"5,000㎡ 이상","interest_category":"도로","solar_candidate":"검토필요","candidate_reason":"도로점용 및 실제 이용형태 추가 검토 필요; 면적 19,527㎡","priority_score":40,"source":"경기부동산포털 국공유지조회·연속지적도","source_date":"2026-08-11","installed_solar_match":false}},{"type":"Feature","id":"4121010100101580186","geometry":{"type":"Point","coordinates":[126.8563126,37.4843983]},"properties":{"pnu":"4121010100101580186","municipality_code":"41210","municipality":"광명시","district":"광명시","locality":"광명동","address":"광명시 광명동 158-186","owner_type":"경기도유지","owner_label":"경기도","manager":"건설국 도로정책과","property_class":"행정재산","land_category":"도로","area_sqm":18715.9,"area_band":"5,000㎡ 이상","interest_category":"도로","solar_candidate":"검토필요","candidate_reason":"도로점용 및 실제 이용형태 추가 검토 필요; 면적 18,716㎡","priority_score":40,"source":"경기부동산포털 국공유지조회·연속지적도","source_date":"2026-08-11","installed_solar_match":false}},{"type":"Feature","id":"4121010100101580962","geometry":{"type":"Point","coordinates":[126.8592686,37.4837789]},"properties":{"pnu":"4121010100101580962","municipality_code":"41210","municipality":"광명시","district":"광명시","locality":"광명동","address":"광명시 광명동 158-962","owner_type":"경기도유지","owner_label":"경기도","manager":"건설국 도로정책과","property_class":"행정재산","land_category":"도로","area_sqm":17758.9,"area_band":"5,000㎡ 이상","interest_category":"도로","solar_candidate":"검토필요","candidate_reason":"도로점용 및 실제 이용형태 추가 검토 필요; 면적 17,759㎡","priority_score":40,"source":"경기부동산포털 국공유지조회·연속지적도","source_date":"2026-08-11","installed_solar_match":false}},{"type":"Feature","id":"4121010100101581577","geometry":{"type":"Point","coordinates":[126.8601388,37.4806818]},"properties":{"pnu":"4121010100101581577","municipality_code":"41210","municipality":"광명시","district":"광명시","locality":"광명동","address":"광명시 광명동 158-1577","owner_type":"경기도유지","owner_label":"경기도","manager":"건설국 도로정책과","property_class":"행정재산","land_category":"도로","area_sqm":16122.3,"area_band":"5,000㎡ 이상","interest_category":"도로","solar_candidate":"검토필요","candidate_reason":"도로점용 및 실제 이용형태 추가 검토 필요; 면적 16,122㎡","priority_score":40,"source":"경기부동산포털 국공유지조회·연속지적도","source_date":"2026-08-11","installed_solar_match":false}},{"type":"Feature","id":"4121010100101581575","geometry":{"type":"Point","coordinates":[126.8572497,37.4798877]},"properties":{"pnu":"4121010100101581575","municipality_code":"41210","municipality":"광명시","district":"광명시","locality":"광명동","address":"광명시 광명동 158-1575","owner_type":"경기도유지","owner_label":"경기도","manager":"건설국 도로정책과","property_class":"행정재산","land_category":"도로","area_sqm":14193.5,"area_band":"5,000㎡ 이상","interest_category":"도로","solar_candidate":"검토필요","candidate_reason":"도로점용 및 실제 이용형태 추가 검토 필요; 면적 14,194㎡","priority_score":40,"source":"경기부동산포털 국공유지조회·연속지적도","source_date":"2026-08-11","installed_solar_match":false}},{"type":"Feature","id":"4121010100107920001","geometry":{"type":"Point","coordinates":[126.8637988,37.4865966]},"properties":{"pnu":"4121010100107920001","municipality_code":"41210","municipality":"광명시","district":"광명시","locality":"광명동","address":"광명시 광명동 792-1","owner_type":"경기도유지","owner_label":"경기도","manager":"건설국 도로정책과","property_class":"행정재산","land_category":"도로","area_sqm":10560.3,"area_band":"5,000㎡ 이상","interest_category":"도로","solar_candidate":"검토필요","candidate_reason":"도로점용 및 실제 이용형태 추가 검토 필요; 면적 10,560㎡","priority_score":40,"source":"경기부동산포털 국공유지조회·연속지적도","source_date":"2026-08-11","installed_solar_match":false}},{"type":"Feature","id":"4121010200104670519","geometry":{"type":"Point","coordinates":[126.862613,37.4748588]},"properties":{"pnu":"4121010200104670519","municipality_code":"41210","municipality":"광명시","district":"광명시","locality":"철산동","address":"광명시 철산동 467-519","owner_type":"경기도유지","owner_label":"경기도","manager":"건설국 도로정책과","property_class":"행정재산","land_category":"도로","area_sqm":8175.8,"area_band":"5,000㎡ 이상","interest_category":"도로","solar_candidate":"검토필요","candidate_reason":"도로점용 및 실제 이용형태 추가 검토 필요; 면적 8,176㎡","priority_score":40,"source":"경기부동산포털 국공유지조회·연속지적도","source_date":"2026-08-11","installed_solar_match":false}},{"type":"Feature","id":"4121010700105590005","geometry":{"type":"Point","coordinates":[126.8501981,37.4143559]},"properties":{"pnu":"4121010700105590005","municipality_code":"41210","municipality":"광명시","district":"광명시","locality":"가학동","address":"광명시 가학동 559-5","owner_type":"경기도유지","owner_label":"경기도","manager":"건설국 도로정책과","property_class":"행정재산","land_category":"도로","area_sqm":6815.0,"area_band":"5,000㎡ 이상","interest_category":"도로","solar_candidate":"검토필요","candidate_reason":"도로점용 및 실제 이용형태 추가 검토 필요; 면적 6,815㎡","priority_score":40,"source":"경기부동산포털 국공유지조회·연속지적도","source_date":"2026-08-11","installed_solar_match":false}},{"type":"Feature","id":"4121010100100440001","geometry":{"type":"Point","coordinates":[126.8585596,37.4854266]},"properties":{"pnu":"4121010100100440001","municipality_code":"41210","municipality":"광명시","district":"광명시","locality":"광명동","address":"광명시 광명동 44-1","owner_type":"경기도유지","owner_label":"경기도","manager":"소방재난본부 회계장비담당관","property_class":"행정재산","land_category":"대","area_sqm":295.9,"area_band":"100~500㎡","interest_category":"대","solar_candidate":"검토필요","candidate_reason":"청사·공공건축물·주차장 현황 추가 확인 필요; 면적 296㎡","priority_score":40,"source":"경기부동산포털 국공유지조회·연속지적도","source_date":"2026-08-11","installed_solar_match":false}},{"type":"Feature","id":"4121010100101581589","geometry":{"type":"Point","coordinates":[126.8595593,37.4853607]},"properties":{"pnu":"4121010100101581589","municipality_code":"41210","municipality":"광명시","district":"광명시","locality":"광명동","address":"광명시 광명동 158-1589","owner_type":"경기도유지","owner_label":"경기도","manager":"건설국 도로정책과","property_class":"행정재산","land_category":"도로","area_sqm":4973.8,"area_band":"3,000~5,000㎡","interest_category":"도로","solar_candidate":"검토필요","candidate_reason":"도로점용 및 실제 이용형태 추가 검토 필요; 면적 4,974㎡","priority_score":35,"source":"경기부동산포털 국공유지조회·연속지적도","source_date":"2026-08-11","installed_solar_match":false}},{"type":"Feature","id":"4121010100101581591","geometry":{"type":"Point","coordinates":[126.8615937,37.485663]},"properties":{"pnu":"4121010100101581591","municipality_code":"41210","municipality":"광명시","district":"광명시","locality":"광명동","address":"광명시 광명동 158-1591","owner_type":"경기도유지","owner_label":"경기도","manager":"건설국 도로정책과","property_class":"행정재산","land_category":"도로","area_sqm":4500.3,"area_band":"3,000~5,000㎡","interest_category":"도로","solar_candidate":"검토필요","candidate_reason":"도로점용 및 실제 이용형태 추가 검토 필요; 면적 4,500㎡","priority_score":35,"source":"경기부동산포털 국공유지조회·연속지적도","source_date":"2026-08-11","installed_solar_match":false}},{"type":"Feature","id":"4121010100100110158","geometry":{"type":"Point","coordinates":[126.8597379,37.4862867]},"properties":{"pnu":"4121010100100110158","municipality_code":"41210","municipality":"광명시","district":"광명시","locality":"광명동","address":"광명시 광명동 11-158","owner_type":"경기도유지","owner_label":"경기도","manager":"건설국 도로정책과","property_class":"행정재산","land_category":"도로","area_sqm":4122.8,"area_band":"3,000~5,000㎡","interest_category":"도로","solar_candidate":"검토필요","candidate_reason":"도로점용 및 실제 이용형태 추가 검토 필요; 면적 4,123㎡","priority_score":35,"source":"경기부동산포털 국공유지조회·연속지적도","source_date":"2026-08-11","installed_solar_match":true,"installed_solar_count":1,"installed_solar_area_sqm":78.4,"installed_solar_analysis_years":["2024"],"installed_solar_types":["공동주택"],"installed_solar_permit_status_counts":{"N":1}}},{"type":"Feature","id":"4121010100100110196","geometry":{"type":"Point","coordinates":[126.860726,37.4872675]},"properties":{"pnu":"4121010100100110196","municipality_code":"41210","municipality":"광명시","district":"광명시","locality":"광명동","address":"광명시 광명동 11-196","owner_type":"경기도유지","owner_label":"경기도","manager":"건설국 도로정책과","property_class":"행정재산","land_category":"도로","area_sqm":4087.8,"area_band":"3,000~5,000㎡","interest_category":"도로","solar_candidate":"검토필요","candidate_reason":"도로점용 및 실제 이용형태 추가 검토 필요; 면적 4,088㎡","priority_score":35,"source":"경기부동산포털 국공유지조회·연속지적도","source_date":"2026-08-11","installed_solar_match":false}},{"type":"Feature","id":"4121010500109400001","geometry":{"type":"Point","coordinates":[126.845948,37.4244469]},"properties":{"pnu":"4121010500109400001","municipality_code":"41210","municipality":"광명시","district":"광명시","locality":"노온사동","address":"광명시 노온사동 940-1","owner_type":"경기도유지","owner_label":"경기도","manager":"건설국 도로정책과","property_class":"행정재산","land_category":"도로","area_sqm":4083.0,"area_band":"3,000~5,000㎡","interest_category":"도로","solar_candidate":"검토필요","candidate_reason":"도로점용 및 실제 이용형태 추가 검토 필요; 면적 4,083㎡","priority_score":35,"source":"경기부동산포털 국공유지조회·연속지적도","source_date":"2026-08-11","installed_solar_match":false}},{"type":"Feature","id":"4121010100101580914","geometry":{"type":"Point","coordinates":[126.8524457,37.4795814]},"properties":{"pnu":"4121010100101580914","municipality_code":"41210","municipality":"광명시","district":"광명시","locality":"광명동","address":"광명시 광명동 158-914","owner_type":"경기도유지","owner_label":"경기도","manager":"건설국 도로정책과","property_class":"행정재산","land_category":"도로","area_sqm":4006.0,"area_band":"3,000~5,000㎡","interest_category":"도로","solar_candidate":"검토필요","candidate_reason":"도로점용 및 실제 이용형태 추가 검토 필요; 면적 4,006㎡","priority_score":35,"source":"경기부동산포털 국공유지조회·연속지적도","source_date":"2026-08-11","installed_solar_match":false}},{"type":"Feature","id":"4121010400101350026","geometry":{"type":"Point","coordinates":[126.8813911,37.4525289]},"properties":{"pnu":"4121010400101350026","municipality_code":"41210","municipality":"광명시","district":"광명시","locality":"소하동","address":"광명시 소하동 135-26","owner_type":"경기도유지","owner_label":"경기도","manager":"건설국 도로정책과","property_class":"행정재산","land_category":"도로","area_sqm":3885.0,"area_band":"3,000~5,000㎡","interest_category":"도로","solar_candidate":"검토필요","candidate_reason":"도로점용 및 실제 이용형태 추가 검토 필요; 면적 3,885㎡","priority_score":35,"source":"경기부동산포털 국공유지조회·연속지적도","source_date":"2026-08-11","installed_solar_match":false}},{"type":"Feature","id":"4121010100100110193","geometry":{"type":"Point","coordinates":[126.8619112,37.4868462]},"properties":{"pnu":"4121010100100110193","municipality_code":"41210","municipality":"광명시","district":"광명시","locality":"광명동","address":"광명시 광명동 11-193","owner_type":"경기도유지","owner_label":"경기도","manager":"건설국 도로정책과","property_class":"행정재산","land_category":"도로","area_sqm":3835.2,"area_band":"3,000~5,000㎡","interest_category":"도로","solar_candidate":"검토필요","candidate_reason":"도로점용 및 실제 이용형태 추가 검토 필요; 면적 3,835㎡","priority_score":35,"source":"경기부동산포털 국공유지조회·연속지적도","source_date":"2026-08-11","installed_solar_match":false}},{"type":"Feature","id":"4121010200104670529","geometry":{"type":"Point","coordinates":[126.8617346,37.4749064]},"properties":{"pnu":"4121010200104670529","municipality_code":"41210","municipality":"광명시","district":"광명시","locality":"철산동","address":"광명시 철산동 467-529","owner_type":"경기도유지","owner_label":"경기도","manager":"건설국 도로정책과","property_class":"행정재산","land_category":"도로","area_sqm":3798.9,"area_band":"3,000~5,000㎡","interest_category":"도로","solar_candidate":"검토필요","candidate_reason":"도로점용 및 실제 이용형태 추가 검토 필요; 면적 3,799㎡","priority_score":35,"source":"경기부동산포털 국공유지조회·연속지적도","source_date":"2026-08-11","installed_solar_match":false}},{"type":"Feature","id":"4121010500107350001","geometry":{"type":"Point","coordinates":[126.8457343,37.427973]},"properties":{"pnu":"4121010500107350001","municipality_code":"41210","municipality":"광명시","district":"광명시","locality":"노온사동","address":"광명시 노온사동 735-1","owner_type":"경기도유지","owner_label":"경기도","manager":"건설국 도로정책과","property_class":"행정재산","land_category":"도로","area_sqm":3603.0,"area_band":"3,000~5,000㎡","interest_category":"도로","solar_candidate":"검토필요","candidate_reason":"도로점용 및 실제 이용형태 추가 검토 필요; 면적 3,603㎡","priority_score":35,"source":"경기부동산포털 국공유지조회·연속지적도","source_date":"2026-08-11","installed_solar_match":false}},{"type":"Feature","id":"4121010700104720001","geometry":{"type":"Point","coordinates":[126.8492541,37.4178595]},"properties":{"pnu":"4121010700104720001","municipality_code":"41210","municipality":"광명시","district":"광명시","locality":"가학동","address":"광명시 가학동 472-1","owner_type":"경기도유지","owner_label":"경기도","manager":"건설국 도로정책과","property_class":"행정재산","land_category":"도로","area_sqm":3454.0,"area_band":"3,000~5,000㎡","interest_category":"도로","solar_candidate":"검토필요","candidate_reason":"도로점용 및 실제 이용형태 추가 검토 필요; 면적 3,454㎡","priority_score":35,"source":"경기부동산포털 국공유지조회·연속지적도","source_date":"2026-08-11","installed_solar_match":false}},{"type":"Feature","id":"4121010700103790001","geometry":{"type":"Point","coordinates":[126.8477627,37.422263]},"properties":{"pnu":"4121010700103790001","municipality_code":"41210","municipality":"광명시","district":"광명시","locality":"가학동","address":"광명시 가학동 379-1","owner_type":"경기도유지","owner_label":"경기도","manager":"건설국 도로정책과","property_class":"행정재산","land_category":"도로","area_sqm":3343.0,"area_band":"3,000~5,000㎡","interest_category":"도로","solar_candidate":"검토필요","candidate_reason":"도로점용 및 실제 이용형태 추가 검토 필요; 면적 3,343㎡","priority_score":35,"source":"경기부동산포털 국공유지조회·연속지적도","source_date":"2026-08-11","installed_solar_match":false}},{"type":"Feature","id":"4121010500107360004","geometry":{"type":"Point","coordinates":[126.8453372,37.4262329]},"properties":{"pnu":"4121010500107360004","municipality_code":"41210","municipality":"광명시","district":"광명시","locality":"노온사동","address":"광명시 노온사동 736-4","owner_type":"경기도유지","owner_label":"경기도","manager":"건설국 도로정책과","property_class":"행정재산","land_category":"도로","area_sqm":3290.0,"area_band":"3,000~5,000㎡","interest_category":"도로","solar_candidate":"검토필요","candidate_reason":"도로점용 및 실제 이용형태 추가 검토 필요; 면적 3,290㎡","priority_score":35,"source":"경기부동산포털 국공유지조회·연속지적도","source_date":"2026-08-11","installed_solar_match":false}},{"type":"Feature","id":"4121010500200350003","geometry":{"type":"Point","coordinates":[126.8446757,37.4533968]},"properties":{"pnu":"4121010500200350003","municipality_code":"41210","municipality":"광명시","district":"광명시","locality":"노온사동","address":"광명시 노온사동 산35-3","owner_type":"경기도유지","owner_label":"경기도","manager":"건설국 도로정책과","property_class":"행정재산","land_category":"도로","area_sqm":3110.0,"area_band":"3,000~5,000㎡","interest_category":"도로","solar_candidate":"검토필요","candidate_reason":"도로점용 및 실제 이용형태 추가 검토 필요; 면적 3,110㎡","priority_score":35,"source":"경기부동산포털 국공유지조회·연속지적도","source_date":"2026-08-11","installed_solar_match":false}},{"type":"Feature","id":"4121010400101350011","geometry":{"type":"Point","coordinates":[126.8814458,37.4537167]},"properties":{"pnu":"4121010400101350011","municipality_code":"41210","municipality":"광명시","district":"광명시","locality":"소하동","address":"광명시 소하동 135-11","owner_type":"경기도유지","owner_label":"경기도","manager":"건설국 도로정책과","property_class":"행정재산","land_category":"도로","area_sqm":3064.0,"area_band":"3,000~5,000㎡","interest_category":"도로","solar_candidate":"검토필요","candidate_reason":"도로점용 및 실제 이용형태 추가 검토 필요; 면적 3,064㎡","priority_score":35,"source":"경기부동산포털 국공유지조회·연속지적도","source_date":"2026-08-11","installed_solar_match":false}},{"type":"Feature","id":"4121010100103810028","geometry":{"type":"Point","coordinates":[126.848598,37.4697454]},"properties":{"pnu":"4121010100103810028","municipality_code":"41210","municipality":"광명시","district":"광명시","locality":"광명동","address":"광명시 광명동 381-28","owner_type":"경기도유지","owner_label":"경기도","manager":"건설국 도로정책과","property_class":"행정재산","land_category":"도로","area_sqm":3015.0,"area_band":"3,000~5,000㎡","interest_category":"도로","solar_candidate":"검토필요","candidate_reason":"도로점용 및 실제 이용형태 추가 검토 필요; 면적 3,015㎡","priority_score":35,"source":"경기부동산포털 국공유지조회·연속지적도","source_date":"2026-08-11","installed_solar_match":false}}]}