{"type":"FeatureCollection","name":"gyeonggi_41250_province_solar_candidates","metadata":{"generated_on":"2026-08-11","source":"경기부동산포털 국공유지조회·연속지적도","source_agency":"경기도","ownership_source":"경기부동산포털 국공유지조회","coverage":"동두천시","owner_code":"4","owner_type":"경기도유지","minimum_area_sqm":100.0,"feature_count":41,"coordinate_reference":"GRIS native values interpreted as EPSG:5174 and projected to EPSG:4326","coordinate_precision":"7 decimals, increased only when needed to keep narrow-parcel points inside","disclaimer":"설치 가능 확정이 아닌 현장조사 우선순위"},"features":[{"type":"Feature","id":"4125011100100410005","geometry":{"type":"Point","coordinates":[127.1352331,37.8873416]},"properties":{"pnu":"4125011100100410005","municipality_code":"41250","municipality":"동두천시","district":"동두천시","locality":"탑동동","address":"동두천시 탑동동 41-5","owner_type":"경기도유지","owner_label":"경기도","manager":"건설국 도로정책과","property_class":"행정재산","land_category":"잡종지","area_sqm":5876.0,"area_band":"5,000㎡ 이상","interest_category":"잡종지","solar_candidate":"Y","candidate_reason":"실제 이용·점유 여부 확인 후 검토할 잡종지; 면적 5,876㎡","priority_score":75,"source":"경기부동산포털 국공유지조회·연속지적도","source_date":"2026-08-11","installed_solar_match":false}},{"type":"Feature","id":"4125011200100200004","geometry":{"type":"Point","coordinates":[127.0520941,37.9115569]},"properties":{"pnu":"4125011200100200004","municipality_code":"41250","municipality":"동두천시","district":"동두천시","locality":"상패동","address":"동두천시 상패동 20-4","owner_type":"경기도유지","owner_label":"경기도","manager":"건설국 하천과","property_class":"행정재산","land_category":"잡종지","area_sqm":5078.0,"area_band":"5,000㎡ 이상","interest_category":"잡종지","solar_candidate":"Y","candidate_reason":"실제 이용·점유 여부 확인 후 검토할 잡종지; 면적 5,078㎡","priority_score":75,"source":"경기부동산포털 국공유지조회·연속지적도","source_date":"2026-08-11","installed_solar_match":false}},{"type":"Feature","id":"4125011200100190003","geometry":{"type":"Point","coordinates":[127.0534277,37.9129885]},"properties":{"pnu":"4125011200100190003","municipality_code":"41250","municipality":"동두천시","district":"동두천시","locality":"상패동","address":"동두천시 상패동 19-3","owner_type":"경기도유지","owner_label":"경기도","manager":"건설국 하천과","property_class":"행정재산","land_category":"잡종지","area_sqm":4118.0,"area_band":"3,000~5,000㎡","interest_category":"잡종지","solar_candidate":"Y","candidate_reason":"실제 이용·점유 여부 확인 후 검토할 잡종지; 면적 4,118㎡","priority_score":70,"source":"경기부동산포털 국공유지조회·연속지적도","source_date":"2026-08-11","installed_solar_match":false}},{"type":"Feature","id":"4125011100101400005","geometry":{"type":"Point","coordinates":[127.1361335,37.9009524]},"properties":{"pnu":"4125011100101400005","municipality_code":"41250","municipality":"동두천시","district":"동두천시","locality":"탑동동","address":"동두천시 탑동동 140-5","owner_type":"경기도유지","owner_label":"경기도","manager":"보건건강국 의료자원과","property_class":"행정재산","land_category":"대","area_sqm":8339.0,"area_band":"5,000㎡ 이상","interest_category":"대","solar_candidate":"Y","candidate_reason":"청사·공공건축물·주차장 현황 추가 확인 필요; 면적 8,339㎡","priority_score":65,"source":"경기부동산포털 국공유지조회·연속지적도","source_date":"2026-08-11","installed_solar_match":true,"installed_solar_count":1,"installed_solar_area_sqm":72.4,"installed_solar_analysis_years":["2024"],"installed_solar_types":["기타"],"installed_solar_permit_status_counts":{"N":1}}},{"type":"Feature","id":"4125010200107170000","geometry":{"type":"Point","coordinates":[127.0477105,37.8920663]},"properties":{"pnu":"4125010200107170000","municipality_code":"41250","municipality":"동두천시","district":"동두천시","locality":"지행동","address":"동두천시 지행동 717","owner_type":"경기도유지","owner_label":"경기도","manager":"소방재난본부 회계장비담당관","property_class":"행정재산","land_category":"대","area_sqm":6614.5,"area_band":"5,000㎡ 이상","interest_category":"대","solar_candidate":"Y","candidate_reason":"청사·공공건축물·주차장 현황 추가 확인 필요; 면적 6,614㎡","priority_score":65,"source":"경기부동산포털 국공유지조회·연속지적도","source_date":"2026-08-11","installed_solar_match":false}},{"type":"Feature","id":"4125010200107220011","geometry":{"type":"Point","coordinates":[127.0541699,37.8907731]},"properties":{"pnu":"4125010200107220011","municipality_code":"41250","municipality":"동두천시","district":"동두천시","locality":"지행동","address":"동두천시 지행동 722-11","owner_type":"경기도유지","owner_label":"경기도(교육감)","manager":"","property_class":"","land_category":"대","area_sqm":6600.3,"area_band":"5,000㎡ 이상","interest_category":"대","solar_candidate":"Y","candidate_reason":"청사·공공건축물·주차장 현황 추가 확인 필요; 면적 6,600㎡","priority_score":65,"source":"경기부동산포털 국공유지조회·연속지적도","source_date":"2026-08-11","installed_solar_match":false}},{"type":"Feature","id":"4125011100102140007","geometry":{"type":"Point","coordinates":[127.1209997,37.8911435]},"properties":{"pnu":"4125011100102140007","municipality_code":"41250","municipality":"동두천시","district":"동두천시","locality":"탑동동","address":"동두천시 탑동동 214-7","owner_type":"경기도유지","owner_label":"경기도","manager":"건설국 도로정책과","property_class":"행정재산","land_category":"잡종지","area_sqm":2288.0,"area_band":"1,000~3,000㎡","interest_category":"잡종지","solar_candidate":"Y","candidate_reason":"실제 이용·점유 여부 확인 후 검토할 잡종지; 면적 2,288㎡","priority_score":63,"source":"경기부동산포털 국공유지조회·연속지적도","source_date":"2026-08-11","installed_solar_match":false}},{"type":"Feature","id":"4125011100100400003","geometry":{"type":"Point","coordinates":[127.1357524,37.8869042]},"properties":{"pnu":"4125011100100400003","municipality_code":"41250","municipality":"동두천시","district":"동두천시","locality":"탑동동","address":"동두천시 탑동동 40-3","owner_type":"경기도유지","owner_label":"경기도","manager":"건설국 도로정책과","property_class":"행정재산","land_category":"잡종지","area_sqm":2050.0,"area_band":"1,000~3,000㎡","interest_category":"잡종지","solar_candidate":"Y","candidate_reason":"실제 이용·점유 여부 확인 후 검토할 잡종지; 면적 2,050㎡","priority_score":63,"source":"경기부동산포털 국공유지조회·연속지적도","source_date":"2026-08-11","installed_solar_match":false}},{"type":"Feature","id":"4125011200100090085","geometry":{"type":"Point","coordinates":[127.0543984,37.9146946]},"properties":{"pnu":"4125011200100090085","municipality_code":"41250","municipality":"동두천시","district":"동두천시","locality":"상패동","address":"동두천시 상패동 9-85","owner_type":"경기도유지","owner_label":"경기도","manager":"건설국 하천과","property_class":"행정재산","land_category":"잡종지","area_sqm":1951.0,"area_band":"1,000~3,000㎡","interest_category":"잡종지","solar_candidate":"Y","candidate_reason":"실제 이용·점유 여부 확인 후 검토할 잡종지; 면적 1,951㎡","priority_score":63,"source":"경기부동산포털 국공유지조회·연속지적도","source_date":"2026-08-11","installed_solar_match":false}},{"type":"Feature","id":"4125011100106720007","geometry":{"type":"Point","coordinates":[127.1009357,37.8897992]},"properties":{"pnu":"4125011100106720007","municipality_code":"41250","municipality":"동두천시","district":"동두천시","locality":"탑동동","address":"동두천시 탑동동 672-7","owner_type":"경기도유지","owner_label":"경기도","manager":"건설국 도로정책과","property_class":"행정재산","land_category":"잡종지","area_sqm":1623.0,"area_band":"1,000~3,000㎡","interest_category":"잡종지","solar_candidate":"Y","candidate_reason":"실제 이용·점유 여부 확인 후 검토할 잡종지; 면적 1,623㎡","priority_score":63,"source":"경기부동산포털 국공유지조회·연속지적도","source_date":"2026-08-11","installed_solar_match":false}},{"type":"Feature","id":"4125011100100710004","geometry":{"type":"Point","coordinates":[127.1328328,37.8901436]},"properties":{"pnu":"4125011100100710004","municipality_code":"41250","municipality":"동두천시","district":"동두천시","locality":"탑동동","address":"동두천시 탑동동 71-4","owner_type":"경기도유지","owner_label":"경기도","manager":"건설국 도로정책과","property_class":"행정재산","land_category":"대","area_sqm":3140.0,"area_band":"3,000~5,000㎡","interest_category":"대","solar_candidate":"Y","candidate_reason":"청사·공공건축물·주차장 현황 추가 확인 필요; 면적 3,140㎡","priority_score":60,"source":"경기부동산포털 국공유지조회·연속지적도","source_date":"2026-08-11","installed_solar_match":false}},{"type":"Feature","id":"4125011200110680002","geometry":{"type":"Point","coordinates":[127.0110575,37.9048984]},"properties":{"pnu":"4125011200110680002","municipality_code":"41250","municipality":"동두천시","district":"동두천시","locality":"상패동","address":"동두천시 상패동 1068-2","owner_type":"경기도유지","owner_label":"경기도","manager":"건설국 하천과","property_class":"행정재산","land_category":"잡종지","area_sqm":715.0,"area_band":"500~1,000㎡","interest_category":"잡종지","solar_candidate":"검토필요","candidate_reason":"실제 이용·점유 여부 확인 후 검토할 잡종지; 면적 715㎡","priority_score":55,"source":"경기부동산포털 국공유지조회·연속지적도","source_date":"2026-08-11","installed_solar_match":false}},{"type":"Feature","id":"4125011100100530008","geometry":{"type":"Point","coordinates":[127.1302787,37.8909058]},"properties":{"pnu":"4125011100100530008","municipality_code":"41250","municipality":"동두천시","district":"동두천시","locality":"탑동동","address":"동두천시 탑동동 53-8","owner_type":"경기도유지","owner_label":"경기도","manager":"건설국 도로정책과","property_class":"행정재산","land_category":"대","area_sqm":2492.0,"area_band":"1,000~3,000㎡","interest_category":"대","solar_candidate":"검토필요","candidate_reason":"청사·공공건축물·주차장 현황 추가 확인 필요; 면적 2,492㎡","priority_score":53,"source":"경기부동산포털 국공유지조회·연속지적도","source_date":"2026-08-11","installed_solar_match":false}},{"type":"Feature","id":"4125011000103400004","geometry":{"type":"Point","coordinates":[127.0593368,37.9571088]},"properties":{"pnu":"4125011000103400004","municipality_code":"41250","municipality":"동두천시","district":"동두천시","locality":"하봉암동","address":"동두천시 하봉암동 340-4","owner_type":"경기도유지","owner_label":"경기도","manager":"건설국 하천과","property_class":"행정재산","land_category":"대","area_sqm":2240.0,"area_band":"1,000~3,000㎡","interest_category":"대","solar_candidate":"검토필요","candidate_reason":"청사·공공건축물·주차장 현황 추가 확인 필요; 면적 2,240㎡","priority_score":53,"source":"경기부동산포털 국공유지조회·연속지적도","source_date":"2026-08-11","installed_solar_match":false}},{"type":"Feature","id":"4125011100102090002","geometry":{"type":"Point","coordinates":[127.129876,37.8910749]},"properties":{"pnu":"4125011100102090002","municipality_code":"41250","municipality":"동두천시","district":"동두천시","locality":"탑동동","address":"동두천시 탑동동 209-2","owner_type":"경기도유지","owner_label":"경기도","manager":"건설국 도로정책과","property_class":"행정재산","land_category":"대","area_sqm":1940.0,"area_band":"1,000~3,000㎡","interest_category":"대","solar_candidate":"검토필요","candidate_reason":"청사·공공건축물·주차장 현황 추가 확인 필요; 면적 1,940㎡","priority_score":53,"source":"경기부동산포털 국공유지조회·연속지적도","source_date":"2026-08-11","installed_solar_match":false}},{"type":"Feature","id":"4125011100100650003","geometry":{"type":"Point","coordinates":[127.1348386,37.8884118]},"properties":{"pnu":"4125011100100650003","municipality_code":"41250","municipality":"동두천시","district":"동두천시","locality":"탑동동","address":"동두천시 탑동동 65-3","owner_type":"경기도유지","owner_label":"경기도","manager":"건설국 도로정책과","property_class":"행정재산","land_category":"대","area_sqm":1816.0,"area_band":"1,000~3,000㎡","interest_category":"대","solar_candidate":"검토필요","candidate_reason":"청사·공공건축물·주차장 현황 추가 확인 필요; 면적 1,816㎡","priority_score":53,"source":"경기부동산포털 국공유지조회·연속지적도","source_date":"2026-08-11","installed_solar_match":false}},{"type":"Feature","id":"4125011100100670000","geometry":{"type":"Point","coordinates":[127.134024,37.8890793]},"properties":{"pnu":"4125011100100670000","municipality_code":"41250","municipality":"동두천시","district":"동두천시","locality":"탑동동","address":"동두천시 탑동동 67","owner_type":"경기도유지","owner_label":"경기도","manager":"건설국 도로정책과","property_class":"행정재산","land_category":"대","area_sqm":1442.0,"area_band":"1,000~3,000㎡","interest_category":"대","solar_candidate":"검토필요","candidate_reason":"청사·공공건축물·주차장 현황 추가 확인 필요; 면적 1,442㎡","priority_score":53,"source":"경기부동산포털 국공유지조회·연속지적도","source_date":"2026-08-11","installed_solar_match":false}},{"type":"Feature","id":"4125011200102140002","geometry":{"type":"Point","coordinates":[127.0394226,37.9069437]},"properties":{"pnu":"4125011200102140002","municipality_code":"41250","municipality":"동두천시","district":"동두천시","locality":"상패동","address":"동두천시 상패동 214-2","owner_type":"경기도유지","owner_label":"경기도","manager":"건설국 도로정책과","property_class":"행정재산","land_category":"잡종지","area_sqm":308.0,"area_band":"100~500㎡","interest_category":"잡종지","solar_candidate":"검토필요","candidate_reason":"실제 이용·점유 여부 확인 후 검토할 잡종지; 면적 308㎡","priority_score":50,"source":"경기부동산포털 국공유지조회·연속지적도","source_date":"2026-08-11","installed_solar_match":false}},{"type":"Feature","id":"4125011200110690003","geometry":{"type":"Point","coordinates":[127.0113701,37.905002]},"properties":{"pnu":"4125011200110690003","municipality_code":"41250","municipality":"동두천시","district":"동두천시","locality":"상패동","address":"동두천시 상패동 1069-3","owner_type":"경기도유지","owner_label":"경기도","manager":"건설국 하천과","property_class":"행정재산","land_category":"잡종지","area_sqm":244.0,"area_band":"100~500㎡","interest_category":"잡종지","solar_candidate":"검토필요","candidate_reason":"실제 이용·점유 여부 확인 후 검토할 잡종지; 면적 244㎡","priority_score":50,"source":"경기부동산포털 국공유지조회·연속지적도","source_date":"2026-08-11","installed_solar_match":false}},{"type":"Feature","id":"4125010900103750008","geometry":{"type":"Point","coordinates":[127.0514263,37.9405526]},"properties":{"pnu":"4125010900103750008","municipality_code":"41250","municipality":"동두천시","district":"동두천시","locality":"상봉암동","address":"동두천시 상봉암동 375-8","owner_type":"경기도유지","owner_label":"경기도","manager":"건설국 하천과","property_class":"행정재산","land_category":"잡종지","area_sqm":129.0,"area_band":"100~500㎡","interest_category":"잡종지","solar_candidate":"검토필요","candidate_reason":"실제 이용·점유 여부 확인 후 검토할 잡종지; 면적 129㎡","priority_score":50,"source":"경기부동산포털 국공유지조회·연속지적도","source_date":"2026-08-11","installed_solar_match":false}},{"type":"Feature","id":"4125011000103400005","geometry":{"type":"Point","coordinates":[127.0590713,37.9565746]},"properties":{"pnu":"4125011000103400005","municipality_code":"41250","municipality":"동두천시","district":"동두천시","locality":"하봉암동","address":"동두천시 하봉암동 340-5","owner_type":"경기도유지","owner_label":"경기도","manager":"건설국 하천과","property_class":"행정재산","land_category":"대","area_sqm":939.0,"area_band":"500~1,000㎡","interest_category":"대","solar_candidate":"검토필요","candidate_reason":"청사·공공건축물·주차장 현황 추가 확인 필요; 면적 939㎡","priority_score":45,"source":"경기부동산포털 국공유지조회·연속지적도","source_date":"2026-08-11","installed_solar_match":false}},{"type":"Feature","id":"4125011100100530007","geometry":{"type":"Point","coordinates":[127.1308669,37.8909068]},"properties":{"pnu":"4125011100100530007","municipality_code":"41250","municipality":"동두천시","district":"동두천시","locality":"탑동동","address":"동두천시 탑동동 53-7","owner_type":"경기도유지","owner_label":"경기도","manager":"건설국 도로정책과","property_class":"행정재산","land_category":"대","area_sqm":635.0,"area_band":"500~1,000㎡","interest_category":"대","solar_candidate":"검토필요","candidate_reason":"청사·공공건축물·주차장 현황 추가 확인 필요; 면적 635㎡","priority_score":45,"source":"경기부동산포털 국공유지조회·연속지적도","source_date":"2026-08-11","installed_solar_match":false}},{"type":"Feature","id":"4125011000103290019","geometry":{"type":"Point","coordinates":[127.0594554,37.957577]},"properties":{"pnu":"4125011000103290019","municipality_code":"41250","municipality":"동두천시","district":"동두천시","locality":"하봉암동","address":"동두천시 하봉암동 329-19","owner_type":"경기도유지","owner_label":"경기도","manager":"건설국 하천과","property_class":"행정재산","land_category":"대","area_sqm":551.0,"area_band":"500~1,000㎡","interest_category":"대","solar_candidate":"검토필요","candidate_reason":"청사·공공건축물·주차장 현황 추가 확인 필요; 면적 551㎡","priority_score":45,"source":"경기부동산포털 국공유지조회·연속지적도","source_date":"2026-08-11","installed_solar_match":false}},{"type":"Feature","id":"4125011200100560019","geometry":{"type":"Point","coordinates":[127.0490289,37.9065556]},"properties":{"pnu":"4125011200100560019","municipality_code":"41250","municipality":"동두천시","district":"동두천시","locality":"상패동","address":"동두천시 상패동 56-19","owner_type":"경기도유지","owner_label":"경기도","manager":"건설국 하천과","property_class":"일반재산","land_category":"도로","area_sqm":2375.0,"area_band":"1,000~3,000㎡","interest_category":"도로","solar_candidate":"검토필요","candidate_reason":"도로점용 및 실제 이용형태 추가 검토 필요; 면적 2,375㎡","priority_score":43,"source":"경기부동산포털 국공유지조회·연속지적도","source_date":"2026-08-11","installed_solar_match":false}},{"type":"Feature","id":"4125011200110010001","geometry":{"type":"Point","coordinates":[127.0124132,37.9101847]},"properties":{"pnu":"4125011200110010001","municipality_code":"41250","municipality":"동두천시","district":"동두천시","locality":"상패동","address":"동두천시 상패동 1001-1","owner_type":"경기도유지","owner_label":"경기도","manager":"건설국 도로정책과","property_class":"행정재산","land_category":"도로","area_sqm":6724.0,"area_band":"5,000㎡ 이상","interest_category":"도로","solar_candidate":"검토필요","candidate_reason":"도로점용 및 실제 이용형태 추가 검토 필요; 면적 6,724㎡","priority_score":40,"source":"경기부동산포털 국공유지조회·연속지적도","source_date":"2026-08-11","installed_solar_match":false}},{"type":"Feature","id":"4125011000103290007","geometry":{"type":"Point","coordinates":[127.059536,37.9577349]},"properties":{"pnu":"4125011000103290007","municipality_code":"41250","municipality":"동두천시","district":"동두천시","locality":"하봉암동","address":"동두천시 하봉암동 329-7","owner_type":"경기도유지","owner_label":"경기도","manager":"건설국 하천과","property_class":"행정재산","land_category":"대","area_sqm":365.0,"area_band":"100~500㎡","interest_category":"대","solar_candidate":"검토필요","candidate_reason":"청사·공공건축물·주차장 현황 추가 확인 필요; 면적 365㎡","priority_score":40,"source":"경기부동산포털 국공유지조회·연속지적도","source_date":"2026-08-11","installed_solar_match":false}},{"type":"Feature","id":"4125011100100690001","geometry":{"type":"Point","coordinates":[127.1333988,37.8894876]},"properties":{"pnu":"4125011100100690001","municipality_code":"41250","municipality":"동두천시","district":"동두천시","locality":"탑동동","address":"동두천시 탑동동 69-1","owner_type":"경기도유지","owner_label":"경기도","manager":"건설국 도로정책과","property_class":"행정재산","land_category":"대","area_sqm":337.0,"area_band":"100~500㎡","interest_category":"대","solar_candidate":"검토필요","candidate_reason":"청사·공공건축물·주차장 현황 추가 확인 필요; 면적 337㎡","priority_score":40,"source":"경기부동산포털 국공유지조회·연속지적도","source_date":"2026-08-11","installed_solar_match":false}},{"type":"Feature","id":"4125011000103290006","geometry":{"type":"Point","coordinates":[127.0595786,37.9578595]},"properties":{"pnu":"4125011000103290006","municipality_code":"41250","municipality":"동두천시","district":"동두천시","locality":"하봉암동","address":"동두천시 하봉암동 329-6","owner_type":"경기도유지","owner_label":"경기도","manager":"건설국 하천과","property_class":"행정재산","land_category":"대","area_sqm":306.0,"area_band":"100~500㎡","interest_category":"대","solar_candidate":"검토필요","candidate_reason":"청사·공공건축물·주차장 현황 추가 확인 필요; 면적 306㎡","priority_score":40,"source":"경기부동산포털 국공유지조회·연속지적도","source_date":"2026-08-11","installed_solar_match":false}},{"type":"Feature","id":"4125011100102110005","geometry":{"type":"Point","coordinates":[127.1311056,37.8911379]},"properties":{"pnu":"4125011100102110005","municipality_code":"41250","municipality":"동두천시","district":"동두천시","locality":"탑동동","address":"동두천시 탑동동 211-5","owner_type":"경기도유지","owner_label":"경기도","manager":"건설국 도로정책과","property_class":"행정재산","land_category":"대","area_sqm":282.0,"area_band":"100~500㎡","interest_category":"대","solar_candidate":"검토필요","candidate_reason":"청사·공공건축물·주차장 현황 추가 확인 필요; 면적 282㎡","priority_score":40,"source":"경기부동산포털 국공유지조회·연속지적도","source_date":"2026-08-11","installed_solar_match":false}},{"type":"Feature","id":"4125011000103400002","geometry":{"type":"Point","coordinates":[127.0594367,37.9569002]},"properties":{"pnu":"4125011000103400002","municipality_code":"41250","municipality":"동두천시","district":"동두천시","locality":"하봉암동","address":"동두천시 하봉암동 340-2","owner_type":"경기도유지","owner_label":"경기도","manager":"건설국 도로정책과","property_class":"행정재산","land_category":"대","area_sqm":232.0,"area_band":"100~500㎡","interest_category":"대","solar_candidate":"검토필요","candidate_reason":"청사·공공건축물·주차장 현황 추가 확인 필요; 면적 232㎡","priority_score":40,"source":"경기부동산포털 국공유지조회·연속지적도","source_date":"2026-08-11","installed_solar_match":false}},{"type":"Feature","id":"4125011000103290010","geometry":{"type":"Point","coordinates":[127.0595321,37.9574662]},"properties":{"pnu":"4125011000103290010","municipality_code":"41250","municipality":"동두천시","district":"동두천시","locality":"하봉암동","address":"동두천시 하봉암동 329-10","owner_type":"경기도유지","owner_label":"경기도","manager":"건설국 하천과","property_class":"행정재산","land_category":"대","area_sqm":222.0,"area_band":"100~500㎡","interest_category":"대","solar_candidate":"검토필요","candidate_reason":"청사·공공건축물·주차장 현황 추가 확인 필요; 면적 222㎡","priority_score":40,"source":"경기부동산포털 국공유지조회·연속지적도","source_date":"2026-08-11","installed_solar_match":false}},{"type":"Feature","id":"4125011000103290002","geometry":{"type":"Point","coordinates":[127.0596303,37.9579866]},"properties":{"pnu":"4125011000103290002","municipality_code":"41250","municipality":"동두천시","district":"동두천시","locality":"하봉암동","address":"동두천시 하봉암동 329-2","owner_type":"경기도유지","owner_label":"경기도","manager":"건설국 하천과","property_class":"행정재산","land_category":"대","area_sqm":221.0,"area_band":"100~500㎡","interest_category":"대","solar_candidate":"검토필요","candidate_reason":"청사·공공건축물·주차장 현황 추가 확인 필요; 면적 221㎡","priority_score":40,"source":"경기부동산포털 국공유지조회·연속지적도","source_date":"2026-08-11","installed_solar_match":false}},{"type":"Feature","id":"4125010900101080003","geometry":{"type":"Point","coordinates":[127.0582693,37.9484616]},"properties":{"pnu":"4125010900101080003","municipality_code":"41250","municipality":"동두천시","district":"동두천시","locality":"상봉암동","address":"동두천시 상봉암동 108-3","owner_type":"경기도유지","owner_label":"경기도","manager":"건설국 하천과","property_class":"행정재산","land_category":"대","area_sqm":193.0,"area_band":"100~500㎡","interest_category":"대","solar_candidate":"검토필요","candidate_reason":"청사·공공건축물·주차장 현황 추가 확인 필요; 면적 193㎡","priority_score":40,"source":"경기부동산포털 국공유지조회·연속지적도","source_date":"2026-08-11","installed_solar_match":false}},{"type":"Feature","id":"4125010600104600023","geometry":{"type":"Point","coordinates":[127.0558242,37.9236549]},"properties":{"pnu":"4125010600104600023","municipality_code":"41250","municipality":"동두천시","district":"동두천시","locality":"보산동","address":"동두천시 보산동 460-23","owner_type":"경기도유지","owner_label":"경기도","manager":"건설국 하천과","property_class":"행정재산","land_category":"대","area_sqm":172.0,"area_band":"100~500㎡","interest_category":"대","solar_candidate":"검토필요","candidate_reason":"청사·공공건축물·주차장 현황 추가 확인 필요; 면적 172㎡","priority_score":40,"source":"경기부동산포털 국공유지조회·연속지적도","source_date":"2026-08-11","installed_solar_match":false}},{"type":"Feature","id":"4125011000103290017","geometry":{"type":"Point","coordinates":[127.0593985,37.9578392]},"properties":{"pnu":"4125011000103290017","municipality_code":"41250","municipality":"동두천시","district":"동두천시","locality":"하봉암동","address":"동두천시 하봉암동 329-17","owner_type":"경기도유지","owner_label":"경기도","manager":"건설국 하천과","property_class":"행정재산","land_category":"대","area_sqm":129.0,"area_band":"100~500㎡","interest_category":"대","solar_candidate":"검토필요","candidate_reason":"청사·공공건축물·주차장 현황 추가 확인 필요; 면적 129㎡","priority_score":40,"source":"경기부동산포털 국공유지조회·연속지적도","source_date":"2026-08-11","installed_solar_match":false}},{"type":"Feature","id":"4125010400104710056","geometry":{"type":"Point","coordinates":[127.0818218,37.8986558]},"properties":{"pnu":"4125010400104710056","municipality_code":"41250","municipality":"동두천시","district":"동두천시","locality":"광암동","address":"동두천시 광암동 471-56","owner_type":"경기도유지","owner_label":"경기도","manager":"건설국 하천과","property_class":"행정재산","land_category":"대","area_sqm":126.0,"area_band":"100~500㎡","interest_category":"대","solar_candidate":"검토필요","candidate_reason":"청사·공공건축물·주차장 현황 추가 확인 필요; 면적 126㎡","priority_score":40,"source":"경기부동산포털 국공유지조회·연속지적도","source_date":"2026-08-11","installed_solar_match":false}},{"type":"Feature","id":"4125011200102160007","geometry":{"type":"Point","coordinates":[127.04011,37.9066836]},"properties":{"pnu":"4125011200102160007","municipality_code":"41250","municipality":"동두천시","district":"동두천시","locality":"상패동","address":"동두천시 상패동 216-7","owner_type":"경기도유지","owner_label":"경기도","manager":"건설국 도로정책과","property_class":"행정재산","land_category":"대","area_sqm":107.0,"area_band":"100~500㎡","interest_category":"대","solar_candidate":"검토필요","candidate_reason":"청사·공공건축물·주차장 현황 추가 확인 필요; 면적 107㎡","priority_score":40,"source":"경기부동산포털 국공유지조회·연속지적도","source_date":"2026-08-11","installed_solar_match":false}},{"type":"Feature","id":"4125011200103990006","geometry":{"type":"Point","coordinates":[127.0336276,37.9082971]},"properties":{"pnu":"4125011200103990006","municipality_code":"41250","municipality":"동두천시","district":"동두천시","locality":"상패동","address":"동두천시 상패동 399-6","owner_type":"경기도유지","owner_label":"경기도","manager":"건설국 도로정책과","property_class":"행정재산","land_category":"도로","area_sqm":4474.0,"area_band":"3,000~5,000㎡","interest_category":"도로","solar_candidate":"검토필요","candidate_reason":"도로점용 및 실제 이용형태 추가 검토 필요; 면적 4,474㎡","priority_score":35,"source":"경기부동산포털 국공유지조회·연속지적도","source_date":"2026-08-11","installed_solar_match":false}},{"type":"Feature","id":"4125011200101130009","geometry":{"type":"Point","coordinates":[127.0381729,37.9072141]},"properties":{"pnu":"4125011200101130009","municipality_code":"41250","municipality":"동두천시","district":"동두천시","locality":"상패동","address":"동두천시 상패동 113-9","owner_type":"경기도유지","owner_label":"경기도","manager":"건설국 도로정책과","property_class":"행정재산","land_category":"도로","area_sqm":3180.0,"area_band":"3,000~5,000㎡","interest_category":"도로","solar_candidate":"검토필요","candidate_reason":"도로점용 및 실제 이용형태 추가 검토 필요; 면적 3,180㎡","priority_score":35,"source":"경기부동산포털 국공유지조회·연속지적도","source_date":"2026-08-11","installed_solar_match":false}},{"type":"Feature","id":"4125011200105870007","geometry":{"type":"Point","coordinates":[127.0288044,37.9097201]},"properties":{"pnu":"4125011200105870007","municipality_code":"41250","municipality":"동두천시","district":"동두천시","locality":"상패동","address":"동두천시 상패동 587-7","owner_type":"경기도유지","owner_label":"경기도","manager":"건설국 도로정책과","property_class":"행정재산","land_category":"도로","area_sqm":3101.0,"area_band":"3,000~5,000㎡","interest_category":"도로","solar_candidate":"검토필요","candidate_reason":"도로점용 및 실제 이용형태 추가 검토 필요; 면적 3,101㎡","priority_score":35,"source":"경기부동산포털 국공유지조회·연속지적도","source_date":"2026-08-11","installed_solar_match":false}},{"type":"Feature","id":"4125010700105310047","geometry":{"type":"Point","coordinates":[127.0513989,37.9228715]},"properties":{"pnu":"4125010700105310047","municipality_code":"41250","municipality":"동두천시","district":"동두천시","locality":"동두천동","address":"동두천시 동두천동 531-47","owner_type":"경기도유지","owner_label":"경기도","manager":"건설국 하천과","property_class":"일반재산","land_category":"도로","area_sqm":748.0,"area_band":"500~1,000㎡","interest_category":"도로","solar_candidate":"검토필요","candidate_reason":"도로점용 및 실제 이용형태 추가 검토 필요; 면적 748㎡","priority_score":35,"source":"경기부동산포털 국공유지조회·연속지적도","source_date":"2026-08-11","installed_solar_match":false}}]}