{"type":"FeatureCollection","name":"gyeonggi_41270_province_solar_candidates","metadata":{"generated_on":"2026-08-11","source":"경기부동산포털 국공유지조회·연속지적도","source_agency":"경기도","ownership_source":"경기부동산포털 국공유지조회","coverage":"안산시","owner_code":"4","owner_type":"경기도유지","minimum_area_sqm":100.0,"feature_count":104,"coordinate_reference":"GRIS native values interpreted as EPSG:5174 and projected to EPSG:4326","coordinate_precision":"7 decimals, increased only when needed to keep narrow-parcel points inside","disclaimer":"설치 가능 확정이 아닌 현장조사 우선순위"},"features":[{"type":"Feature","id":"4127311300106490001","geometry":{"type":"Point","coordinates":[126.6280941,37.2283185]},"properties":{"pnu":"4127311300106490001","municipality_code":"41270","municipality":"안산시","district":"안산시 단원구","locality":"선감동","address":"안산시 단원구 선감동 649-1","owner_type":"경기도유지","owner_label":"경기도","manager":"자치행정국 자산관리과","property_class":"일반재산","land_category":"잡종지","area_sqm":8746.0,"area_band":"5,000㎡ 이상","interest_category":"잡종지","solar_candidate":"Y","candidate_reason":"실제 이용·점유 여부 확인 후 검토할 잡종지; 면적 8,746㎡","priority_score":90,"source":"경기부동산포털 국공유지조회·연속지적도","source_date":"2026-08-11","installed_solar_match":false}},{"type":"Feature","id":"4127311300106590001","geometry":{"type":"Point","coordinates":[126.6280987,37.230486]},"properties":{"pnu":"4127311300106590001","municipality_code":"41270","municipality":"안산시","district":"안산시 단원구","locality":"선감동","address":"안산시 단원구 선감동 659-1","owner_type":"경기도유지","owner_label":"경기도","manager":"자치행정국 자산관리과","property_class":"일반재산","land_category":"잡종지","area_sqm":3808.0,"area_band":"3,000~5,000㎡","interest_category":"잡종지","solar_candidate":"Y","candidate_reason":"실제 이용·점유 여부 확인 후 검토할 잡종지; 면적 3,808㎡","priority_score":85,"source":"경기부동산포털 국공유지조회·연속지적도","source_date":"2026-08-11","installed_solar_match":false}},{"type":"Feature","id":"4127311300104600001","geometry":{"type":"Point","coordinates":[126.6289039,37.2286987]},"properties":{"pnu":"4127311300104600001","municipality_code":"41270","municipality":"안산시","district":"안산시 단원구","locality":"선감동","address":"안산시 단원구 선감동 460-1","owner_type":"경기도유지","owner_label":"경기도","manager":"자치행정국 자산관리과","property_class":"일반재산","land_category":"대","area_sqm":12573.0,"area_band":"5,000㎡ 이상","interest_category":"대","solar_candidate":"Y","candidate_reason":"청사·공공건축물·주차장 현황 추가 확인 필요; 면적 12,573㎡","priority_score":80,"source":"경기부동산포털 국공유지조회·연속지적도","source_date":"2026-08-11","installed_solar_match":false}},{"type":"Feature","id":"4127311300106590003","geometry":{"type":"Point","coordinates":[126.6285307,37.2303762]},"properties":{"pnu":"4127311300106590003","municipality_code":"41270","municipality":"안산시","district":"안산시 단원구","locality":"선감동","address":"안산시 단원구 선감동 659-3","owner_type":"경기도유지","owner_label":"경기도","manager":"자치행정국 자산관리과","property_class":"일반재산","land_category":"대","area_sqm":10840.0,"area_band":"5,000㎡ 이상","interest_category":"대","solar_candidate":"Y","candidate_reason":"청사·공공건축물·주차장 현황 추가 확인 필요; 면적 10,840㎡","priority_score":80,"source":"경기부동산포털 국공유지조회·연속지적도","source_date":"2026-08-11","installed_solar_match":false}},{"type":"Feature","id":"4127311300106580003","geometry":{"type":"Point","coordinates":[126.6277739,37.2319741]},"properties":{"pnu":"4127311300106580003","municipality_code":"41270","municipality":"안산시","district":"안산시 단원구","locality":"선감동","address":"안산시 단원구 선감동 658-3","owner_type":"경기도유지","owner_label":"경기도","manager":"자치행정국 자산관리과","property_class":"일반재산","land_category":"대","area_sqm":7977.0,"area_band":"5,000㎡ 이상","interest_category":"대","solar_candidate":"Y","candidate_reason":"청사·공공건축물·주차장 현황 추가 확인 필요; 면적 7,977㎡","priority_score":80,"source":"경기부동산포털 국공유지조회·연속지적도","source_date":"2026-08-11","installed_solar_match":false}},{"type":"Feature","id":"4127311300102080020","geometry":{"type":"Point","coordinates":[126.6314247,37.2217304]},"properties":{"pnu":"4127311300102080020","municipality_code":"41270","municipality":"안산시","district":"안산시 단원구","locality":"선감동","address":"안산시 단원구 선감동 208-20","owner_type":"경기도유지","owner_label":"경기도","manager":"자치행정국 자산관리과","property_class":"일반재산","land_category":"잡종지","area_sqm":2469.0,"area_band":"1,000~3,000㎡","interest_category":"잡종지","solar_candidate":"Y","candidate_reason":"실제 이용·점유 여부 확인 후 검토할 잡종지; 면적 2,469㎡","priority_score":78,"source":"경기부동산포털 국공유지조회·연속지적도","source_date":"2026-08-11","installed_solar_match":false}},{"type":"Feature","id":"4127311300106610002","geometry":{"type":"Point","coordinates":[126.6283535,37.2315863]},"properties":{"pnu":"4127311300106610002","municipality_code":"41270","municipality":"안산시","district":"안산시 단원구","locality":"선감동","address":"안산시 단원구 선감동 661-2","owner_type":"경기도유지","owner_label":"경기도","manager":"자치행정국 자산관리과","property_class":"일반재산","land_category":"잡종지","area_sqm":2126.0,"area_band":"1,000~3,000㎡","interest_category":"잡종지","solar_candidate":"Y","candidate_reason":"실제 이용·점유 여부 확인 후 검토할 잡종지; 면적 2,126㎡","priority_score":78,"source":"경기부동산포털 국공유지조회·연속지적도","source_date":"2026-08-11","installed_solar_match":false}},{"type":"Feature","id":"4127110400106650055","geometry":{"type":"Point","coordinates":[126.8470661,37.2725369]},"properties":{"pnu":"4127110400106650055","municipality_code":"41270","municipality":"안산시","district":"안산시 상록구","locality":"본오동","address":"안산시 상록구 본오동 665-55","owner_type":"경기도유지","owner_label":"경기도","manager":"기후환경에너지국 정원산업과","property_class":"행정재산","land_category":"잡종지","area_sqm":444715.0,"area_band":"5,000㎡ 이상","interest_category":"잡종지","solar_candidate":"Y","candidate_reason":"실제 이용·점유 여부 확인 후 검토할 잡종지; 면적 444,715㎡","priority_score":75,"source":"경기부동산포털 국공유지조회·연속지적도","source_date":"2026-08-11","installed_solar_match":false}},{"type":"Feature","id":"4127311300107170003","geometry":{"type":"Point","coordinates":[126.6457457,37.191094]},"properties":{"pnu":"4127311300107170003","municipality_code":"41270","municipality":"안산시","district":"안산시 단원구","locality":"선감동","address":"안산시 단원구 선감동 717-3","owner_type":"경기도유지","owner_label":"경기도","manager":"농수산생명과학국 해양수산과","property_class":"행정재산","land_category":"잡종지","area_sqm":17295.0,"area_band":"5,000㎡ 이상","interest_category":"잡종지","solar_candidate":"Y","candidate_reason":"실제 이용·점유 여부 확인 후 검토할 잡종지; 면적 17,295㎡","priority_score":75,"source":"경기부동산포털 국공유지조회·연속지적도","source_date":"2026-08-11","installed_solar_match":true,"installed_solar_count":1,"installed_solar_area_sqm":45.2,"installed_solar_analysis_years":["2024"],"installed_solar_types":["공공시설물"],"installed_solar_permit_status_counts":{"N":1}}},{"type":"Feature","id":"4127110300112530008","geometry":{"type":"Point","coordinates":[126.8540907,37.3016298]},"properties":{"pnu":"4127110300112530008","municipality_code":"41270","municipality":"안산시","district":"안산시 상록구","locality":"사동","address":"안산시 상록구 사동 1253-8","owner_type":"경기도유지","owner_label":"경기도(교육감)","manager":"","property_class":"","land_category":"잡종지","area_sqm":6836.5,"area_band":"5,000㎡ 이상","interest_category":"잡종지","solar_candidate":"Y","candidate_reason":"실제 이용·점유 여부 확인 후 검토할 잡종지; 면적 6,836㎡","priority_score":75,"source":"경기부동산포털 국공유지조회·연속지적도","source_date":"2026-08-11","installed_solar_match":true,"installed_solar_count":5,"installed_solar_area_sqm":845.5,"installed_solar_analysis_years":["2024"],"installed_solar_types":["공공시설물","주차장"],"installed_solar_permit_status_counts":{"N":5}}},{"type":"Feature","id":"4127110400106650057","geometry":{"type":"Point","coordinates":[126.8411969,37.275289]},"properties":{"pnu":"4127110400106650057","municipality_code":"41270","municipality":"안산시","district":"안산시 상록구","locality":"본오동","address":"안산시 상록구 본오동 665-57","owner_type":"경기도유지","owner_label":"경기도","manager":"기후환경에너지국 정원산업과","property_class":"행정재산","land_category":"잡종지","area_sqm":6717.0,"area_band":"5,000㎡ 이상","interest_category":"잡종지","solar_candidate":"Y","candidate_reason":"실제 이용·점유 여부 확인 후 검토할 잡종지; 면적 6,717㎡","priority_score":75,"source":"경기부동산포털 국공유지조회·연속지적도","source_date":"2026-08-11","installed_solar_match":false}},{"type":"Feature","id":"4127311400100340005","geometry":{"type":"Point","coordinates":[126.393293,37.1130476]},"properties":{"pnu":"4127311400100340005","municipality_code":"41270","municipality":"안산시","district":"안산시 단원구","locality":"풍도동","address":"안산시 단원구 풍도동 34-5","owner_type":"경기도유지","owner_label":"경기도","manager":"농수산생명과학국 해양수산과","property_class":"행정재산","land_category":"잡종지","area_sqm":3895.0,"area_band":"3,000~5,000㎡","interest_category":"잡종지","solar_candidate":"Y","candidate_reason":"실제 이용·점유 여부 확인 후 검토할 잡종지; 면적 3,895㎡","priority_score":70,"source":"경기부동산포털 국공유지조회·연속지적도","source_date":"2026-08-11","installed_solar_match":false}},{"type":"Feature","id":"4127311300104080001","geometry":{"type":"Point","coordinates":[126.6324745,37.2264582]},"properties":{"pnu":"4127311300104080001","municipality_code":"41270","municipality":"안산시","district":"안산시 단원구","locality":"선감동","address":"안산시 단원구 선감동 408-1","owner_type":"경기도유지","owner_label":"경기도","manager":"자치행정국 자산관리과","property_class":"일반재산","land_category":"대","area_sqm":2803.0,"area_band":"1,000~3,000㎡","interest_category":"대","solar_candidate":"Y","candidate_reason":"청사·공공건축물·주차장 현황 추가 확인 필요; 면적 2,803㎡","priority_score":68,"source":"경기부동산포털 국공유지조회·연속지적도","source_date":"2026-08-11","installed_solar_match":false}},{"type":"Feature","id":"4127311300103820000","geometry":{"type":"Point","coordinates":[126.6340381,37.2271415]},"properties":{"pnu":"4127311300103820000","municipality_code":"41270","municipality":"안산시","district":"안산시 단원구","locality":"선감동","address":"안산시 단원구 선감동 382","owner_type":"경기도유지","owner_label":"경기도","manager":"자치행정국 자산관리과","property_class":"일반재산","land_category":"대","area_sqm":2465.0,"area_band":"1,000~3,000㎡","interest_category":"대","solar_candidate":"Y","candidate_reason":"청사·공공건축물·주차장 현황 추가 확인 필요; 면적 2,465㎡","priority_score":68,"source":"경기부동산포털 국공유지조회·연속지적도","source_date":"2026-08-11","installed_solar_match":false}},{"type":"Feature","id":"4127311300103410000","geometry":{"type":"Point","coordinates":[126.6352243,37.2267843]},"properties":{"pnu":"4127311300103410000","municipality_code":"41270","municipality":"안산시","district":"안산시 단원구","locality":"선감동","address":"안산시 단원구 선감동 341","owner_type":"경기도유지","owner_label":"경기도","manager":"자치행정국 자산관리과","property_class":"일반재산","land_category":"대","area_sqm":2145.0,"area_band":"1,000~3,000㎡","interest_category":"대","solar_candidate":"Y","candidate_reason":"청사·공공건축물·주차장 현황 추가 확인 필요; 면적 2,145㎡","priority_score":68,"source":"경기부동산포털 국공유지조회·연속지적도","source_date":"2026-08-11","installed_solar_match":false}},{"type":"Feature","id":"4127311300100080006","geometry":{"type":"Point","coordinates":[126.644342,37.2191533]},"properties":{"pnu":"4127311300100080006","municipality_code":"41270","municipality":"안산시","district":"안산시 단원구","locality":"선감동","address":"안산시 단원구 선감동 8-6","owner_type":"경기도유지","owner_label":"경기도","manager":"미래평생교육국 평생교육과","property_class":"행정재산","land_category":"대","area_sqm":178592.8,"area_band":"5,000㎡ 이상","interest_category":"대","solar_candidate":"Y","candidate_reason":"청사·공공건축물·주차장 현황 추가 확인 필요; 면적 178,593㎡","priority_score":65,"source":"경기부동산포털 국공유지조회·연속지적도","source_date":"2026-08-11","installed_solar_match":false}},{"type":"Feature","id":"4127311300107450000","geometry":{"type":"Point","coordinates":[126.630572,37.2195125]},"properties":{"pnu":"4127311300107450000","municipality_code":"41270","municipality":"안산시","district":"안산시 단원구","locality":"선감동","address":"안산시 단원구 선감동 745","owner_type":"경기도유지","owner_label":"경기도","manager":"경기도해양수산자원연구소","property_class":"행정재산","land_category":"대","area_sqm":30347.0,"area_band":"5,000㎡ 이상","interest_category":"대","solar_candidate":"Y","candidate_reason":"청사·공공건축물·주차장 현황 추가 확인 필요; 면적 30,347㎡","priority_score":65,"source":"경기부동산포털 국공유지조회·연속지적도","source_date":"2026-08-11","installed_solar_match":true,"installed_solar_count":14,"installed_solar_area_sqm":706.3,"installed_solar_analysis_years":["2024"],"installed_solar_types":["공공시설물","주차장"],"installed_solar_permit_status_counts":{"N":14}}},{"type":"Feature","id":"4127311300104350000","geometry":{"type":"Point","coordinates":[126.6308609,37.2271713]},"properties":{"pnu":"4127311300104350000","municipality_code":"41270","municipality":"안산시","district":"안산시 단원구","locality":"선감동","address":"안산시 단원구 선감동 435","owner_type":"경기도유지","owner_label":"경기도","manager":"문화체육관광국 문화정책과","property_class":"행정재산","land_category":"대","area_sqm":30017.0,"area_band":"5,000㎡ 이상","interest_category":"대","solar_candidate":"Y","candidate_reason":"청사·공공건축물·주차장 현황 추가 확인 필요; 면적 30,017㎡","priority_score":65,"source":"경기부동산포털 국공유지조회·연속지적도","source_date":"2026-08-11","installed_solar_match":true,"installed_solar_count":3,"installed_solar_area_sqm":896.6,"installed_solar_analysis_years":["2024"],"installed_solar_types":["공공시설물"],"installed_solar_permit_status_counts":{"N":3}}},{"type":"Feature","id":"4127311300104000003","geometry":{"type":"Point","coordinates":[126.6327404,37.2270799]},"properties":{"pnu":"4127311300104000003","municipality_code":"41270","municipality":"안산시","district":"안산시 단원구","locality":"선감동","address":"안산시 단원구 선감동 400-3","owner_type":"경기도유지","owner_label":"경기도","manager":"문화체육관광국 문화정책과","property_class":"행정재산","land_category":"대","area_sqm":5122.0,"area_band":"5,000㎡ 이상","interest_category":"대","solar_candidate":"Y","candidate_reason":"청사·공공건축물·주차장 현황 추가 확인 필요; 면적 5,122㎡","priority_score":65,"source":"경기부동산포털 국공유지조회·연속지적도","source_date":"2026-08-11","installed_solar_match":false}},{"type":"Feature","id":"4127311300102080038","geometry":{"type":"Point","coordinates":[126.6312801,37.2220416]},"properties":{"pnu":"4127311300102080038","municipality_code":"41270","municipality":"안산시","district":"안산시 단원구","locality":"선감동","address":"안산시 단원구 선감동 208-38","owner_type":"경기도유지","owner_label":"경기도","manager":"자치행정국 자산관리과","property_class":"일반재산","land_category":"잡종지","area_sqm":410.0,"area_band":"100~500㎡","interest_category":"잡종지","solar_candidate":"Y","candidate_reason":"실제 이용·점유 여부 확인 후 검토할 잡종지; 면적 410㎡","priority_score":65,"source":"경기부동산포털 국공유지조회·연속지적도","source_date":"2026-08-11","installed_solar_match":false}},{"type":"Feature","id":"4127311300105780003","geometry":{"type":"Point","coordinates":[126.6326046,37.2242651]},"properties":{"pnu":"4127311300105780003","municipality_code":"41270","municipality":"안산시","district":"안산시 단원구","locality":"선감동","address":"안산시 단원구 선감동 578-3","owner_type":"경기도유지","owner_label":"경기도","manager":"자치행정국 자산관리과","property_class":"일반재산","land_category":"잡종지","area_sqm":205.0,"area_band":"100~500㎡","interest_category":"잡종지","solar_candidate":"Y","candidate_reason":"실제 이용·점유 여부 확인 후 검토할 잡종지; 면적 205㎡","priority_score":65,"source":"경기부동산포털 국공유지조회·연속지적도","source_date":"2026-08-11","installed_solar_match":false}},{"type":"Feature","id":"4127311300106490007","geometry":{"type":"Point","coordinates":[126.6292566,37.2270502]},"properties":{"pnu":"4127311300106490007","municipality_code":"41270","municipality":"안산시","district":"안산시 단원구","locality":"선감동","address":"안산시 단원구 선감동 649-7","owner_type":"경기도유지","owner_label":"경기도","manager":"건설국 도로정책과","property_class":"행정재산","land_category":"잡종지","area_sqm":1122.0,"area_band":"1,000~3,000㎡","interest_category":"잡종지","solar_candidate":"Y","candidate_reason":"실제 이용·점유 여부 확인 후 검토할 잡종지; 면적 1,122㎡","priority_score":63,"source":"경기부동산포털 국공유지조회·연속지적도","source_date":"2026-08-11","installed_solar_match":false}},{"type":"Feature","id":"4127310100105170002","geometry":{"type":"Point","coordinates":[126.8265366,37.3200289]},"properties":{"pnu":"4127310100105170002","municipality_code":"41270","municipality":"안산시","district":"안산시 단원구","locality":"고잔동","address":"안산시 단원구 고잔동 517-2","owner_type":"경기도유지","owner_label":"경기도(교육감)","manager":"","property_class":"","land_category":"대","area_sqm":4840.5,"area_band":"3,000~5,000㎡","interest_category":"대","solar_candidate":"Y","candidate_reason":"청사·공공건축물·주차장 현황 추가 확인 필요; 면적 4,840㎡","priority_score":60,"source":"경기부동산포털 국공유지조회·연속지적도","source_date":"2026-08-11","installed_solar_match":false}},{"type":"Feature","id":"4127311300102080017","geometry":{"type":"Point","coordinates":[126.6298759,37.2203832]},"properties":{"pnu":"4127311300102080017","municipality_code":"41270","municipality":"안산시","district":"안산시 단원구","locality":"선감동","address":"안산시 단원구 선감동 208-17","owner_type":"경기도유지","owner_label":"경기도","manager":"농수산생명과학국 해양수산과","property_class":"행정재산","land_category":"대","area_sqm":3714.0,"area_band":"3,000~5,000㎡","interest_category":"대","solar_candidate":"Y","candidate_reason":"청사·공공건축물·주차장 현황 추가 확인 필요; 면적 3,714㎡","priority_score":60,"source":"경기부동산포털 국공유지조회·연속지적도","source_date":"2026-08-11","installed_solar_match":false}},{"type":"Feature","id":"4127311300106610003","geometry":{"type":"Point","coordinates":[126.6288316,37.231828]},"properties":{"pnu":"4127311300106610003","municipality_code":"41270","municipality":"안산시","district":"안산시 단원구","locality":"선감동","address":"안산시 단원구 선감동 661-3","owner_type":"경기도유지","owner_label":"경기도","manager":"자치행정국 자산관리과","property_class":"일반재산","land_category":"대","area_sqm":727.0,"area_band":"500~1,000㎡","interest_category":"대","solar_candidate":"Y","candidate_reason":"청사·공공건축물·주차장 현황 추가 확인 필요; 면적 727㎡","priority_score":60,"source":"경기부동산포털 국공유지조회·연속지적도","source_date":"2026-08-11","installed_solar_match":false}},{"type":"Feature","id":"4127311300106540087","geometry":{"type":"Point","coordinates":[126.6246827,37.2268864]},"properties":{"pnu":"4127311300106540087","municipality_code":"41270","municipality":"안산시","district":"안산시 단원구","locality":"선감동","address":"안산시 단원구 선감동 654-87","owner_type":"경기도유지","owner_label":"경기도","manager":"자치행정국 자산관리과","property_class":"일반재산","land_category":"대","area_sqm":719.0,"area_band":"500~1,000㎡","interest_category":"대","solar_candidate":"Y","candidate_reason":"청사·공공건축물·주차장 현황 추가 확인 필요; 면적 719㎡","priority_score":60,"source":"경기부동산포털 국공유지조회·연속지적도","source_date":"2026-08-11","installed_solar_match":false}},{"type":"Feature","id":"4127311300103570000","geometry":{"type":"Point","coordinates":[126.6346202,37.2267653]},"properties":{"pnu":"4127311300103570000","municipality_code":"41270","municipality":"안산시","district":"안산시 단원구","locality":"선감동","address":"안산시 단원구 선감동 357","owner_type":"경기도유지","owner_label":"경기도","manager":"자치행정국 자산관리과","property_class":"일반재산","land_category":"대","area_sqm":688.0,"area_band":"500~1,000㎡","interest_category":"대","solar_candidate":"Y","candidate_reason":"청사·공공건축물·주차장 현황 추가 확인 필요; 면적 688㎡","priority_score":60,"source":"경기부동산포털 국공유지조회·연속지적도","source_date":"2026-08-11","installed_solar_match":false}},{"type":"Feature","id":"4127311300104290000","geometry":{"type":"Point","coordinates":[126.6319733,37.2261871]},"properties":{"pnu":"4127311300104290000","municipality_code":"41270","municipality":"안산시","district":"안산시 단원구","locality":"선감동","address":"안산시 단원구 선감동 429","owner_type":"경기도유지","owner_label":"경기도","manager":"자치행정국 자산관리과","property_class":"일반재산","land_category":"대","area_sqm":642.0,"area_band":"500~1,000㎡","interest_category":"대","solar_candidate":"Y","candidate_reason":"청사·공공건축물·주차장 현황 추가 확인 필요; 면적 642㎡","priority_score":60,"source":"경기부동산포털 국공유지조회·연속지적도","source_date":"2026-08-11","installed_solar_match":false}},{"type":"Feature","id":"4127311300103560000","geometry":{"type":"Point","coordinates":[126.6347357,37.2269829]},"properties":{"pnu":"4127311300103560000","municipality_code":"41270","municipality":"안산시","district":"안산시 단원구","locality":"선감동","address":"안산시 단원구 선감동 356","owner_type":"경기도유지","owner_label":"경기도","manager":"자치행정국 자산관리과","property_class":"일반재산","land_category":"대","area_sqm":598.0,"area_band":"500~1,000㎡","interest_category":"대","solar_candidate":"Y","candidate_reason":"청사·공공건축물·주차장 현황 추가 확인 필요; 면적 598㎡","priority_score":60,"source":"경기부동산포털 국공유지조회·연속지적도","source_date":"2026-08-11","installed_solar_match":false}},{"type":"Feature","id":"4127311300103060002","geometry":{"type":"Point","coordinates":[126.6348636,37.22557]},"properties":{"pnu":"4127311300103060002","municipality_code":"41270","municipality":"안산시","district":"안산시 단원구","locality":"선감동","address":"안산시 단원구 선감동 306-2","owner_type":"경기도유지","owner_label":"경기도","manager":"자치행정국 자산관리과","property_class":"일반재산","land_category":"대","area_sqm":549.0,"area_band":"500~1,000㎡","interest_category":"대","solar_candidate":"Y","candidate_reason":"청사·공공건축물·주차장 현황 추가 확인 필요; 면적 549㎡","priority_score":60,"source":"경기부동산포털 국공유지조회·연속지적도","source_date":"2026-08-11","installed_solar_match":false}},{"type":"Feature","id":"4127311300105550000","geometry":{"type":"Point","coordinates":[126.6336618,37.225014]},"properties":{"pnu":"4127311300105550000","municipality_code":"41270","municipality":"안산시","district":"안산시 단원구","locality":"선감동","address":"안산시 단원구 선감동 555","owner_type":"경기도유지","owner_label":"경기도","manager":"자치행정국 자산관리과","property_class":"일반재산","land_category":"대","area_sqm":532.0,"area_band":"500~1,000㎡","interest_category":"대","solar_candidate":"Y","candidate_reason":"청사·공공건축물·주차장 현황 추가 확인 필요; 면적 532㎡","priority_score":60,"source":"경기부동산포털 국공유지조회·연속지적도","source_date":"2026-08-11","installed_solar_match":false}},{"type":"Feature","id":"4127311300102990000","geometry":{"type":"Point","coordinates":[126.6349543,37.2253256]},"properties":{"pnu":"4127311300102990000","municipality_code":"41270","municipality":"안산시","district":"안산시 단원구","locality":"선감동","address":"안산시 단원구 선감동 299","owner_type":"경기도유지","owner_label":"경기도","manager":"자치행정국 자산관리과","property_class":"일반재산","land_category":"대","area_sqm":522.0,"area_band":"500~1,000㎡","interest_category":"대","solar_candidate":"Y","candidate_reason":"청사·공공건축물·주차장 현황 추가 확인 필요; 면적 522㎡","priority_score":60,"source":"경기부동산포털 국공유지조회·연속지적도","source_date":"2026-08-11","installed_solar_match":false}},{"type":"Feature","id":"4127311300102810005","geometry":{"type":"Point","coordinates":[126.6378222,37.2222948]},"properties":{"pnu":"4127311300102810005","municipality_code":"41270","municipality":"안산시","district":"안산시 단원구","locality":"선감동","address":"안산시 단원구 선감동 281-5","owner_type":"경기도유지","owner_label":"경기도","manager":"자치행정국 자산관리과","property_class":"일반재산","land_category":"대","area_sqm":498.0,"area_band":"100~500㎡","interest_category":"대","solar_candidate":"검토필요","candidate_reason":"청사·공공건축물·주차장 현황 추가 확인 필요; 면적 498㎡","priority_score":55,"source":"경기부동산포털 국공유지조회·연속지적도","source_date":"2026-08-11","installed_solar_match":false}},{"type":"Feature","id":"4127311300102810002","geometry":{"type":"Point","coordinates":[126.637986,37.2224004]},"properties":{"pnu":"4127311300102810002","municipality_code":"41270","municipality":"안산시","district":"안산시 단원구","locality":"선감동","address":"안산시 단원구 선감동 281-2","owner_type":"경기도유지","owner_label":"경기도","manager":"자치행정국 자산관리과","property_class":"일반재산","land_category":"대","area_sqm":492.0,"area_band":"100~500㎡","interest_category":"대","solar_candidate":"검토필요","candidate_reason":"청사·공공건축물·주차장 현황 추가 확인 필요; 면적 492㎡","priority_score":55,"source":"경기부동산포털 국공유지조회·연속지적도","source_date":"2026-08-11","installed_solar_match":false}},{"type":"Feature","id":"4127311300105470000","geometry":{"type":"Point","coordinates":[126.6344145,37.2254552]},"properties":{"pnu":"4127311300105470000","municipality_code":"41270","municipality":"안산시","district":"안산시 단원구","locality":"선감동","address":"안산시 단원구 선감동 547","owner_type":"경기도유지","owner_label":"경기도","manager":"자치행정국 자산관리과","property_class":"일반재산","land_category":"대","area_sqm":446.0,"area_band":"100~500㎡","interest_category":"대","solar_candidate":"검토필요","candidate_reason":"청사·공공건축물·주차장 현황 추가 확인 필요; 면적 446㎡","priority_score":55,"source":"경기부동산포털 국공유지조회·연속지적도","source_date":"2026-08-11","installed_solar_match":false}},{"type":"Feature","id":"4127311300103030000","geometry":{"type":"Point","coordinates":[126.6346481,37.2255386]},"properties":{"pnu":"4127311300103030000","municipality_code":"41270","municipality":"안산시","district":"안산시 단원구","locality":"선감동","address":"안산시 단원구 선감동 303","owner_type":"경기도유지","owner_label":"경기도","manager":"자치행정국 자산관리과","property_class":"일반재산","land_category":"대","area_sqm":367.0,"area_band":"100~500㎡","interest_category":"대","solar_candidate":"검토필요","candidate_reason":"청사·공공건축물·주차장 현황 추가 확인 필요; 면적 367㎡","priority_score":55,"source":"경기부동산포털 국공유지조회·연속지적도","source_date":"2026-08-11","installed_solar_match":false}},{"type":"Feature","id":"4127311300106580002","geometry":{"type":"Point","coordinates":[126.6282531,37.2323576]},"properties":{"pnu":"4127311300106580002","municipality_code":"41270","municipality":"안산시","district":"안산시 단원구","locality":"선감동","address":"안산시 단원구 선감동 658-2","owner_type":"경기도유지","owner_label":"경기도","manager":"자치행정국 자산관리과","property_class":"일반재산","land_category":"대","area_sqm":367.0,"area_band":"100~500㎡","interest_category":"대","solar_candidate":"검토필요","candidate_reason":"청사·공공건축물·주차장 현황 추가 확인 필요; 면적 367㎡","priority_score":55,"source":"경기부동산포털 국공유지조회·연속지적도","source_date":"2026-08-11","installed_solar_match":false}},{"type":"Feature","id":"4127311300104090000","geometry":{"type":"Point","coordinates":[126.6330352,37.2264552]},"properties":{"pnu":"4127311300104090000","municipality_code":"41270","municipality":"안산시","district":"안산시 단원구","locality":"선감동","address":"안산시 단원구 선감동 409","owner_type":"경기도유지","owner_label":"경기도","manager":"자치행정국 자산관리과","property_class":"일반재산","land_category":"대","area_sqm":347.0,"area_band":"100~500㎡","interest_category":"대","solar_candidate":"검토필요","candidate_reason":"청사·공공건축물·주차장 현황 추가 확인 필요; 면적 347㎡","priority_score":55,"source":"경기부동산포털 국공유지조회·연속지적도","source_date":"2026-08-11","installed_solar_match":false}},{"type":"Feature","id":"4127311300104270000","geometry":{"type":"Point","coordinates":[126.6320346,37.2260533]},"properties":{"pnu":"4127311300104270000","municipality_code":"41270","municipality":"안산시","district":"안산시 단원구","locality":"선감동","address":"안산시 단원구 선감동 427","owner_type":"경기도유지","owner_label":"경기도","manager":"자치행정국 자산관리과","property_class":"일반재산","land_category":"대","area_sqm":323.0,"area_band":"100~500㎡","interest_category":"대","solar_candidate":"검토필요","candidate_reason":"청사·공공건축물·주차장 현황 추가 확인 필요; 면적 323㎡","priority_score":55,"source":"경기부동산포털 국공유지조회·연속지적도","source_date":"2026-08-11","installed_solar_match":false}},{"type":"Feature","id":"4127311300106070003","geometry":{"type":"Point","coordinates":[126.6324465,37.2222783]},"properties":{"pnu":"4127311300106070003","municipality_code":"41270","municipality":"안산시","district":"안산시 단원구","locality":"선감동","address":"안산시 단원구 선감동 607-3","owner_type":"경기도유지","owner_label":"경기도","manager":"자치행정국 자산관리과","property_class":"일반재산","land_category":"대","area_sqm":304.0,"area_band":"100~500㎡","interest_category":"대","solar_candidate":"검토필요","candidate_reason":"청사·공공건축물·주차장 현황 추가 확인 필요; 면적 304㎡","priority_score":55,"source":"경기부동산포털 국공유지조회·연속지적도","source_date":"2026-08-11","installed_solar_match":false}},{"type":"Feature","id":"4127311300105740000","geometry":{"type":"Point","coordinates":[126.6323991,37.2237272]},"properties":{"pnu":"4127311300105740000","municipality_code":"41270","municipality":"안산시","district":"안산시 단원구","locality":"선감동","address":"안산시 단원구 선감동 574","owner_type":"경기도유지","owner_label":"경기도","manager":"자치행정국 자산관리과","property_class":"일반재산","land_category":"대","area_sqm":302.0,"area_band":"100~500㎡","interest_category":"대","solar_candidate":"검토필요","candidate_reason":"청사·공공건축물·주차장 현황 추가 확인 필요; 면적 302㎡","priority_score":55,"source":"경기부동산포털 국공유지조회·연속지적도","source_date":"2026-08-11","installed_solar_match":false}},{"type":"Feature","id":"4127311300104000001","geometry":{"type":"Point","coordinates":[126.632825,37.2275348]},"properties":{"pnu":"4127311300104000001","municipality_code":"41270","municipality":"안산시","district":"안산시 단원구","locality":"선감동","address":"안산시 단원구 선감동 400-1","owner_type":"경기도유지","owner_label":"경기도","manager":"자치행정국 자산관리과","property_class":"일반재산","land_category":"대","area_sqm":294.0,"area_band":"100~500㎡","interest_category":"대","solar_candidate":"검토필요","candidate_reason":"청사·공공건축물·주차장 현황 추가 확인 필요; 면적 294㎡","priority_score":55,"source":"경기부동산포털 국공유지조회·연속지적도","source_date":"2026-08-11","installed_solar_match":false}},{"type":"Feature","id":"4127311300105670002","geometry":{"type":"Point","coordinates":[126.6317677,37.2232614]},"properties":{"pnu":"4127311300105670002","municipality_code":"41270","municipality":"안산시","district":"안산시 단원구","locality":"선감동","address":"안산시 단원구 선감동 567-2","owner_type":"경기도유지","owner_label":"경기도","manager":"자치행정국 자산관리과","property_class":"일반재산","land_category":"대","area_sqm":288.0,"area_band":"100~500㎡","interest_category":"대","solar_candidate":"검토필요","candidate_reason":"청사·공공건축물·주차장 현황 추가 확인 필요; 면적 288㎡","priority_score":55,"source":"경기부동산포털 국공유지조회·연속지적도","source_date":"2026-08-11","installed_solar_match":false}},{"type":"Feature","id":"4127311300105430000","geometry":{"type":"Point","coordinates":[126.6340887,37.2256471]},"properties":{"pnu":"4127311300105430000","municipality_code":"41270","municipality":"안산시","district":"안산시 단원구","locality":"선감동","address":"안산시 단원구 선감동 543","owner_type":"경기도유지","owner_label":"경기도","manager":"자치행정국 자산관리과","property_class":"일반재산","land_category":"대","area_sqm":274.0,"area_band":"100~500㎡","interest_category":"대","solar_candidate":"검토필요","candidate_reason":"청사·공공건축물·주차장 현황 추가 확인 필요; 면적 274㎡","priority_score":55,"source":"경기부동산포털 국공유지조회·연속지적도","source_date":"2026-08-11","installed_solar_match":false}},{"type":"Feature","id":"4127311300102320001","geometry":{"type":"Point","coordinates":[126.6355865,37.2194591]},"properties":{"pnu":"4127311300102320001","municipality_code":"41270","municipality":"안산시","district":"안산시 단원구","locality":"선감동","address":"안산시 단원구 선감동 232-1","owner_type":"경기도유지","owner_label":"경기도","manager":"자치행정국 자산관리과","property_class":"일반재산","land_category":"대","area_sqm":248.0,"area_band":"100~500㎡","interest_category":"대","solar_candidate":"검토필요","candidate_reason":"청사·공공건축물·주차장 현황 추가 확인 필요; 면적 248㎡","priority_score":55,"source":"경기부동산포털 국공유지조회·연속지적도","source_date":"2026-08-11","installed_solar_match":false}},{"type":"Feature","id":"4127311300103940000","geometry":{"type":"Point","coordinates":[126.6345608,37.2277416]},"properties":{"pnu":"4127311300103940000","municipality_code":"41270","municipality":"안산시","district":"안산시 단원구","locality":"선감동","address":"안산시 단원구 선감동 394","owner_type":"경기도유지","owner_label":"경기도","manager":"자치행정국 자산관리과","property_class":"일반재산","land_category":"대","area_sqm":241.0,"area_band":"100~500㎡","interest_category":"대","solar_candidate":"검토필요","candidate_reason":"청사·공공건축물·주차장 현황 추가 확인 필요; 면적 241㎡","priority_score":55,"source":"경기부동산포털 국공유지조회·연속지적도","source_date":"2026-08-11","installed_solar_match":false}},{"type":"Feature","id":"4127311300105490001","geometry":{"type":"Point","coordinates":[126.6344717,37.2249648]},"properties":{"pnu":"4127311300105490001","municipality_code":"41270","municipality":"안산시","district":"안산시 단원구","locality":"선감동","address":"안산시 단원구 선감동 549-1","owner_type":"경기도유지","owner_label":"경기도","manager":"자치행정국 자산관리과","property_class":"일반재산","land_category":"대","area_sqm":236.0,"area_band":"100~500㎡","interest_category":"대","solar_candidate":"검토필요","candidate_reason":"청사·공공건축물·주차장 현황 추가 확인 필요; 면적 236㎡","priority_score":55,"source":"경기부동산포털 국공유지조회·연속지적도","source_date":"2026-08-11","installed_solar_match":false}},{"type":"Feature","id":"4127311300104000002","geometry":{"type":"Point","coordinates":[126.632548,37.2275072]},"properties":{"pnu":"4127311300104000002","municipality_code":"41270","municipality":"안산시","district":"안산시 단원구","locality":"선감동","address":"안산시 단원구 선감동 400-2","owner_type":"경기도유지","owner_label":"경기도","manager":"자치행정국 자산관리과","property_class":"일반재산","land_category":"대","area_sqm":218.0,"area_band":"100~500㎡","interest_category":"대","solar_candidate":"검토필요","candidate_reason":"청사·공공건축물·주차장 현황 추가 확인 필요; 면적 218㎡","priority_score":55,"source":"경기부동산포털 국공유지조회·연속지적도","source_date":"2026-08-11","installed_solar_match":false}},{"type":"Feature","id":"4127311300103020000","geometry":{"type":"Point","coordinates":[126.634721,37.225397]},"properties":{"pnu":"4127311300103020000","municipality_code":"41270","municipality":"안산시","district":"안산시 단원구","locality":"선감동","address":"안산시 단원구 선감동 302","owner_type":"경기도유지","owner_label":"경기도","manager":"자치행정국 자산관리과","property_class":"일반재산","land_category":"대","area_sqm":182.0,"area_band":"100~500㎡","interest_category":"대","solar_candidate":"검토필요","candidate_reason":"청사·공공건축물·주차장 현황 추가 확인 필요; 면적 182㎡","priority_score":55,"source":"경기부동산포털 국공유지조회·연속지적도","source_date":"2026-08-11","installed_solar_match":false}},{"type":"Feature","id":"4127311300105800004","geometry":{"type":"Point","coordinates":[126.6333836,37.2233272]},"properties":{"pnu":"4127311300105800004","municipality_code":"41270","municipality":"안산시","district":"안산시 단원구","locality":"선감동","address":"안산시 단원구 선감동 580-4","owner_type":"경기도유지","owner_label":"경기도","manager":"자치행정국 자산관리과","property_class":"일반재산","land_category":"대","area_sqm":178.0,"area_band":"100~500㎡","interest_category":"대","solar_candidate":"검토필요","candidate_reason":"청사·공공건축물·주차장 현황 추가 확인 필요; 면적 178㎡","priority_score":55,"source":"경기부동산포털 국공유지조회·연속지적도","source_date":"2026-08-11","installed_solar_match":false}},{"type":"Feature","id":"4127311300104260000","geometry":{"type":"Point","coordinates":[126.6324765,37.2261947]},"properties":{"pnu":"4127311300104260000","municipality_code":"41270","municipality":"안산시","district":"안산시 단원구","locality":"선감동","address":"안산시 단원구 선감동 426","owner_type":"경기도유지","owner_label":"경기도","manager":"자치행정국 자산관리과","property_class":"일반재산","land_category":"대","area_sqm":162.0,"area_band":"100~500㎡","interest_category":"대","solar_candidate":"검토필요","candidate_reason":"청사·공공건축물·주차장 현황 추가 확인 필요; 면적 162㎡","priority_score":55,"source":"경기부동산포털 국공유지조회·연속지적도","source_date":"2026-08-11","installed_solar_match":false}},{"type":"Feature","id":"4127311300106410000","geometry":{"type":"Point","coordinates":[126.6302359,37.2226051]},"properties":{"pnu":"4127311300106410000","municipality_code":"41270","municipality":"안산시","district":"안산시 단원구","locality":"선감동","address":"안산시 단원구 선감동 641","owner_type":"경기도유지","owner_label":"경기도","manager":"자치행정국 자산관리과","property_class":"일반재산","land_category":"대","area_sqm":155.0,"area_band":"100~500㎡","interest_category":"대","solar_candidate":"검토필요","candidate_reason":"청사·공공건축물·주차장 현황 추가 확인 필요; 면적 155㎡","priority_score":55,"source":"경기부동산포털 국공유지조회·연속지적도","source_date":"2026-08-11","installed_solar_match":false}},{"type":"Feature","id":"4127311300105520000","geometry":{"type":"Point","coordinates":[126.6343144,37.2250465]},"properties":{"pnu":"4127311300105520000","municipality_code":"41270","municipality":"안산시","district":"안산시 단원구","locality":"선감동","address":"안산시 단원구 선감동 552","owner_type":"경기도유지","owner_label":"경기도","manager":"자치행정국 자산관리과","property_class":"일반재산","land_category":"대","area_sqm":154.0,"area_band":"100~500㎡","interest_category":"대","solar_candidate":"검토필요","candidate_reason":"청사·공공건축물·주차장 현황 추가 확인 필요; 면적 154㎡","priority_score":55,"source":"경기부동산포털 국공유지조회·연속지적도","source_date":"2026-08-11","installed_solar_match":false}},{"type":"Feature","id":"4127311300103920000","geometry":{"type":"Point","coordinates":[126.6343869,37.2275497]},"properties":{"pnu":"4127311300103920000","municipality_code":"41270","municipality":"안산시","district":"안산시 단원구","locality":"선감동","address":"안산시 단원구 선감동 392","owner_type":"경기도유지","owner_label":"경기도","manager":"자치행정국 자산관리과","property_class":"일반재산","land_category":"대","area_sqm":116.0,"area_band":"100~500㎡","interest_category":"대","solar_candidate":"검토필요","candidate_reason":"청사·공공건축물·주차장 현황 추가 확인 필요; 면적 116㎡","priority_score":55,"source":"경기부동산포털 국공유지조회·연속지적도","source_date":"2026-08-11","installed_solar_match":false}},{"type":"Feature","id":"4127311000100890003","geometry":{"type":"Point","coordinates":[126.6179251,37.2401824]},"properties":{"pnu":"4127311000100890003","municipality_code":"41270","municipality":"안산시","district":"안산시 단원구","locality":"대부동동","address":"안산시 단원구 대부동동 89-3","owner_type":"경기도유지","owner_label":"경기도","manager":"소방재난본부 회계장비담당관","property_class":"행정재산","land_category":"대","area_sqm":2718.0,"area_band":"1,000~3,000㎡","interest_category":"대","solar_candidate":"검토필요","candidate_reason":"청사·공공건축물·주차장 현황 추가 확인 필요; 면적 2,718㎡","priority_score":53,"source":"경기부동산포털 국공유지조회·연속지적도","source_date":"2026-08-11","installed_solar_match":false}},{"type":"Feature","id":"4127311300104350003","geometry":{"type":"Point","coordinates":[126.6296918,37.2269868]},"properties":{"pnu":"4127311300104350003","municipality_code":"41270","municipality":"안산시","district":"안산시 단원구","locality":"선감동","address":"안산시 단원구 선감동 435-3","owner_type":"경기도유지","owner_label":"경기도","manager":"건설국 도로정책과","property_class":"행정재산","land_category":"대","area_sqm":2454.0,"area_band":"1,000~3,000㎡","interest_category":"대","solar_candidate":"검토필요","candidate_reason":"청사·공공건축물·주차장 현황 추가 확인 필요; 면적 2,454㎡","priority_score":53,"source":"경기부동산포털 국공유지조회·연속지적도","source_date":"2026-08-11","installed_solar_match":false}},{"type":"Feature","id":"4127110300115840002","geometry":{"type":"Point","coordinates":[126.843707,37.3008956]},"properties":{"pnu":"4127110300115840002","municipality_code":"41270","municipality":"안산시","district":"안산시 상록구","locality":"사동","address":"안산시 상록구 사동 1584-2","owner_type":"경기도유지","owner_label":"경기도","manager":"소방재난본부 회계장비담당관","property_class":"행정재산","land_category":"대","area_sqm":1653.0,"area_band":"1,000~3,000㎡","interest_category":"대","solar_candidate":"검토필요","candidate_reason":"청사·공공건축물·주차장 현황 추가 확인 필요; 면적 1,653㎡","priority_score":53,"source":"경기부동산포털 국공유지조회·연속지적도","source_date":"2026-08-11","installed_solar_match":false}},{"type":"Feature","id":"4127310300116910000","geometry":{"type":"Point","coordinates":[126.7836545,37.3350472]},"properties":{"pnu":"4127310300116910000","municipality_code":"41270","municipality":"안산시","district":"안산시 단원구","locality":"신길동","address":"안산시 단원구 신길동 1691","owner_type":"경기도유지","owner_label":"경기도","manager":"소방재난본부 회계장비담당관","property_class":"행정재산","land_category":"대","area_sqm":1597.9,"area_band":"1,000~3,000㎡","interest_category":"대","solar_candidate":"검토필요","candidate_reason":"청사·공공건축물·주차장 현황 추가 확인 필요; 면적 1,598㎡","priority_score":53,"source":"경기부동산포털 국공유지조회·연속지적도","source_date":"2026-08-11","installed_solar_match":false}},{"type":"Feature","id":"4127311300104630022","geometry":{"type":"Point","coordinates":[126.6288679,37.2276508]},"properties":{"pnu":"4127311300104630022","municipality_code":"41270","municipality":"안산시","district":"안산시 단원구","locality":"선감동","address":"안산시 단원구 선감동 463-22","owner_type":"경기도유지","owner_label":"경기도","manager":"건설국 도로정책과","property_class":"행정재산","land_category":"대","area_sqm":1310.0,"area_band":"1,000~3,000㎡","interest_category":"대","solar_candidate":"검토필요","candidate_reason":"청사·공공건축물·주차장 현황 추가 확인 필요; 면적 1,310㎡","priority_score":53,"source":"경기부동산포털 국공유지조회·연속지적도","source_date":"2026-08-11","installed_solar_match":false}},{"type":"Feature","id":"4127111100108490002","geometry":{"type":"Point","coordinates":[126.9058226,37.3030097]},"properties":{"pnu":"4127111100108490002","municipality_code":"41270","municipality":"안산시","district":"안산시 상록구","locality":"건건동","address":"안산시 상록구 건건동 849-2","owner_type":"경기도유지","owner_label":"경기도","manager":"소방재난본부 회계장비담당관","property_class":"행정재산","land_category":"대","area_sqm":1222.0,"area_band":"1,000~3,000㎡","interest_category":"대","solar_candidate":"검토필요","candidate_reason":"청사·공공건축물·주차장 현황 추가 확인 필요; 면적 1,222㎡","priority_score":53,"source":"경기부동산포털 국공유지조회·연속지적도","source_date":"2026-08-11","installed_solar_match":false}},{"type":"Feature","id":"4127311300103980003","geometry":{"type":"Point","coordinates":[126.6333716,37.2270895]},"properties":{"pnu":"4127311300103980003","municipality_code":"41270","municipality":"안산시","district":"안산시 단원구","locality":"선감동","address":"안산시 단원구 선감동 398-3","owner_type":"경기도유지","owner_label":"경기도","manager":"문화체육관광국 문화정책과","property_class":"행정재산","land_category":"대","area_sqm":1138.0,"area_band":"1,000~3,000㎡","interest_category":"대","solar_candidate":"검토필요","candidate_reason":"청사·공공건축물·주차장 현황 추가 확인 필요; 면적 1,138㎡","priority_score":53,"source":"경기부동산포털 국공유지조회·연속지적도","source_date":"2026-08-11","installed_solar_match":false}},{"type":"Feature","id":"4127311300103980002","geometry":{"type":"Point","coordinates":[126.6332891,37.2274239]},"properties":{"pnu":"4127311300103980002","municipality_code":"41270","municipality":"안산시","district":"안산시 단원구","locality":"선감동","address":"안산시 단원구 선감동 398-2","owner_type":"경기도유지","owner_label":"경기도","manager":"건설국 도로정책과","property_class":"행정재산","land_category":"대","area_sqm":1089.0,"area_band":"1,000~3,000㎡","interest_category":"대","solar_candidate":"검토필요","candidate_reason":"청사·공공건축물·주차장 현황 추가 확인 필요; 면적 1,089㎡","priority_score":53,"source":"경기부동산포털 국공유지조회·연속지적도","source_date":"2026-08-11","installed_solar_match":false}},{"type":"Feature","id":"4127311300107450001","geometry":{"type":"Point","coordinates":[126.6320954,37.2207492]},"properties":{"pnu":"4127311300107450001","municipality_code":"41270","municipality":"안산시","district":"안산시 단원구","locality":"선감동","address":"안산시 단원구 선감동 745-1","owner_type":"경기도유지","owner_label":"경기도","manager":"경기도해양수산자원연구소","property_class":"행정재산","land_category":"대","area_sqm":1021.0,"area_band":"1,000~3,000㎡","interest_category":"대","solar_candidate":"검토필요","candidate_reason":"청사·공공건축물·주차장 현황 추가 확인 필요; 면적 1,021㎡","priority_score":53,"source":"경기부동산포털 국공유지조회·연속지적도","source_date":"2026-08-11","installed_solar_match":false}},{"type":"Feature","id":"4127311300102670010","geometry":{"type":"Point","coordinates":[126.6403619,37.2212951]},"properties":{"pnu":"4127311300102670010","municipality_code":"41270","municipality":"안산시","district":"안산시 단원구","locality":"선감동","address":"안산시 단원구 선감동 267-10","owner_type":"경기도유지","owner_label":"경기도","manager":"경기도산림환경연구소","property_class":"행정재산","land_category":"잡종지","area_sqm":462.0,"area_band":"100~500㎡","interest_category":"잡종지","solar_candidate":"검토필요","candidate_reason":"실제 이용·점유 여부 확인 후 검토할 잡종지; 면적 462㎡","priority_score":50,"source":"경기부동산포털 국공유지조회·연속지적도","source_date":"2026-08-11","installed_solar_match":false}},{"type":"Feature","id":"4127311400100340002","geometry":{"type":"Point","coordinates":[126.3937279,37.1124165]},"properties":{"pnu":"4127311400100340002","municipality_code":"41270","municipality":"안산시","district":"안산시 단원구","locality":"풍도동","address":"안산시 단원구 풍도동 34-2","owner_type":"경기도유지","owner_label":"경기도","manager":"농수산생명과학국 해양수산과","property_class":"행정재산","land_category":"잡종지","area_sqm":290.0,"area_band":"100~500㎡","interest_category":"잡종지","solar_candidate":"검토필요","candidate_reason":"실제 이용·점유 여부 확인 후 검토할 잡종지; 면적 290㎡","priority_score":50,"source":"경기부동산포털 국공유지조회·연속지적도","source_date":"2026-08-11","installed_solar_match":false}},{"type":"Feature","id":"4127111300101650025","geometry":{"type":"Point","coordinates":[126.8768907,37.3659026]},"properties":{"pnu":"4127111300101650025","municipality_code":"41270","municipality":"안산시","district":"안산시 상록구","locality":"수암동","address":"안산시 상록구 수암동 165-25","owner_type":"경기도유지","owner_label":"경기도","manager":"소방재난본부 회계장비담당관","property_class":"행정재산","land_category":"잡종지","area_sqm":141.0,"area_band":"100~500㎡","interest_category":"잡종지","solar_candidate":"검토필요","candidate_reason":"실제 이용·점유 여부 확인 후 검토할 잡종지; 면적 141㎡","priority_score":50,"source":"경기부동산포털 국공유지조회·연속지적도","source_date":"2026-08-11","installed_solar_match":false}},{"type":"Feature","id":"4127311300106490003","geometry":{"type":"Point","coordinates":[126.6276998,37.2294923]},"properties":{"pnu":"4127311300106490003","municipality_code":"41270","municipality":"안산시","district":"안산시 단원구","locality":"선감동","address":"안산시 단원구 선감동 649-3","owner_type":"경기도유지","owner_label":"경기도","manager":"건설국 도로정책과","property_class":"행정재산","land_category":"잡종지","area_sqm":119.0,"area_band":"100~500㎡","interest_category":"잡종지","solar_candidate":"검토필요","candidate_reason":"실제 이용·점유 여부 확인 후 검토할 잡종지; 면적 119㎡","priority_score":50,"source":"경기부동산포털 국공유지조회·연속지적도","source_date":"2026-08-11","installed_solar_match":false}},{"type":"Feature","id":"4127311300102080074","geometry":{"type":"Point","coordinates":[126.631117,37.2191453]},"properties":{"pnu":"4127311300102080074","municipality_code":"41270","municipality":"안산시","district":"안산시 단원구","locality":"선감동","address":"안산시 단원구 선감동 208-74","owner_type":"경기도유지","owner_label":"경기도","manager":"경기도해양수산자원연구소","property_class":"일반재산","land_category":"임야","area_sqm":30346.0,"area_band":"5,000㎡ 이상","interest_category":"대규모부지","solar_candidate":"검토필요","candidate_reason":"넓은 경기도유지로 실제 이용·규제 현황 추가 검토; 면적 30,346㎡","priority_score":45,"source":"경기부동산포털 국공유지조회·연속지적도","source_date":"2026-08-11","installed_solar_match":false}},{"type":"Feature","id":"4127311300200580001","geometry":{"type":"Point","coordinates":[126.6339943,37.218604]},"properties":{"pnu":"4127311300200580001","municipality_code":"41270","municipality":"안산시","district":"안산시 단원구","locality":"선감동","address":"안산시 단원구 선감동 산58-1","owner_type":"경기도유지","owner_label":"경기도","manager":"자치행정국 자산관리과","property_class":"일반재산","land_category":"임야","area_sqm":20051.0,"area_band":"5,000㎡ 이상","interest_category":"대규모부지","solar_candidate":"검토필요","candidate_reason":"넓은 경기도유지로 실제 이용·규제 현황 추가 검토; 면적 20,051㎡","priority_score":45,"source":"경기부동산포털 국공유지조회·연속지적도","source_date":"2026-08-11","installed_solar_match":false}},{"type":"Feature","id":"4127311300102080004","geometry":{"type":"Point","coordinates":[126.6307191,37.2207843]},"properties":{"pnu":"4127311300102080004","municipality_code":"41270","municipality":"안산시","district":"안산시 단원구","locality":"선감동","address":"안산시 단원구 선감동 208-4","owner_type":"경기도유지","owner_label":"경기도","manager":"자치행정국 자산관리과","property_class":"일반재산","land_category":"답","area_sqm":10697.0,"area_band":"5,000㎡ 이상","interest_category":"대규모부지","solar_candidate":"검토필요","candidate_reason":"넓은 경기도유지로 실제 이용·규제 현황 추가 검토; 면적 10,697㎡","priority_score":45,"source":"경기부동산포털 국공유지조회·연속지적도","source_date":"2026-08-11","installed_solar_match":false}},{"type":"Feature","id":"4127311300201290003","geometry":{"type":"Point","coordinates":[126.6433913,37.213624]},"properties":{"pnu":"4127311300201290003","municipality_code":"41270","municipality":"안산시","district":"안산시 단원구","locality":"선감동","address":"안산시 단원구 선감동 산129-3","owner_type":"경기도유지","owner_label":"경기도","manager":"자치행정국 자산관리과","property_class":"일반재산","land_category":"임야","area_sqm":8552.0,"area_band":"5,000㎡ 이상","interest_category":"대규모부지","solar_candidate":"검토필요","candidate_reason":"넓은 경기도유지로 실제 이용·규제 현황 추가 검토; 면적 8,552㎡","priority_score":45,"source":"경기부동산포털 국공유지조회·연속지적도","source_date":"2026-08-11","installed_solar_match":false}},{"type":"Feature","id":"4127311300102900000","geometry":{"type":"Point","coordinates":[126.6357496,37.2241126]},"properties":{"pnu":"4127311300102900000","municipality_code":"41270","municipality":"안산시","district":"안산시 단원구","locality":"선감동","address":"안산시 단원구 선감동 290","owner_type":"경기도유지","owner_label":"경기도","manager":"자치행정국 자산관리과","property_class":"일반재산","land_category":"과수원","area_sqm":8091.0,"area_band":"5,000㎡ 이상","interest_category":"대규모부지","solar_candidate":"검토필요","candidate_reason":"넓은 경기도유지로 실제 이용·규제 현황 추가 검토; 면적 8,091㎡","priority_score":45,"source":"경기부동산포털 국공유지조회·연속지적도","source_date":"2026-08-11","installed_solar_match":false}},{"type":"Feature","id":"4127311300102080012","geometry":{"type":"Point","coordinates":[126.6304917,37.2218723]},"properties":{"pnu":"4127311300102080012","municipality_code":"41270","municipality":"안산시","district":"안산시 단원구","locality":"선감동","address":"안산시 단원구 선감동 208-12","owner_type":"경기도유지","owner_label":"경기도","manager":"자치행정국 자산관리과","property_class":"일반재산","land_category":"과수원","area_sqm":8060.0,"area_band":"5,000㎡ 이상","interest_category":"대규모부지","solar_candidate":"검토필요","candidate_reason":"넓은 경기도유지로 실제 이용·규제 현황 추가 검토; 면적 8,060㎡","priority_score":45,"source":"경기부동산포털 국공유지조회·연속지적도","source_date":"2026-08-11","installed_solar_match":false}},{"type":"Feature","id":"4127311300102690000","geometry":{"type":"Point","coordinates":[126.6374814,37.220076]},"properties":{"pnu":"4127311300102690000","municipality_code":"41270","municipality":"안산시","district":"안산시 단원구","locality":"선감동","address":"안산시 단원구 선감동 269","owner_type":"경기도유지","owner_label":"경기도","manager":"자치행정국 자산관리과","property_class":"일반재산","land_category":"전","area_sqm":7582.0,"area_band":"5,000㎡ 이상","interest_category":"대규모부지","solar_candidate":"검토필요","candidate_reason":"넓은 경기도유지로 실제 이용·규제 현황 추가 검토; 면적 7,582㎡","priority_score":45,"source":"경기부동산포털 국공유지조회·연속지적도","source_date":"2026-08-11","installed_solar_match":false}},{"type":"Feature","id":"4127311300102080078","geometry":{"type":"Point","coordinates":[126.6316477,37.2206874]},"properties":{"pnu":"4127311300102080078","municipality_code":"41270","municipality":"안산시","district":"안산시 단원구","locality":"선감동","address":"안산시 단원구 선감동 208-78","owner_type":"경기도유지","owner_label":"경기도","manager":"경기도해양수산자원연구소","property_class":"일반재산","land_category":"임야","area_sqm":5337.0,"area_band":"5,000㎡ 이상","interest_category":"대규모부지","solar_candidate":"검토필요","candidate_reason":"넓은 경기도유지로 실제 이용·규제 현황 추가 검토; 면적 5,337㎡","priority_score":45,"source":"경기부동산포털 국공유지조회·연속지적도","source_date":"2026-08-11","installed_solar_match":false}},{"type":"Feature","id":"4127311300102080014","geometry":{"type":"Point","coordinates":[126.6297728,37.2217082]},"properties":{"pnu":"4127311300102080014","municipality_code":"41270","municipality":"안산시","district":"안산시 단원구","locality":"선감동","address":"안산시 단원구 선감동 208-14","owner_type":"경기도유지","owner_label":"경기도","manager":"자치행정국 자산관리과","property_class":"일반재산","land_category":"염전","area_sqm":5309.0,"area_band":"5,000㎡ 이상","interest_category":"대규모부지","solar_candidate":"검토필요","candidate_reason":"넓은 경기도유지로 실제 이용·규제 현황 추가 검토; 면적 5,309㎡","priority_score":45,"source":"경기부동산포털 국공유지조회·연속지적도","source_date":"2026-08-11","installed_solar_match":false}},{"type":"Feature","id":"4127311300201300008","geometry":{"type":"Point","coordinates":[126.6451275,37.2123863]},"properties":{"pnu":"4127311300201300008","municipality_code":"41270","municipality":"안산시","district":"안산시 단원구","locality":"선감동","address":"안산시 단원구 선감동 산130-8","owner_type":"경기도유지","owner_label":"경기도","manager":"자치행정국 자산관리과","property_class":"일반재산","land_category":"묘지","area_sqm":5009.0,"area_band":"5,000㎡ 이상","interest_category":"대규모부지","solar_candidate":"검토필요","candidate_reason":"넓은 경기도유지로 실제 이용·규제 현황 추가 검토; 면적 5,009㎡","priority_score":45,"source":"경기부동산포털 국공유지조회·연속지적도","source_date":"2026-08-11","installed_solar_match":false}},{"type":"Feature","id":"4127310400107100012","geometry":{"type":"Point","coordinates":[126.7357463,37.3198402]},"properties":{"pnu":"4127310400107100012","municipality_code":"41270","municipality":"안산시","district":"안산시 단원구","locality":"성곡동","address":"안산시 단원구 성곡동 710-12","owner_type":"경기도유지","owner_label":"경기도","manager":"소방재난본부 회계장비담당관","property_class":"행정재산","land_category":"대","area_sqm":999.7,"area_band":"500~1,000㎡","interest_category":"대","solar_candidate":"검토필요","candidate_reason":"청사·공공건축물·주차장 현황 추가 확인 필요; 면적 1,000㎡","priority_score":45,"source":"경기부동산포털 국공유지조회·연속지적도","source_date":"2026-08-11","installed_solar_match":false}},{"type":"Feature","id":"4127311300106200001","geometry":{"type":"Point","coordinates":[126.6314629,37.2225952]},"properties":{"pnu":"4127311300106200001","municipality_code":"41270","municipality":"안산시","district":"안산시 단원구","locality":"선감동","address":"안산시 단원구 선감동 620-1","owner_type":"경기도유지","owner_label":"경기도","manager":"건설국 도로정책과","property_class":"행정재산","land_category":"대","area_sqm":982.0,"area_band":"500~1,000㎡","interest_category":"대","solar_candidate":"검토필요","candidate_reason":"청사·공공건축물·주차장 현황 추가 확인 필요; 면적 982㎡","priority_score":45,"source":"경기부동산포털 국공유지조회·연속지적도","source_date":"2026-08-11","installed_solar_match":false}},{"type":"Feature","id":"4127311500105170001","geometry":{"type":"Point","coordinates":[126.8242818,37.3585194]},"properties":{"pnu":"4127311500105170001","municipality_code":"41270","municipality":"안산시","district":"안산시 단원구","locality":"화정동","address":"안산시 단원구 화정동 517-1","owner_type":"경기도유지","owner_label":"경기도(교육감)","manager":"","property_class":"","land_category":"대","area_sqm":884.0,"area_band":"500~1,000㎡","interest_category":"대","solar_candidate":"검토필요","candidate_reason":"청사·공공건축물·주차장 현황 추가 확인 필요; 면적 884㎡","priority_score":45,"source":"경기부동산포털 국공유지조회·연속지적도","source_date":"2026-08-11","installed_solar_match":false}},{"type":"Feature","id":"4127311300104050000","geometry":{"type":"Point","coordinates":[126.6322929,37.226827]},"properties":{"pnu":"4127311300104050000","municipality_code":"41270","municipality":"안산시","district":"안산시 단원구","locality":"선감동","address":"안산시 단원구 선감동 405","owner_type":"경기도유지","owner_label":"경기도","manager":"문화체육관광국 문화정책과","property_class":"행정재산","land_category":"대","area_sqm":777.0,"area_band":"500~1,000㎡","interest_category":"대","solar_candidate":"검토필요","candidate_reason":"청사·공공건축물·주차장 현황 추가 확인 필요; 면적 777㎡","priority_score":45,"source":"경기부동산포털 국공유지조회·연속지적도","source_date":"2026-08-11","installed_solar_match":false}},{"type":"Feature","id":"4127311300103850000","geometry":{"type":"Point","coordinates":[126.6337103,37.2271773]},"properties":{"pnu":"4127311300103850000","municipality_code":"41270","municipality":"안산시","district":"안산시 단원구","locality":"선감동","address":"안산시 단원구 선감동 385","owner_type":"경기도유지","owner_label":"경기도","manager":"건설국 도로정책과","property_class":"행정재산","land_category":"대","area_sqm":542.0,"area_band":"500~1,000㎡","interest_category":"대","solar_candidate":"검토필요","candidate_reason":"청사·공공건축물·주차장 현황 추가 확인 필요; 면적 542㎡","priority_score":45,"source":"경기부동산포털 국공유지조회·연속지적도","source_date":"2026-08-11","installed_solar_match":false}},{"type":"Feature","id":"4127311300100370002","geometry":{"type":"Point","coordinates":[126.6421134,37.215129]},"properties":{"pnu":"4127311300100370002","municipality_code":"41270","municipality":"안산시","district":"안산시 단원구","locality":"선감동","address":"안산시 단원구 선감동 37-2","owner_type":"경기도유지","owner_label":"경기도","manager":"미래평생교육국 청소년과","property_class":"행정재산","land_category":"대","area_sqm":515.0,"area_band":"500~1,000㎡","interest_category":"대","solar_candidate":"검토필요","candidate_reason":"청사·공공건축물·주차장 현황 추가 확인 필요; 면적 515㎡","priority_score":45,"source":"경기부동산포털 국공유지조회·연속지적도","source_date":"2026-08-11","installed_solar_match":false}},{"type":"Feature","id":"4127311300102830000","geometry":{"type":"Point","coordinates":[126.6361567,37.2215527]},"properties":{"pnu":"4127311300102830000","municipality_code":"41270","municipality":"안산시","district":"안산시 단원구","locality":"선감동","address":"안산시 단원구 선감동 283","owner_type":"경기도유지","owner_label":"경기도","manager":"자치행정국 자산관리과","property_class":"일반재산","land_category":"전","area_sqm":4565.0,"area_band":"3,000~5,000㎡","interest_category":"대규모부지","solar_candidate":"검토필요","candidate_reason":"넓은 경기도유지로 실제 이용·규제 현황 추가 검토; 면적 4,565㎡","priority_score":40,"source":"경기부동산포털 국공유지조회·연속지적도","source_date":"2026-08-11","installed_solar_match":false}},{"type":"Feature","id":"4127311300103810000","geometry":{"type":"Point","coordinates":[126.6342537,37.2273248]},"properties":{"pnu":"4127311300103810000","municipality_code":"41270","municipality":"안산시","district":"안산시 단원구","locality":"선감동","address":"안산시 단원구 선감동 381","owner_type":"경기도유지","owner_label":"경기도","manager":"자치행정국 자산관리과","property_class":"일반재산","land_category":"전","area_sqm":4241.0,"area_band":"3,000~5,000㎡","interest_category":"대규모부지","solar_candidate":"검토필요","candidate_reason":"넓은 경기도유지로 실제 이용·규제 현황 추가 검토; 면적 4,241㎡","priority_score":40,"source":"경기부동산포털 국공유지조회·연속지적도","source_date":"2026-08-11","installed_solar_match":false}},{"type":"Feature","id":"4127311300102810000","geometry":{"type":"Point","coordinates":[126.6381038,37.2215992]},"properties":{"pnu":"4127311300102810000","municipality_code":"41270","municipality":"안산시","district":"안산시 단원구","locality":"선감동","address":"안산시 단원구 선감동 281","owner_type":"경기도유지","owner_label":"경기도","manager":"자치행정국 자산관리과","property_class":"일반재산","land_category":"전","area_sqm":4098.0,"area_band":"3,000~5,000㎡","interest_category":"대규모부지","solar_candidate":"검토필요","candidate_reason":"넓은 경기도유지로 실제 이용·규제 현황 추가 검토; 면적 4,098㎡","priority_score":40,"source":"경기부동산포털 국공유지조회·연속지적도","source_date":"2026-08-11","installed_solar_match":false}},{"type":"Feature","id":"4127311300100370004","geometry":{"type":"Point","coordinates":[126.6410946,37.2180169]},"properties":{"pnu":"4127311300100370004","municipality_code":"41270","municipality":"안산시","district":"안산시 단원구","locality":"선감동","address":"안산시 단원구 선감동 37-4","owner_type":"경기도유지","owner_label":"경기도","manager":"자치행정국 자산관리과","property_class":"일반재산","land_category":"전","area_sqm":3749.0,"area_band":"3,000~5,000㎡","interest_category":"대규모부지","solar_candidate":"검토필요","candidate_reason":"넓은 경기도유지로 실제 이용·규제 현황 추가 검토; 면적 3,749㎡","priority_score":40,"source":"경기부동산포털 국공유지조회·연속지적도","source_date":"2026-08-11","installed_solar_match":false}},{"type":"Feature","id":"4127311300103070000","geometry":{"type":"Point","coordinates":[126.635428,37.225739]},"properties":{"pnu":"4127311300103070000","municipality_code":"41270","municipality":"안산시","district":"안산시 단원구","locality":"선감동","address":"안산시 단원구 선감동 307","owner_type":"경기도유지","owner_label":"경기도","manager":"자치행정국 자산관리과","property_class":"일반재산","land_category":"전","area_sqm":3654.0,"area_band":"3,000~5,000㎡","interest_category":"대규모부지","solar_candidate":"검토필요","candidate_reason":"넓은 경기도유지로 실제 이용·규제 현황 추가 검토; 면적 3,654㎡","priority_score":40,"source":"경기부동산포털 국공유지조회·연속지적도","source_date":"2026-08-11","installed_solar_match":false}},{"type":"Feature","id":"4127311300102700001","geometry":{"type":"Point","coordinates":[126.6380083,37.219578]},"properties":{"pnu":"4127311300102700001","municipality_code":"41270","municipality":"안산시","district":"안산시 단원구","locality":"선감동","address":"안산시 단원구 선감동 270-1","owner_type":"경기도유지","owner_label":"경기도","manager":"자치행정국 자산관리과","property_class":"일반재산","land_category":"전","area_sqm":3203.0,"area_band":"3,000~5,000㎡","interest_category":"대규모부지","solar_candidate":"검토필요","candidate_reason":"넓은 경기도유지로 실제 이용·규제 현황 추가 검토; 면적 3,203㎡","priority_score":40,"source":"경기부동산포털 국공유지조회·연속지적도","source_date":"2026-08-11","installed_solar_match":false}},{"type":"Feature","id":"4127111000105940003","geometry":{"type":"Point","coordinates":[126.8855884,37.2988166]},"properties":{"pnu":"4127111000105940003","municipality_code":"41270","municipality":"안산시","district":"안산시 상록구","locality":"팔곡일동","address":"안산시 상록구 팔곡일동 594-3","owner_type":"경기도유지","owner_label":"경기도","manager":"자치행정국 자산관리과","property_class":"일반재산","land_category":"임야","area_sqm":3180.0,"area_band":"3,000~5,000㎡","interest_category":"대규모부지","solar_candidate":"검토필요","candidate_reason":"넓은 경기도유지로 실제 이용·규제 현황 추가 검토; 면적 3,180㎡","priority_score":40,"source":"경기부동산포털 국공유지조회·연속지적도","source_date":"2026-08-11","installed_solar_match":false}},{"type":"Feature","id":"4127311300100080002","geometry":{"type":"Point","coordinates":[126.6486217,37.2177293]},"properties":{"pnu":"4127311300100080002","municipality_code":"41270","municipality":"안산시","district":"안산시 단원구","locality":"선감동","address":"안산시 단원구 선감동 8-2","owner_type":"경기도유지","owner_label":"경기도","manager":"경기도산림환경연구소","property_class":"행정재산","land_category":"대","area_sqm":492.0,"area_band":"100~500㎡","interest_category":"대","solar_candidate":"검토필요","candidate_reason":"청사·공공건축물·주차장 현황 추가 확인 필요; 면적 492㎡","priority_score":40,"source":"경기부동산포털 국공유지조회·연속지적도","source_date":"2026-08-11","installed_solar_match":false}},{"type":"Feature","id":"4127311300102670003","geometry":{"type":"Point","coordinates":[126.6400234,37.2210081]},"properties":{"pnu":"4127311300102670003","municipality_code":"41270","municipality":"안산시","district":"안산시 단원구","locality":"선감동","address":"안산시 단원구 선감동 267-3","owner_type":"경기도유지","owner_label":"경기도","manager":"경기도산림환경연구소","property_class":"행정재산","land_category":"대","area_sqm":468.0,"area_band":"100~500㎡","interest_category":"대","solar_candidate":"검토필요","candidate_reason":"청사·공공건축물·주차장 현황 추가 확인 필요; 면적 468㎡","priority_score":40,"source":"경기부동산포털 국공유지조회·연속지적도","source_date":"2026-08-11","installed_solar_match":false}},{"type":"Feature","id":"4127311300100550005","geometry":{"type":"Point","coordinates":[126.641497,37.2154746]},"properties":{"pnu":"4127311300100550005","municipality_code":"41270","municipality":"안산시","district":"안산시 단원구","locality":"선감동","address":"안산시 단원구 선감동 55-5","owner_type":"경기도유지","owner_label":"경기도","manager":"미래평생교육국 청소년과","property_class":"행정재산","land_category":"대","area_sqm":400.0,"area_band":"100~500㎡","interest_category":"대","solar_candidate":"검토필요","candidate_reason":"청사·공공건축물·주차장 현황 추가 확인 필요; 면적 400㎡","priority_score":40,"source":"경기부동산포털 국공유지조회·연속지적도","source_date":"2026-08-11","installed_solar_match":false}},{"type":"Feature","id":"4127311300100030010","geometry":{"type":"Point","coordinates":[126.6460077,37.2257298]},"properties":{"pnu":"4127311300100030010","municipality_code":"41270","municipality":"안산시","district":"안산시 단원구","locality":"선감동","address":"안산시 단원구 선감동 3-10","owner_type":"경기도유지","owner_label":"경기도","manager":"경기도산림환경연구소","property_class":"행정재산","land_category":"대","area_sqm":371.9,"area_band":"100~500㎡","interest_category":"대","solar_candidate":"검토필요","candidate_reason":"청사·공공건축물·주차장 현황 추가 확인 필요; 면적 372㎡","priority_score":40,"source":"경기부동산포털 국공유지조회·연속지적도","source_date":"2026-08-11","installed_solar_match":false}},{"type":"Feature","id":"4127311300104600005","geometry":{"type":"Point","coordinates":[126.6281964,37.2287223]},"properties":{"pnu":"4127311300104600005","municipality_code":"41270","municipality":"안산시","district":"안산시 단원구","locality":"선감동","address":"안산시 단원구 선감동 460-5","owner_type":"경기도유지","owner_label":"경기도","manager":"건설국 도로정책과","property_class":"행정재산","land_category":"대","area_sqm":341.0,"area_band":"100~500㎡","interest_category":"대","solar_candidate":"검토필요","candidate_reason":"청사·공공건축물·주차장 현황 추가 확인 필요; 면적 341㎡","priority_score":40,"source":"경기부동산포털 국공유지조회·연속지적도","source_date":"2026-08-11","installed_solar_match":false}},{"type":"Feature","id":"4127311200110660124","geometry":{"type":"Point","coordinates":[126.575378,37.219776]},"properties":{"pnu":"4127311200110660124","municipality_code":"41270","municipality":"안산시","district":"안산시 단원구","locality":"대부남동","address":"안산시 단원구 대부남동 1066-124","owner_type":"경기도유지","owner_label":"경기도(교육감)","manager":"","property_class":"","land_category":"대","area_sqm":310.0,"area_band":"100~500㎡","interest_category":"대","solar_candidate":"검토필요","candidate_reason":"청사·공공건축물·주차장 현황 추가 확인 필요; 면적 310㎡","priority_score":40,"source":"경기부동산포털 국공유지조회·연속지적도","source_date":"2026-08-11","installed_solar_match":false}},{"type":"Feature","id":"4127311300104630007","geometry":{"type":"Point","coordinates":[126.6301641,37.2264685]},"properties":{"pnu":"4127311300104630007","municipality_code":"41270","municipality":"안산시","district":"안산시 단원구","locality":"선감동","address":"안산시 단원구 선감동 463-7","owner_type":"경기도유지","owner_label":"경기도","manager":"건설국 도로정책과","property_class":"행정재산","land_category":"대","area_sqm":290.0,"area_band":"100~500㎡","interest_category":"대","solar_candidate":"검토필요","candidate_reason":"청사·공공건축물·주차장 현황 추가 확인 필요; 면적 290㎡","priority_score":40,"source":"경기부동산포털 국공유지조회·연속지적도","source_date":"2026-08-11","installed_solar_match":false}},{"type":"Feature","id":"4127311300103510000","geometry":{"type":"Point","coordinates":[126.6349129,37.2276125]},"properties":{"pnu":"4127311300103510000","municipality_code":"41270","municipality":"안산시","district":"안산시 단원구","locality":"선감동","address":"안산시 단원구 선감동 351","owner_type":"경기도유지","owner_label":"경기도","manager":"경기도산림환경연구소","property_class":"행정재산","land_category":"대","area_sqm":233.0,"area_band":"100~500㎡","interest_category":"대","solar_candidate":"검토필요","candidate_reason":"청사·공공건축물·주차장 현황 추가 확인 필요; 면적 233㎡","priority_score":40,"source":"경기부동산포털 국공유지조회·연속지적도","source_date":"2026-08-11","installed_solar_match":false}},{"type":"Feature","id":"4127311300103990000","geometry":{"type":"Point","coordinates":[126.6335596,37.2269637]},"properties":{"pnu":"4127311300103990000","municipality_code":"41270","municipality":"안산시","district":"안산시 단원구","locality":"선감동","address":"안산시 단원구 선감동 399","owner_type":"경기도유지","owner_label":"경기도","manager":"건설국 도로정책과","property_class":"행정재산","land_category":"대","area_sqm":232.0,"area_band":"100~500㎡","interest_category":"대","solar_candidate":"검토필요","candidate_reason":"청사·공공건축물·주차장 현황 추가 확인 필요; 면적 232㎡","priority_score":40,"source":"경기부동산포털 국공유지조회·연속지적도","source_date":"2026-08-11","installed_solar_match":false}},{"type":"Feature","id":"4127311300106230001","geometry":{"type":"Point","coordinates":[126.6313558,37.2228128]},"properties":{"pnu":"4127311300106230001","municipality_code":"41270","municipality":"안산시","district":"안산시 단원구","locality":"선감동","address":"안산시 단원구 선감동 623-1","owner_type":"경기도유지","owner_label":"경기도","manager":"건설국 도로정책과","property_class":"행정재산","land_category":"대","area_sqm":231.0,"area_band":"100~500㎡","interest_category":"대","solar_candidate":"검토필요","candidate_reason":"청사·공공건축물·주차장 현황 추가 확인 필요; 면적 231㎡","priority_score":40,"source":"경기부동산포털 국공유지조회·연속지적도","source_date":"2026-08-11","installed_solar_match":false}},{"type":"Feature","id":"4127311300105630000","geometry":{"type":"Point","coordinates":[126.6321121,37.2236997]},"properties":{"pnu":"4127311300105630000","municipality_code":"41270","municipality":"안산시","district":"안산시 단원구","locality":"선감동","address":"안산시 단원구 선감동 563","owner_type":"경기도유지","owner_label":"경기도","manager":"건설국 도로정책과","property_class":"행정재산","land_category":"대","area_sqm":202.0,"area_band":"100~500㎡","interest_category":"대","solar_candidate":"검토필요","candidate_reason":"청사·공공건축물·주차장 현황 추가 확인 필요; 면적 202㎡","priority_score":40,"source":"경기부동산포털 국공유지조회·연속지적도","source_date":"2026-08-11","installed_solar_match":false}},{"type":"Feature","id":"4127311300104570000","geometry":{"type":"Point","coordinates":[126.6299389,37.2281707]},"properties":{"pnu":"4127311300104570000","municipality_code":"41270","municipality":"안산시","district":"안산시 단원구","locality":"선감동","address":"안산시 단원구 선감동 457","owner_type":"경기도유지","owner_label":"경기도","manager":"건설국 도로정책과","property_class":"행정재산","land_category":"대","area_sqm":198.0,"area_band":"100~500㎡","interest_category":"대","solar_candidate":"검토필요","candidate_reason":"청사·공공건축물·주차장 현황 추가 확인 필요; 면적 198㎡","priority_score":40,"source":"경기부동산포털 국공유지조회·연속지적도","source_date":"2026-08-11","installed_solar_match":false}},{"type":"Feature","id":"4127311300104630025","geometry":{"type":"Point","coordinates":[126.6291667,37.2273335]},"properties":{"pnu":"4127311300104630025","municipality_code":"41270","municipality":"안산시","district":"안산시 단원구","locality":"선감동","address":"안산시 단원구 선감동 463-25","owner_type":"경기도유지","owner_label":"경기도","manager":"건설국 도로정책과","property_class":"행정재산","land_category":"대","area_sqm":131.0,"area_band":"100~500㎡","interest_category":"대","solar_candidate":"검토필요","candidate_reason":"청사·공공건축물·주차장 현황 추가 확인 필요; 면적 131㎡","priority_score":40,"source":"경기부동산포털 국공유지조회·연속지적도","source_date":"2026-08-11","installed_solar_match":false}},{"type":"Feature","id":"4127110600102890017","geometry":{"type":"Point","coordinates":[126.8564455,37.3444031]},"properties":{"pnu":"4127110600102890017","municipality_code":"41270","municipality":"안산시","district":"안산시 상록구","locality":"양상동","address":"안산시 상록구 양상동 289-17","owner_type":"경기도유지","owner_label":"경기도","manager":"건설국 하천과","property_class":"행정재산","land_category":"대","area_sqm":116.0,"area_band":"100~500㎡","interest_category":"대","solar_candidate":"검토필요","candidate_reason":"청사·공공건축물·주차장 현황 추가 확인 필요; 면적 116㎡","priority_score":40,"source":"경기부동산포털 국공유지조회·연속지적도","source_date":"2026-08-11","installed_solar_match":false}}]}