{"type":"FeatureCollection","name":"gyeonggi_41290_national_solar_candidates","metadata":{"generated_on":"2026-08-11","source":"경기부동산포털 국공유지조회·연속지적도","source_agency":"경기도","ownership_source":"경기부동산포털 국공유지조회","coverage":"과천시","owner_code":"2","owner_type":"국유지","minimum_area_sqm":100.0,"feature_count":116,"coordinate_reference":"GRIS native values interpreted as EPSG:5174 and projected to EPSG:4326","coordinate_precision":"7 decimals, increased only when needed to keep narrow-parcel points inside","disclaimer":"설치 가능 확정이 아닌 현장조사 우선순위"},"features":[{"type":"Feature","id":"4129010600102820000","geometry":{"type":"Point","coordinates":[127.0282622,37.4498396]},"properties":{"pnu":"4129010600102820000","municipality_code":"41290","municipality":"과천시","district":"과천시","locality":"주암동","address":"과천시 주암동 282","owner_type":"국유지","owner_label":"국(국방부)","manager":"","property_class":"","land_category":"잡종지","area_sqm":36161.0,"area_band":"5,000㎡ 이상","interest_category":"잡종지","solar_candidate":"Y","candidate_reason":"실제 이용·점유 여부 확인 후 검토할 잡종지; 면적 36,161㎡","priority_score":75,"source":"경기부동산포털 국공유지조회·연속지적도","source_date":"2026-08-11","installed_solar_match":false}},{"type":"Feature","id":"4129010300105070000","geometry":{"type":"Point","coordinates":[126.9740634,37.4197669]},"properties":{"pnu":"4129010300105070000","municipality_code":"41290","municipality":"과천시","district":"과천시","locality":"갈현동","address":"과천시 갈현동 507","owner_type":"국유지","owner_label":"국(국방부)","manager":"","property_class":"","land_category":"잡종지","area_sqm":24336.0,"area_band":"5,000㎡ 이상","interest_category":"잡종지","solar_candidate":"Y","candidate_reason":"실제 이용·점유 여부 확인 후 검토할 잡종지; 면적 24,336㎡","priority_score":75,"source":"경기부동산포털 국공유지조회·연속지적도","source_date":"2026-08-11","installed_solar_match":false}},{"type":"Feature","id":"4129010300104830000","geometry":{"type":"Point","coordinates":[126.9750132,37.4188113]},"properties":{"pnu":"4129010300104830000","municipality_code":"41290","municipality":"과천시","district":"과천시","locality":"갈현동","address":"과천시 갈현동 483","owner_type":"국유지","owner_label":"국(국방부)","manager":"","property_class":"","land_category":"잡종지","area_sqm":10303.0,"area_band":"5,000㎡ 이상","interest_category":"잡종지","solar_candidate":"Y","candidate_reason":"실제 이용·점유 여부 확인 후 검토할 잡종지; 면적 10,303㎡","priority_score":75,"source":"경기부동산포털 국공유지조회·연속지적도","source_date":"2026-08-11","installed_solar_match":false}},{"type":"Feature","id":"4129010500105050000","geometry":{"type":"Point","coordinates":[126.9907748,37.4508449]},"properties":{"pnu":"4129010500105050000","municipality_code":"41290","municipality":"과천시","district":"과천시","locality":"과천동","address":"과천시 과천동 505","owner_type":"국유지","owner_label":"국(국방부)","manager":"","property_class":"","land_category":"잡종지","area_sqm":9390.0,"area_band":"5,000㎡ 이상","interest_category":"잡종지","solar_candidate":"Y","candidate_reason":"실제 이용·점유 여부 확인 후 검토할 잡종지; 면적 9,390㎡","priority_score":75,"source":"경기부동산포털 국공유지조회·연속지적도","source_date":"2026-08-11","installed_solar_match":false}},{"type":"Feature","id":"4129010300104970001","geometry":{"type":"Point","coordinates":[126.9753909,37.4196334]},"properties":{"pnu":"4129010300104970001","municipality_code":"41290","municipality":"과천시","district":"과천시","locality":"갈현동","address":"과천시 갈현동 497-1","owner_type":"국유지","owner_label":"국(국방부)","manager":"","property_class":"","land_category":"잡종지","area_sqm":8508.0,"area_band":"5,000㎡ 이상","interest_category":"잡종지","solar_candidate":"Y","candidate_reason":"실제 이용·점유 여부 확인 후 검토할 잡종지; 면적 8,508㎡","priority_score":75,"source":"경기부동산포털 국공유지조회·연속지적도","source_date":"2026-08-11","installed_solar_match":false}},{"type":"Feature","id":"4129010300105220000","geometry":{"type":"Point","coordinates":[126.9732942,37.4184479]},"properties":{"pnu":"4129010300105220000","municipality_code":"41290","municipality":"과천시","district":"과천시","locality":"갈현동","address":"과천시 갈현동 522","owner_type":"국유지","owner_label":"국(국방부)","manager":"","property_class":"","land_category":"잡종지","area_sqm":6763.0,"area_band":"5,000㎡ 이상","interest_category":"잡종지","solar_candidate":"Y","candidate_reason":"실제 이용·점유 여부 확인 후 검토할 잡종지; 면적 6,763㎡","priority_score":75,"source":"경기부동산포털 국공유지조회·연속지적도","source_date":"2026-08-11","installed_solar_match":false}},{"type":"Feature","id":"4129010300105110007","geometry":{"type":"Point","coordinates":[126.9731936,37.420045]},"properties":{"pnu":"4129010300105110007","municipality_code":"41290","municipality":"과천시","district":"과천시","locality":"갈현동","address":"과천시 갈현동 511-7","owner_type":"국유지","owner_label":"국(국방부)","manager":"","property_class":"","land_category":"잡종지","area_sqm":5043.0,"area_band":"5,000㎡ 이상","interest_category":"잡종지","solar_candidate":"Y","candidate_reason":"실제 이용·점유 여부 확인 후 검토할 잡종지; 면적 5,043㎡","priority_score":75,"source":"경기부동산포털 국공유지조회·연속지적도","source_date":"2026-08-11","installed_solar_match":false}},{"type":"Feature","id":"4129010500107580000","geometry":{"type":"Point","coordinates":[127.0057663,37.4389738]},"properties":{"pnu":"4129010500107580000","municipality_code":"41290","municipality":"과천시","district":"과천시","locality":"과천동","address":"과천시 과천동 758","owner_type":"국유지","owner_label":"국(과학기술정보통신부)","manager":"","property_class":"","land_category":"대","area_sqm":156463.6,"area_band":"5,000㎡ 이상","interest_category":"대","solar_candidate":"Y","candidate_reason":"청사·공공건축물·주차장 현황 추가 확인 필요; 면적 156,464㎡","priority_score":65,"source":"경기부동산포털 국공유지조회·연속지적도","source_date":"2026-08-11","installed_solar_match":true,"installed_solar_count":1,"installed_solar_area_sqm":57.1,"installed_solar_analysis_years":["2024"],"installed_solar_types":["공공시설물"],"installed_solar_permit_status_counts":{"N":1}}},{"type":"Feature","id":"4129010700100010000","geometry":{"type":"Point","coordinates":[126.9840936,37.4269909]},"properties":{"pnu":"4129010700100010000","municipality_code":"41290","municipality":"과천시","district":"과천시","locality":"중앙동","address":"과천시 중앙동 1","owner_type":"국유지","owner_label":"국(행정자치부)","manager":"","property_class":"","land_category":"대","area_sqm":130801.7,"area_band":"5,000㎡ 이상","interest_category":"대","solar_candidate":"Y","candidate_reason":"청사·공공건축물·주차장 현황 추가 확인 필요; 면적 130,802㎡","priority_score":65,"source":"경기부동산포털 국공유지조회·연속지적도","source_date":"2026-08-11","installed_solar_match":true,"installed_solar_count":7,"installed_solar_area_sqm":1058.6,"installed_solar_analysis_years":["2024"],"installed_solar_types":["공공시설물"],"installed_solar_permit_status_counts":{"N":7}}},{"type":"Feature","id":"4129010700100020001","geometry":{"type":"Point","coordinates":[126.9736401,37.4228629]},"properties":{"pnu":"4129010700100020001","municipality_code":"41290","municipality":"과천시","district":"과천시","locality":"중앙동","address":"과천시 중앙동 2-1","owner_type":"국유지","owner_label":"국(인사혁신처)","manager":"","property_class":"","land_category":"대","area_sqm":97380.3,"area_band":"5,000㎡ 이상","interest_category":"대","solar_candidate":"Y","candidate_reason":"청사·공공건축물·주차장 현황 추가 확인 필요; 면적 97,380㎡","priority_score":65,"source":"경기부동산포털 국공유지조회·연속지적도","source_date":"2026-08-11","installed_solar_match":false}},{"type":"Feature","id":"4129010700100010002","geometry":{"type":"Point","coordinates":[126.9865436,37.4284362]},"properties":{"pnu":"4129010700100010002","municipality_code":"41290","municipality":"과천시","district":"과천시","locality":"중앙동","address":"과천시 중앙동 1-2","owner_type":"국유지","owner_label":"국(행정자치부)","manager":"","property_class":"","land_category":"대","area_sqm":40890.5,"area_band":"5,000㎡ 이상","interest_category":"대","solar_candidate":"Y","candidate_reason":"청사·공공건축물·주차장 현황 추가 확인 필요; 면적 40,890㎡","priority_score":65,"source":"경기부동산포털 국공유지조회·연속지적도","source_date":"2026-08-11","installed_solar_match":true,"installed_solar_count":4,"installed_solar_area_sqm":481.8,"installed_solar_analysis_years":["2024"],"installed_solar_types":["공공시설물"],"installed_solar_permit_status_counts":{"N":4}}},{"type":"Feature","id":"4129010700100030000","geometry":{"type":"Point","coordinates":[126.9815652,37.4244648]},"properties":{"pnu":"4129010700100030000","municipality_code":"41290","municipality":"과천시","district":"과천시","locality":"중앙동","address":"과천시 중앙동 3","owner_type":"국유지","owner_label":"국(행정자치부)","manager":"","property_class":"","land_category":"대","area_sqm":39745.6,"area_band":"5,000㎡ 이상","interest_category":"대","solar_candidate":"Y","candidate_reason":"청사·공공건축물·주차장 현황 추가 확인 필요; 면적 39,746㎡","priority_score":65,"source":"경기부동산포털 국공유지조회·연속지적도","source_date":"2026-08-11","installed_solar_match":false}},{"type":"Feature","id":"4129010700100010001","geometry":{"type":"Point","coordinates":[126.9838128,37.4248013]},"properties":{"pnu":"4129010700100010001","municipality_code":"41290","municipality":"과천시","district":"과천시","locality":"중앙동","address":"과천시 중앙동 1-1","owner_type":"국유지","owner_label":"국(행정자치부)","manager":"","property_class":"","land_category":"대","area_sqm":38294.1,"area_band":"5,000㎡ 이상","interest_category":"대","solar_candidate":"Y","candidate_reason":"청사·공공건축물·주차장 현황 추가 확인 필요; 면적 38,294㎡","priority_score":65,"source":"경기부동산포털 국공유지조회·연속지적도","source_date":"2026-08-11","installed_solar_match":false}},{"type":"Feature","id":"4129010700100050000","geometry":{"type":"Point","coordinates":[126.9874975,37.4257455]},"properties":{"pnu":"4129010700100050000","municipality_code":"41290","municipality":"과천시","district":"과천시","locality":"중앙동","address":"과천시 중앙동 5","owner_type":"국유지","owner_label":"국(행정자치부)","manager":"","property_class":"","land_category":"대","area_sqm":30979.8,"area_band":"5,000㎡ 이상","interest_category":"대","solar_candidate":"Y","candidate_reason":"청사·공공건축물·주차장 현황 추가 확인 필요; 면적 30,980㎡","priority_score":65,"source":"경기부동산포털 국공유지조회·연속지적도","source_date":"2026-08-11","installed_solar_match":false}},{"type":"Feature","id":"4129010700100020003","geometry":{"type":"Point","coordinates":[126.9794757,37.4256764]},"properties":{"pnu":"4129010700100020003","municipality_code":"41290","municipality":"과천시","district":"과천시","locality":"중앙동","address":"과천시 중앙동 2-3","owner_type":"국유지","owner_label":"국(중앙선거관리위원회)","manager":"","property_class":"","land_category":"대","area_sqm":24928.6,"area_band":"5,000㎡ 이상","interest_category":"대","solar_candidate":"Y","candidate_reason":"청사·공공건축물·주차장 현황 추가 확인 필요; 면적 24,929㎡","priority_score":65,"source":"경기부동산포털 국공유지조회·연속지적도","source_date":"2026-08-11","installed_solar_match":true,"installed_solar_count":5,"installed_solar_area_sqm":568.8,"installed_solar_analysis_years":["2024"],"installed_solar_types":["공공시설물"],"installed_solar_permit_status_counts":{"N":5}}},{"type":"Feature","id":"4129010700100060000","geometry":{"type":"Point","coordinates":[126.9886629,37.4271871]},"properties":{"pnu":"4129010700100060000","municipality_code":"41290","municipality":"과천시","district":"과천시","locality":"중앙동","address":"과천시 중앙동 6","owner_type":"국유지","owner_label":"국(기획재정부)","manager":"","property_class":"","land_category":"대","area_sqm":23611.1,"area_band":"5,000㎡ 이상","interest_category":"대","solar_candidate":"Y","candidate_reason":"청사·공공건축물·주차장 현황 추가 확인 필요; 면적 23,611㎡","priority_score":65,"source":"경기부동산포털 국공유지조회·연속지적도","source_date":"2026-08-11","installed_solar_match":false}},{"type":"Feature","id":"4129010700100020006","geometry":{"type":"Point","coordinates":[126.9797123,37.4241618]},"properties":{"pnu":"4129010700100020006","municipality_code":"41290","municipality":"과천시","district":"과천시","locality":"중앙동","address":"과천시 중앙동 2-6","owner_type":"국유지","owner_label":"국(교육부)","manager":"","property_class":"","land_category":"대","area_sqm":20595.4,"area_band":"5,000㎡ 이상","interest_category":"대","solar_candidate":"Y","candidate_reason":"청사·공공건축물·주차장 현황 추가 확인 필요; 면적 20,595㎡","priority_score":65,"source":"경기부동산포털 국공유지조회·연속지적도","source_date":"2026-08-11","installed_solar_match":false}},{"type":"Feature","id":"4129010700100040000","geometry":{"type":"Point","coordinates":[126.9857417,37.4241804]},"properties":{"pnu":"4129010700100040000","municipality_code":"41290","municipality":"과천시","district":"과천시","locality":"중앙동","address":"과천시 중앙동 4","owner_type":"국유지","owner_label":"국(행정자치부)","manager":"","property_class":"","land_category":"대","area_sqm":18984.9,"area_band":"5,000㎡ 이상","interest_category":"대","solar_candidate":"Y","candidate_reason":"청사·공공건축물·주차장 현황 추가 확인 필요; 면적 18,985㎡","priority_score":65,"source":"경기부동산포털 국공유지조회·연속지적도","source_date":"2026-08-11","installed_solar_match":false}},{"type":"Feature","id":"4129010700100020002","geometry":{"type":"Point","coordinates":[126.9760581,37.4241322]},"properties":{"pnu":"4129010700100020002","municipality_code":"41290","municipality":"과천시","district":"과천시","locality":"중앙동","address":"과천시 중앙동 2-2","owner_type":"국유지","owner_label":"국(인사혁신처)","manager":"","property_class":"","land_category":"대","area_sqm":17616.0,"area_band":"5,000㎡ 이상","interest_category":"대","solar_candidate":"Y","candidate_reason":"청사·공공건축물·주차장 현황 추가 확인 필요; 면적 17,616㎡","priority_score":65,"source":"경기부동산포털 국공유지조회·연속지적도","source_date":"2026-08-11","installed_solar_match":false}},{"type":"Feature","id":"4129010700100050004","geometry":{"type":"Point","coordinates":[126.9886437,37.424898]},"properties":{"pnu":"4129010700100050004","municipality_code":"41290","municipality":"과천시","district":"과천시","locality":"중앙동","address":"과천시 중앙동 5-4","owner_type":"국유지","owner_label":"국(행정자치부)","manager":"","property_class":"","land_category":"대","area_sqm":8806.4,"area_band":"5,000㎡ 이상","interest_category":"대","solar_candidate":"Y","candidate_reason":"청사·공공건축물·주차장 현황 추가 확인 필요; 면적 8,806㎡","priority_score":65,"source":"경기부동산포털 국공유지조회·연속지적도","source_date":"2026-08-11","installed_solar_match":false}},{"type":"Feature","id":"4129010700100020004","geometry":{"type":"Point","coordinates":[126.9812275,37.4263397]},"properties":{"pnu":"4129010700100020004","municipality_code":"41290","municipality":"과천시","district":"과천시","locality":"중앙동","address":"과천시 중앙동 2-4","owner_type":"국유지","owner_label":"국(행정자치부)","manager":"","property_class":"","land_category":"대","area_sqm":7033.0,"area_band":"5,000㎡ 이상","interest_category":"대","solar_candidate":"Y","candidate_reason":"청사·공공건축물·주차장 현황 추가 확인 필요; 면적 7,033㎡","priority_score":65,"source":"경기부동산포털 국공유지조회·연속지적도","source_date":"2026-08-11","installed_solar_match":false}},{"type":"Feature","id":"4129010700100390000","geometry":{"type":"Point","coordinates":[126.9898927,37.4292069]},"properties":{"pnu":"4129010700100390000","municipality_code":"41290","municipality":"과천시","district":"과천시","locality":"중앙동","address":"과천시 중앙동 39","owner_type":"국유지","owner_label":"국(경찰청)","manager":"","property_class":"","land_category":"대","area_sqm":6675.7,"area_band":"5,000㎡ 이상","interest_category":"대","solar_candidate":"Y","candidate_reason":"청사·공공건축물·주차장 현황 추가 확인 필요; 면적 6,676㎡","priority_score":65,"source":"경기부동산포털 국공유지조회·연속지적도","source_date":"2026-08-11","installed_solar_match":false}},{"type":"Feature","id":"4129010300105040003","geometry":{"type":"Point","coordinates":[126.9753653,37.4207014]},"properties":{"pnu":"4129010300105040003","municipality_code":"41290","municipality":"과천시","district":"과천시","locality":"갈현동","address":"과천시 갈현동 504-3","owner_type":"국유지","owner_label":"국(국방부)","manager":"","property_class":"","land_category":"잡종지","area_sqm":2786.0,"area_band":"1,000~3,000㎡","interest_category":"잡종지","solar_candidate":"Y","candidate_reason":"실제 이용·점유 여부 확인 후 검토할 잡종지; 면적 2,786㎡","priority_score":63,"source":"경기부동산포털 국공유지조회·연속지적도","source_date":"2026-08-11","installed_solar_match":false}},{"type":"Feature","id":"4129010300105210000","geometry":{"type":"Point","coordinates":[126.9724331,37.4193539]},"properties":{"pnu":"4129010300105210000","municipality_code":"41290","municipality":"과천시","district":"과천시","locality":"갈현동","address":"과천시 갈현동 521","owner_type":"국유지","owner_label":"국(국방부)","manager":"","property_class":"","land_category":"잡종지","area_sqm":1911.0,"area_band":"1,000~3,000㎡","interest_category":"잡종지","solar_candidate":"Y","candidate_reason":"실제 이용·점유 여부 확인 후 검토할 잡종지; 면적 1,911㎡","priority_score":63,"source":"경기부동산포털 국공유지조회·연속지적도","source_date":"2026-08-11","installed_solar_match":false}},{"type":"Feature","id":"4129010300104830002","geometry":{"type":"Point","coordinates":[126.975979,37.4188792]},"properties":{"pnu":"4129010300104830002","municipality_code":"41290","municipality":"과천시","district":"과천시","locality":"갈현동","address":"과천시 갈현동 483-2","owner_type":"국유지","owner_label":"국(국방부)","manager":"","property_class":"","land_category":"잡종지","area_sqm":1571.0,"area_band":"1,000~3,000㎡","interest_category":"잡종지","solar_candidate":"Y","candidate_reason":"실제 이용·점유 여부 확인 후 검토할 잡종지; 면적 1,571㎡","priority_score":63,"source":"경기부동산포털 국공유지조회·연속지적도","source_date":"2026-08-11","installed_solar_match":false}},{"type":"Feature","id":"4129010300104970004","geometry":{"type":"Point","coordinates":[126.976077,37.4192857]},"properties":{"pnu":"4129010300104970004","municipality_code":"41290","municipality":"과천시","district":"과천시","locality":"갈현동","address":"과천시 갈현동 497-4","owner_type":"국유지","owner_label":"국(국방부)","manager":"","property_class":"","land_category":"잡종지","area_sqm":1437.0,"area_band":"1,000~3,000㎡","interest_category":"잡종지","solar_candidate":"Y","candidate_reason":"실제 이용·점유 여부 확인 후 검토할 잡종지; 면적 1,437㎡","priority_score":63,"source":"경기부동산포털 국공유지조회·연속지적도","source_date":"2026-08-11","installed_solar_match":false}},{"type":"Feature","id":"4129010300105040001","geometry":{"type":"Point","coordinates":[126.974586,37.4205163]},"properties":{"pnu":"4129010300105040001","municipality_code":"41290","municipality":"과천시","district":"과천시","locality":"갈현동","address":"과천시 갈현동 504-1","owner_type":"국유지","owner_label":"국(국방부)","manager":"","property_class":"","land_category":"잡종지","area_sqm":1147.0,"area_band":"1,000~3,000㎡","interest_category":"잡종지","solar_candidate":"Y","candidate_reason":"실제 이용·점유 여부 확인 후 검토할 잡종지; 면적 1,147㎡","priority_score":63,"source":"경기부동산포털 국공유지조회·연속지적도","source_date":"2026-08-11","installed_solar_match":false}},{"type":"Feature","id":"4129010500105060039","geometry":{"type":"Point","coordinates":[126.9904201,37.4476911]},"properties":{"pnu":"4129010500105060039","municipality_code":"41290","municipality":"과천시","district":"과천시","locality":"과천동","address":"과천시 과천동 506-39","owner_type":"국유지","owner_label":"국(기획재정부)","manager":"","property_class":"","land_category":"잡종지","area_sqm":1113.0,"area_band":"1,000~3,000㎡","interest_category":"잡종지","solar_candidate":"Y","candidate_reason":"실제 이용·점유 여부 확인 후 검토할 잡종지; 면적 1,113㎡","priority_score":63,"source":"경기부동산포털 국공유지조회·연속지적도","source_date":"2026-08-11","installed_solar_match":false}},{"type":"Feature","id":"4129010300105040002","geometry":{"type":"Point","coordinates":[126.9748721,37.4205682]},"properties":{"pnu":"4129010300105040002","municipality_code":"41290","municipality":"과천시","district":"과천시","locality":"갈현동","address":"과천시 갈현동 504-2","owner_type":"국유지","owner_label":"국(국방부)","manager":"","property_class":"","land_category":"잡종지","area_sqm":1055.0,"area_band":"1,000~3,000㎡","interest_category":"잡종지","solar_candidate":"Y","candidate_reason":"실제 이용·점유 여부 확인 후 검토할 잡종지; 면적 1,055㎡","priority_score":63,"source":"경기부동산포털 국공유지조회·연속지적도","source_date":"2026-08-11","installed_solar_match":false}},{"type":"Feature","id":"4129010300106540001","geometry":{"type":"Point","coordinates":[126.9870767,37.4217049]},"properties":{"pnu":"4129010300106540001","municipality_code":"41290","municipality":"과천시","district":"과천시","locality":"갈현동","address":"과천시 갈현동 654-1","owner_type":"국유지","owner_label":"국(환경부)","manager":"","property_class":"","land_category":"대","area_sqm":4149.0,"area_band":"3,000~5,000㎡","interest_category":"대","solar_candidate":"Y","candidate_reason":"청사·공공건축물·주차장 현황 추가 확인 필요; 면적 4,149㎡","priority_score":60,"source":"경기부동산포털 국공유지조회·연속지적도","source_date":"2026-08-11","installed_solar_match":false}},{"type":"Feature","id":"4129010700100050003","geometry":{"type":"Point","coordinates":[126.9885051,37.425313]},"properties":{"pnu":"4129010700100050003","municipality_code":"41290","municipality":"과천시","district":"과천시","locality":"중앙동","address":"과천시 중앙동 5-3","owner_type":"국유지","owner_label":"국(행정자치부)","manager":"","property_class":"","land_category":"대","area_sqm":3572.4,"area_band":"3,000~5,000㎡","interest_category":"대","solar_candidate":"Y","candidate_reason":"청사·공공건축물·주차장 현황 추가 확인 필요; 면적 3,572㎡","priority_score":60,"source":"경기부동산포털 국공유지조회·연속지적도","source_date":"2026-08-11","installed_solar_match":false}},{"type":"Feature","id":"4129010700100420000","geometry":{"type":"Point","coordinates":[126.9887698,37.4336544]},"properties":{"pnu":"4129010700100420000","municipality_code":"41290","municipality":"과천시","district":"과천시","locality":"중앙동","address":"과천시 중앙동 42","owner_type":"국유지","owner_label":"국(기획재정부)","manager":"","property_class":"","land_category":"잡종지","area_sqm":600.1,"area_band":"500~1,000㎡","interest_category":"잡종지","solar_candidate":"검토필요","candidate_reason":"실제 이용·점유 여부 확인 후 검토할 잡종지; 면적 600㎡","priority_score":55,"source":"경기부동산포털 국공유지조회·연속지적도","source_date":"2026-08-11","installed_solar_match":false}},{"type":"Feature","id":"4129010700100060012","geometry":{"type":"Point","coordinates":[126.9893058,37.4266924]},"properties":{"pnu":"4129010700100060012","municipality_code":"41290","municipality":"과천시","district":"과천시","locality":"중앙동","address":"과천시 중앙동 6-12","owner_type":"국유지","owner_label":"국(국토교통부)","manager":"","property_class":"","land_category":"대","area_sqm":1670.5,"area_band":"1,000~3,000㎡","interest_category":"대","solar_candidate":"검토필요","candidate_reason":"청사·공공건축물·주차장 현황 추가 확인 필요; 면적 1,670㎡","priority_score":53,"source":"경기부동산포털 국공유지조회·연속지적도","source_date":"2026-08-11","installed_solar_match":false}},{"type":"Feature","id":"4129010900100100000","geometry":{"type":"Point","coordinates":[126.9935944,37.4237968]},"properties":{"pnu":"4129010900100100000","municipality_code":"41290","municipality":"과천시","district":"과천시","locality":"별양동","address":"과천시 별양동 10","owner_type":"국유지","owner_label":"국(과학기술정보통신부)","manager":"","property_class":"","land_category":"대","area_sqm":1648.3,"area_band":"1,000~3,000㎡","interest_category":"대","solar_candidate":"검토필요","candidate_reason":"청사·공공건축물·주차장 현황 추가 확인 필요; 면적 1,648㎡","priority_score":53,"source":"경기부동산포털 국공유지조회·연속지적도","source_date":"2026-08-11","installed_solar_match":false}},{"type":"Feature","id":"4129010300106610000","geometry":{"type":"Point","coordinates":[126.9889232,37.4231232]},"properties":{"pnu":"4129010300106610000","municipality_code":"41290","municipality":"과천시","district":"과천시","locality":"갈현동","address":"과천시 갈현동 661","owner_type":"국유지","owner_label":"국(환경부)","manager":"","property_class":"","land_category":"대","area_sqm":1024.8,"area_band":"1,000~3,000㎡","interest_category":"대","solar_candidate":"검토필요","candidate_reason":"청사·공공건축물·주차장 현황 추가 확인 필요; 면적 1,025㎡","priority_score":53,"source":"경기부동산포털 국공유지조회·연속지적도","source_date":"2026-08-11","installed_solar_match":false}},{"type":"Feature","id":"4129010500105120000","geometry":{"type":"Point","coordinates":[126.993156,37.4483849]},"properties":{"pnu":"4129010500105120000","municipality_code":"41290","municipality":"과천시","district":"과천시","locality":"과천동","address":"과천시 과천동 512","owner_type":"국유지","owner_label":"국(국방부)","manager":"","property_class":"","land_category":"대","area_sqm":1002.0,"area_band":"1,000~3,000㎡","interest_category":"대","solar_candidate":"검토필요","candidate_reason":"청사·공공건축물·주차장 현황 추가 확인 필요; 면적 1,002㎡","priority_score":53,"source":"경기부동산포털 국공유지조회·연속지적도","source_date":"2026-08-11","installed_solar_match":false}},{"type":"Feature","id":"4129010300105260003","geometry":{"type":"Point","coordinates":[126.9729187,37.4180817]},"properties":{"pnu":"4129010300105260003","municipality_code":"41290","municipality":"과천시","district":"과천시","locality":"갈현동","address":"과천시 갈현동 526-3","owner_type":"국유지","owner_label":"국(국방부)","manager":"","property_class":"","land_category":"잡종지","area_sqm":398.0,"area_band":"100~500㎡","interest_category":"잡종지","solar_candidate":"검토필요","candidate_reason":"실제 이용·점유 여부 확인 후 검토할 잡종지; 면적 398㎡","priority_score":50,"source":"경기부동산포털 국공유지조회·연속지적도","source_date":"2026-08-11","installed_solar_match":false}},{"type":"Feature","id":"4129010300106320000","geometry":{"type":"Point","coordinates":[126.9745881,37.42033]},"properties":{"pnu":"4129010300106320000","municipality_code":"41290","municipality":"과천시","district":"과천시","locality":"갈현동","address":"과천시 갈현동 632","owner_type":"국유지","owner_label":"국(국방부)","manager":"","property_class":"","land_category":"잡종지","area_sqm":378.0,"area_band":"100~500㎡","interest_category":"잡종지","solar_candidate":"검토필요","candidate_reason":"실제 이용·점유 여부 확인 후 검토할 잡종지; 면적 378㎡","priority_score":50,"source":"경기부동산포털 국공유지조회·연속지적도","source_date":"2026-08-11","installed_solar_match":false}},{"type":"Feature","id":"4129010300105030000","geometry":{"type":"Point","coordinates":[126.975695,37.4207425]},"properties":{"pnu":"4129010300105030000","municipality_code":"41290","municipality":"과천시","district":"과천시","locality":"갈현동","address":"과천시 갈현동 503","owner_type":"국유지","owner_label":"국(국방부)","manager":"","property_class":"","land_category":"잡종지","area_sqm":341.0,"area_band":"100~500㎡","interest_category":"잡종지","solar_candidate":"검토필요","candidate_reason":"실제 이용·점유 여부 확인 후 검토할 잡종지; 면적 341㎡","priority_score":50,"source":"경기부동산포털 국공유지조회·연속지적도","source_date":"2026-08-11","installed_solar_match":false}},{"type":"Feature","id":"4129010300105260001","geometry":{"type":"Point","coordinates":[126.9731887,37.4178859]},"properties":{"pnu":"4129010300105260001","municipality_code":"41290","municipality":"과천시","district":"과천시","locality":"갈현동","address":"과천시 갈현동 526-1","owner_type":"국유지","owner_label":"국(국방부)","manager":"","property_class":"","land_category":"잡종지","area_sqm":166.0,"area_band":"100~500㎡","interest_category":"잡종지","solar_candidate":"검토필요","candidate_reason":"실제 이용·점유 여부 확인 후 검토할 잡종지; 면적 166㎡","priority_score":50,"source":"경기부동산포털 국공유지조회·연속지적도","source_date":"2026-08-11","installed_solar_match":false}},{"type":"Feature","id":"4129010700100060011","geometry":{"type":"Point","coordinates":[126.9896643,37.4270821]},"properties":{"pnu":"4129010700100060011","municipality_code":"41290","municipality":"과천시","district":"과천시","locality":"중앙동","address":"과천시 중앙동 6-11","owner_type":"국유지","owner_label":"국(국토교통부)","manager":"","property_class":"","land_category":"대","area_sqm":970.4,"area_band":"500~1,000㎡","interest_category":"대","solar_candidate":"검토필요","candidate_reason":"청사·공공건축물·주차장 현황 추가 확인 필요; 면적 970㎡","priority_score":45,"source":"경기부동산포털 국공유지조회·연속지적도","source_date":"2026-08-11","installed_solar_match":false}},{"type":"Feature","id":"4129010500107580002","geometry":{"type":"Point","coordinates":[127.0059662,37.4409577]},"properties":{"pnu":"4129010500107580002","municipality_code":"41290","municipality":"과천시","district":"과천시","locality":"과천동","address":"과천시 과천동 758-2","owner_type":"국유지","owner_label":"국(과학기술정보통신부)","manager":"","property_class":"","land_category":"대","area_sqm":831.7,"area_band":"500~1,000㎡","interest_category":"대","solar_candidate":"검토필요","candidate_reason":"청사·공공건축물·주차장 현황 추가 확인 필요; 면적 832㎡","priority_score":45,"source":"경기부동산포털 국공유지조회·연속지적도","source_date":"2026-08-11","installed_solar_match":false}},{"type":"Feature","id":"4129010400104990003","geometry":{"type":"Point","coordinates":[127.0180231,37.4313076]},"properties":{"pnu":"4129010400104990003","municipality_code":"41290","municipality":"과천시","district":"과천시","locality":"막계동","address":"과천시 막계동 499-3","owner_type":"국유지","owner_label":"국(문화체육관광부)","manager":"","property_class":"","land_category":"대","area_sqm":827.0,"area_band":"500~1,000㎡","interest_category":"대","solar_candidate":"검토필요","candidate_reason":"청사·공공건축물·주차장 현황 추가 확인 필요; 면적 827㎡","priority_score":45,"source":"경기부동산포털 국공유지조회·연속지적도","source_date":"2026-08-11","installed_solar_match":false}},{"type":"Feature","id":"4129010600102800000","geometry":{"type":"Point","coordinates":[127.0285487,37.4513834]},"properties":{"pnu":"4129010600102800000","municipality_code":"41290","municipality":"과천시","district":"과천시","locality":"주암동","address":"과천시 주암동 280","owner_type":"국유지","owner_label":"국(국방부)","manager":"","property_class":"","land_category":"대","area_sqm":807.0,"area_band":"500~1,000㎡","interest_category":"대","solar_candidate":"검토필요","candidate_reason":"청사·공공건축물·주차장 현황 추가 확인 필요; 면적 807㎡","priority_score":45,"source":"경기부동산포털 국공유지조회·연속지적도","source_date":"2026-08-11","installed_solar_match":false}},{"type":"Feature","id":"4129010300108500000","geometry":{"type":"Point","coordinates":[126.9827562,37.4094841]},"properties":{"pnu":"4129010300108500000","municipality_code":"41290","municipality":"과천시","district":"과천시","locality":"갈현동","address":"과천시 갈현동 850","owner_type":"국유지","owner_label":"국(경찰청)","manager":"","property_class":"","land_category":"대","area_sqm":660.5,"area_band":"500~1,000㎡","interest_category":"대","solar_candidate":"검토필요","candidate_reason":"청사·공공건축물·주차장 현황 추가 확인 필요; 면적 660㎡","priority_score":45,"source":"경기부동산포털 국공유지조회·연속지적도","source_date":"2026-08-11","installed_solar_match":false}},{"type":"Feature","id":"4129010500105130002","geometry":{"type":"Point","coordinates":[126.9933767,37.4479981]},"properties":{"pnu":"4129010500105130002","municipality_code":"41290","municipality":"과천시","district":"과천시","locality":"과천동","address":"과천시 과천동 513-2","owner_type":"국유지","owner_label":"국(국방부)","manager":"","property_class":"","land_category":"대","area_sqm":621.0,"area_band":"500~1,000㎡","interest_category":"대","solar_candidate":"검토필요","candidate_reason":"청사·공공건축물·주차장 현황 추가 확인 필요; 면적 621㎡","priority_score":45,"source":"경기부동산포털 국공유지조회·연속지적도","source_date":"2026-08-11","installed_solar_match":false}},{"type":"Feature","id":"4129010200102870001","geometry":{"type":"Point","coordinates":[126.9977424,37.4228227]},"properties":{"pnu":"4129010200102870001","municipality_code":"41290","municipality":"과천시","district":"과천시","locality":"문원동","address":"과천시 문원동 287-1","owner_type":"국유지","owner_label":"국(국토교통부)","manager":"","property_class":"","land_category":"도로","area_sqm":54704.0,"area_band":"5,000㎡ 이상","interest_category":"도로","solar_candidate":"검토필요","candidate_reason":"도로점용 및 실제 이용형태 추가 검토 필요; 면적 54,704㎡","priority_score":40,"source":"경기부동산포털 국공유지조회·연속지적도","source_date":"2026-08-11","installed_solar_match":false}},{"type":"Feature","id":"4129010400109950002","geometry":{"type":"Point","coordinates":[127.0022092,37.4344368]},"properties":{"pnu":"4129010400109950002","municipality_code":"41290","municipality":"과천시","district":"과천시","locality":"막계동","address":"과천시 막계동 995-2","owner_type":"국유지","owner_label":"국(국토교통부)","manager":"","property_class":"","land_category":"도로","area_sqm":29914.0,"area_band":"5,000㎡ 이상","interest_category":"도로","solar_candidate":"검토필요","candidate_reason":"도로점용 및 실제 이용형태 추가 검토 필요; 면적 29,914㎡","priority_score":40,"source":"경기부동산포털 국공유지조회·연속지적도","source_date":"2026-08-11","installed_solar_match":false}},{"type":"Feature","id":"4129010700100880000","geometry":{"type":"Point","coordinates":[126.9967838,37.4352053]},"properties":{"pnu":"4129010700100880000","municipality_code":"41290","municipality":"과천시","district":"과천시","locality":"중앙동","address":"과천시 중앙동 88","owner_type":"국유지","owner_label":"국(국토교통부)","manager":"","property_class":"","land_category":"도로","area_sqm":23028.8,"area_band":"5,000㎡ 이상","interest_category":"도로","solar_candidate":"검토필요","candidate_reason":"도로점용 및 실제 이용형태 추가 검토 필요; 면적 23,029㎡","priority_score":40,"source":"경기부동산포털 국공유지조회·연속지적도","source_date":"2026-08-11","installed_solar_match":false}},{"type":"Feature","id":"4129010100100510000","geometry":{"type":"Point","coordinates":[126.9943549,37.442382]},"properties":{"pnu":"4129010100100510000","municipality_code":"41290","municipality":"과천시","district":"과천시","locality":"관문동","address":"과천시 관문동 51","owner_type":"국유지","owner_label":"국(국토교통부)","manager":"","property_class":"","land_category":"도로","area_sqm":17536.0,"area_band":"5,000㎡ 이상","interest_category":"도로","solar_candidate":"검토필요","candidate_reason":"도로점용 및 실제 이용형태 추가 검토 필요; 면적 17,536㎡","priority_score":40,"source":"경기부동산포털 국공유지조회·연속지적도","source_date":"2026-08-11","installed_solar_match":false}},{"type":"Feature","id":"4129010200103890000","geometry":{"type":"Point","coordinates":[126.9954277,37.4211191]},"properties":{"pnu":"4129010200103890000","municipality_code":"41290","municipality":"과천시","district":"과천시","locality":"문원동","address":"과천시 문원동 389","owner_type":"국유지","owner_label":"국(국토교통부)","manager":"","property_class":"","land_category":"도로","area_sqm":15293.0,"area_band":"5,000㎡ 이상","interest_category":"도로","solar_candidate":"검토필요","candidate_reason":"도로점용 및 실제 이용형태 추가 검토 필요; 면적 15,293㎡","priority_score":40,"source":"경기부동산포털 국공유지조회·연속지적도","source_date":"2026-08-11","installed_solar_match":false}},{"type":"Feature","id":"4129010200102280001","geometry":{"type":"Point","coordinates":[126.9989737,37.4251174]},"properties":{"pnu":"4129010200102280001","municipality_code":"41290","municipality":"과천시","district":"과천시","locality":"문원동","address":"과천시 문원동 228-1","owner_type":"국유지","owner_label":"국(국토교통부)","manager":"","property_class":"","land_category":"도로","area_sqm":14056.0,"area_band":"5,000㎡ 이상","interest_category":"도로","solar_candidate":"검토필요","candidate_reason":"도로점용 및 실제 이용형태 추가 검토 필요; 면적 14,056㎡","priority_score":40,"source":"경기부동산포털 국공유지조회·연속지적도","source_date":"2026-08-11","installed_solar_match":false}},{"type":"Feature","id":"4129010200101960002","geometry":{"type":"Point","coordinates":[126.9999014,37.4265355]},"properties":{"pnu":"4129010200101960002","municipality_code":"41290","municipality":"과천시","district":"과천시","locality":"문원동","address":"과천시 문원동 196-2","owner_type":"국유지","owner_label":"국(국토교통부)","manager":"","property_class":"","land_category":"도로","area_sqm":13976.0,"area_band":"5,000㎡ 이상","interest_category":"도로","solar_candidate":"검토필요","candidate_reason":"도로점용 및 실제 이용형태 추가 검토 필요; 면적 13,976㎡","priority_score":40,"source":"경기부동산포털 국공유지조회·연속지적도","source_date":"2026-08-11","installed_solar_match":false}},{"type":"Feature","id":"4129010900100570000","geometry":{"type":"Point","coordinates":[126.9946542,37.42568]},"properties":{"pnu":"4129010900100570000","municipality_code":"41290","municipality":"과천시","district":"과천시","locality":"별양동","address":"과천시 별양동 57","owner_type":"국유지","owner_label":"국(국토교통부)","manager":"","property_class":"","land_category":"도로","area_sqm":12976.0,"area_band":"5,000㎡ 이상","interest_category":"도로","solar_candidate":"검토필요","candidate_reason":"도로점용 및 실제 이용형태 추가 검토 필요; 면적 12,976㎡","priority_score":40,"source":"경기부동산포털 국공유지조회·연속지적도","source_date":"2026-08-11","installed_solar_match":false}},{"type":"Feature","id":"4129010200100330003","geometry":{"type":"Point","coordinates":[127.001101,37.4290096]},"properties":{"pnu":"4129010200100330003","municipality_code":"41290","municipality":"과천시","district":"과천시","locality":"문원동","address":"과천시 문원동 33-3","owner_type":"국유지","owner_label":"국(국토교통부)","manager":"","property_class":"","land_category":"도로","area_sqm":11892.0,"area_band":"5,000㎡ 이상","interest_category":"도로","solar_candidate":"검토필요","candidate_reason":"도로점용 및 실제 이용형태 추가 검토 필요; 면적 11,892㎡","priority_score":40,"source":"경기부동산포털 국공유지조회·연속지적도","source_date":"2026-08-11","installed_solar_match":false}},{"type":"Feature","id":"4129010500107580001","geometry":{"type":"Point","coordinates":[127.0049815,37.4410816]},"properties":{"pnu":"4129010500107580001","municipality_code":"41290","municipality":"과천시","district":"과천시","locality":"과천동","address":"과천시 과천동 758-1","owner_type":"국유지","owner_label":"국(과학기술정보통신부)","manager":"","property_class":"","land_category":"도로","area_sqm":11144.8,"area_band":"5,000㎡ 이상","interest_category":"도로","solar_candidate":"검토필요","candidate_reason":"도로점용 및 실제 이용형태 추가 검토 필요; 면적 11,145㎡","priority_score":40,"source":"경기부동산포털 국공유지조회·연속지적도","source_date":"2026-08-11","installed_solar_match":false}},{"type":"Feature","id":"4129010700100440000","geometry":{"type":"Point","coordinates":[126.9889225,37.4335475]},"properties":{"pnu":"4129010700100440000","municipality_code":"41290","municipality":"과천시","district":"과천시","locality":"중앙동","address":"과천시 중앙동 44","owner_type":"국유지","owner_label":"국(국토교통부)","manager":"","property_class":"","land_category":"도로","area_sqm":9059.8,"area_band":"5,000㎡ 이상","interest_category":"도로","solar_candidate":"검토필요","candidate_reason":"도로점용 및 실제 이용형태 추가 검토 필요; 면적 9,060㎡","priority_score":40,"source":"경기부동산포털 국공유지조회·연속지적도","source_date":"2026-08-11","installed_solar_match":false}},{"type":"Feature","id":"4129010900100810000","geometry":{"type":"Point","coordinates":[126.9931427,37.429856]},"properties":{"pnu":"4129010900100810000","municipality_code":"41290","municipality":"과천시","district":"과천시","locality":"별양동","address":"과천시 별양동 81","owner_type":"국유지","owner_label":"국(국토교통부)","manager":"","property_class":"","land_category":"도로","area_sqm":8914.4,"area_band":"5,000㎡ 이상","interest_category":"도로","solar_candidate":"검토필요","candidate_reason":"도로점용 및 실제 이용형태 추가 검토 필요; 면적 8,914㎡","priority_score":40,"source":"경기부동산포털 국공유지조회·연속지적도","source_date":"2026-08-11","installed_solar_match":false}},{"type":"Feature","id":"4129010700100600000","geometry":{"type":"Point","coordinates":[126.9930083,37.4299395]},"properties":{"pnu":"4129010700100600000","municipality_code":"41290","municipality":"과천시","district":"과천시","locality":"중앙동","address":"과천시 중앙동 60","owner_type":"국유지","owner_label":"국(국토교통부)","manager":"","property_class":"","land_category":"도로","area_sqm":8853.5,"area_band":"5,000㎡ 이상","interest_category":"도로","solar_candidate":"검토필요","candidate_reason":"도로점용 및 실제 이용형태 추가 검토 필요; 면적 8,854㎡","priority_score":40,"source":"경기부동산포털 국공유지조회·연속지적도","source_date":"2026-08-11","installed_solar_match":false}},{"type":"Feature","id":"4129010400109860001","geometry":{"type":"Point","coordinates":[127.0009682,37.4372477]},"properties":{"pnu":"4129010400109860001","municipality_code":"41290","municipality":"과천시","district":"과천시","locality":"막계동","address":"과천시 막계동 986-1","owner_type":"국유지","owner_label":"국(국토교통부)","manager":"","property_class":"","land_category":"도로","area_sqm":8348.0,"area_band":"5,000㎡ 이상","interest_category":"도로","solar_candidate":"검토필요","candidate_reason":"도로점용 및 실제 이용형태 추가 검토 필요; 면적 8,348㎡","priority_score":40,"source":"경기부동산포털 국공유지조회·연속지적도","source_date":"2026-08-11","installed_solar_match":false}},{"type":"Feature","id":"4129010300100080002","geometry":{"type":"Point","coordinates":[126.9862211,37.417092]},"properties":{"pnu":"4129010300100080002","municipality_code":"41290","municipality":"과천시","district":"과천시","locality":"갈현동","address":"과천시 갈현동 8-2","owner_type":"국유지","owner_label":"국(국토교통부)","manager":"","property_class":"","land_category":"도로","area_sqm":8243.0,"area_band":"5,000㎡ 이상","interest_category":"도로","solar_candidate":"검토필요","candidate_reason":"도로점용 및 실제 이용형태 추가 검토 필요; 면적 8,243㎡","priority_score":40,"source":"경기부동산포털 국공유지조회·연속지적도","source_date":"2026-08-11","installed_solar_match":false}},{"type":"Feature","id":"4129010200100860002","geometry":{"type":"Point","coordinates":[127.0005062,37.4278038]},"properties":{"pnu":"4129010200100860002","municipality_code":"41290","municipality":"과천시","district":"과천시","locality":"문원동","address":"과천시 문원동 86-2","owner_type":"국유지","owner_label":"국(국토교통부)","manager":"","property_class":"","land_category":"도로","area_sqm":8121.0,"area_band":"5,000㎡ 이상","interest_category":"도로","solar_candidate":"검토필요","candidate_reason":"도로점용 및 실제 이용형태 추가 검토 필요; 면적 8,121㎡","priority_score":40,"source":"경기부동산포털 국공유지조회·연속지적도","source_date":"2026-08-11","installed_solar_match":false}},{"type":"Feature","id":"4129010300103020003","geometry":{"type":"Point","coordinates":[126.978157,37.4040819]},"properties":{"pnu":"4129010300103020003","municipality_code":"41290","municipality":"과천시","district":"과천시","locality":"갈현동","address":"과천시 갈현동 302-3","owner_type":"국유지","owner_label":"국(국토교통부)","manager":"","property_class":"","land_category":"도로","area_sqm":7845.0,"area_band":"5,000㎡ 이상","interest_category":"도로","solar_candidate":"검토필요","candidate_reason":"도로점용 및 실제 이용형태 추가 검토 필요; 면적 7,845㎡","priority_score":40,"source":"경기부동산포털 국공유지조회·연속지적도","source_date":"2026-08-11","installed_solar_match":false}},{"type":"Feature","id":"4129010800100090000","geometry":{"type":"Point","coordinates":[126.9895398,37.42551]},"properties":{"pnu":"4129010800100090000","municipality_code":"41290","municipality":"과천시","district":"과천시","locality":"원문동","address":"과천시 원문동 9","owner_type":"국유지","owner_label":"국(국토교통부)","manager":"","property_class":"","land_category":"도로","area_sqm":7480.2,"area_band":"5,000㎡ 이상","interest_category":"도로","solar_candidate":"검토필요","candidate_reason":"도로점용 및 실제 이용형태 추가 검토 필요; 면적 7,480㎡","priority_score":40,"source":"경기부동산포털 국공유지조회·연속지적도","source_date":"2026-08-11","installed_solar_match":false}},{"type":"Feature","id":"4129010300100790001","geometry":{"type":"Point","coordinates":[126.9796707,37.4081118]},"properties":{"pnu":"4129010300100790001","municipality_code":"41290","municipality":"과천시","district":"과천시","locality":"갈현동","address":"과천시 갈현동 79-1","owner_type":"국유지","owner_label":"국(국토교통부)","manager":"","property_class":"","land_category":"도로","area_sqm":6946.0,"area_band":"5,000㎡ 이상","interest_category":"도로","solar_candidate":"검토필요","candidate_reason":"도로점용 및 실제 이용형태 추가 검토 필요; 면적 6,946㎡","priority_score":40,"source":"경기부동산포털 국공유지조회·연속지적도","source_date":"2026-08-11","installed_solar_match":false}},{"type":"Feature","id":"4129010700100610000","geometry":{"type":"Point","coordinates":[126.9903758,37.4269252]},"properties":{"pnu":"4129010700100610000","municipality_code":"41290","municipality":"과천시","district":"과천시","locality":"중앙동","address":"과천시 중앙동 61","owner_type":"국유지","owner_label":"국(국토교통부)","manager":"","property_class":"","land_category":"도로","area_sqm":6866.9,"area_band":"5,000㎡ 이상","interest_category":"도로","solar_candidate":"검토필요","candidate_reason":"도로점용 및 실제 이용형태 추가 검토 필요; 면적 6,867㎡","priority_score":40,"source":"경기부동산포털 국공유지조회·연속지적도","source_date":"2026-08-11","installed_solar_match":false}},{"type":"Feature","id":"4129010300106630000","geometry":{"type":"Point","coordinates":[126.9888285,37.421799]},"properties":{"pnu":"4129010300106630000","municipality_code":"41290","municipality":"과천시","district":"과천시","locality":"갈현동","address":"과천시 갈현동 663","owner_type":"국유지","owner_label":"국(건설부)","manager":"","property_class":"","land_category":"도로","area_sqm":6675.8,"area_band":"5,000㎡ 이상","interest_category":"도로","solar_candidate":"검토필요","candidate_reason":"도로점용 및 실제 이용형태 추가 검토 필요; 면적 6,676㎡","priority_score":40,"source":"경기부동산포털 국공유지조회·연속지적도","source_date":"2026-08-11","installed_solar_match":false}},{"type":"Feature","id":"4129010200105400032","geometry":{"type":"Point","coordinates":[126.9930905,37.4183017]},"properties":{"pnu":"4129010200105400032","municipality_code":"41290","municipality":"과천시","district":"과천시","locality":"문원동","address":"과천시 문원동 540-32","owner_type":"국유지","owner_label":"국(국토교통부)","manager":"","property_class":"","land_category":"도로","area_sqm":6503.0,"area_band":"5,000㎡ 이상","interest_category":"도로","solar_candidate":"검토필요","candidate_reason":"도로점용 및 실제 이용형태 추가 검토 필요; 면적 6,503㎡","priority_score":40,"source":"경기부동산포털 국공유지조회·연속지적도","source_date":"2026-08-11","installed_solar_match":false}},{"type":"Feature","id":"4129010400201360006","geometry":{"type":"Point","coordinates":[127.0024636,37.4320359]},"properties":{"pnu":"4129010400201360006","municipality_code":"41290","municipality":"과천시","district":"과천시","locality":"막계동","address":"과천시 막계동 산136-6","owner_type":"국유지","owner_label":"국(국토교통부)","manager":"","property_class":"","land_category":"도로","area_sqm":6281.0,"area_band":"5,000㎡ 이상","interest_category":"도로","solar_candidate":"검토필요","candidate_reason":"도로점용 및 실제 이용형태 추가 검토 필요; 면적 6,281㎡","priority_score":40,"source":"경기부동산포털 국공유지조회·연속지적도","source_date":"2026-08-11","installed_solar_match":false}},{"type":"Feature","id":"4129010400201370005","geometry":{"type":"Point","coordinates":[127.0021025,37.4313239]},"properties":{"pnu":"4129010400201370005","municipality_code":"41290","municipality":"과천시","district":"과천시","locality":"막계동","address":"과천시 막계동 산137-5","owner_type":"국유지","owner_label":"국(국토교통부)","manager":"","property_class":"","land_category":"도로","area_sqm":6206.0,"area_band":"5,000㎡ 이상","interest_category":"도로","solar_candidate":"검토필요","candidate_reason":"도로점용 및 실제 이용형태 추가 검토 필요; 면적 6,206㎡","priority_score":40,"source":"경기부동산포털 국공유지조회·연속지적도","source_date":"2026-08-11","installed_solar_match":false}},{"type":"Feature","id":"4129010300102430003","geometry":{"type":"Point","coordinates":[126.9830318,37.4083144]},"properties":{"pnu":"4129010300102430003","municipality_code":"41290","municipality":"과천시","district":"과천시","locality":"갈현동","address":"과천시 갈현동 243-3","owner_type":"국유지","owner_label":"국(국토교통부)","manager":"","property_class":"","land_category":"도로","area_sqm":6068.0,"area_band":"5,000㎡ 이상","interest_category":"도로","solar_candidate":"검토필요","candidate_reason":"도로점용 및 실제 이용형태 추가 검토 필요; 면적 6,068㎡","priority_score":40,"source":"경기부동산포털 국공유지조회·연속지적도","source_date":"2026-08-11","installed_solar_match":false}},{"type":"Feature","id":"4129010300100200001","geometry":{"type":"Point","coordinates":[126.9850281,37.415979]},"properties":{"pnu":"4129010300100200001","municipality_code":"41290","municipality":"과천시","district":"과천시","locality":"갈현동","address":"과천시 갈현동 20-1","owner_type":"국유지","owner_label":"국(국토교통부)","manager":"","property_class":"","land_category":"도로","area_sqm":5651.0,"area_band":"5,000㎡ 이상","interest_category":"도로","solar_candidate":"검토필요","candidate_reason":"도로점용 및 실제 이용형태 추가 검토 필요; 면적 5,651㎡","priority_score":40,"source":"경기부동산포털 국공유지조회·연속지적도","source_date":"2026-08-11","installed_solar_match":false}},{"type":"Feature","id":"4129010300106860000","geometry":{"type":"Point","coordinates":[126.98783,37.4176628]},"properties":{"pnu":"4129010300106860000","municipality_code":"41290","municipality":"과천시","district":"과천시","locality":"갈현동","address":"과천시 갈현동 686","owner_type":"국유지","owner_label":"국(국토교통부)","manager":"","property_class":"","land_category":"도로","area_sqm":5257.0,"area_band":"5,000㎡ 이상","interest_category":"도로","solar_candidate":"검토필요","candidate_reason":"도로점용 및 실제 이용형태 추가 검토 필요; 면적 5,257㎡","priority_score":40,"source":"경기부동산포털 국공유지조회·연속지적도","source_date":"2026-08-11","installed_solar_match":false}},{"type":"Feature","id":"4129010900100820000","geometry":{"type":"Point","coordinates":[126.9962431,37.4333035]},"properties":{"pnu":"4129010900100820000","municipality_code":"41290","municipality":"과천시","district":"과천시","locality":"별양동","address":"과천시 별양동 82","owner_type":"국유지","owner_label":"국(국토교통부)","manager":"","property_class":"","land_category":"도로","area_sqm":5224.8,"area_band":"5,000㎡ 이상","interest_category":"도로","solar_candidate":"검토필요","candidate_reason":"도로점용 및 실제 이용형태 추가 검토 필요; 면적 5,225㎡","priority_score":40,"source":"경기부동산포털 국공유지조회·연속지적도","source_date":"2026-08-11","installed_solar_match":false}},{"type":"Feature","id":"4129010600200020002","geometry":{"type":"Point","coordinates":[127.0336753,37.4599128]},"properties":{"pnu":"4129010600200020002","municipality_code":"41290","municipality":"과천시","district":"과천시","locality":"주암동","address":"과천시 주암동 산2-2","owner_type":"국유지","owner_label":"국(국토교통부)","manager":"","property_class":"","land_category":"도로","area_sqm":5048.0,"area_band":"5,000㎡ 이상","interest_category":"도로","solar_candidate":"검토필요","candidate_reason":"도로점용 및 실제 이용형태 추가 검토 필요; 면적 5,048㎡","priority_score":40,"source":"경기부동산포털 국공유지조회·연속지적도","source_date":"2026-08-11","installed_solar_match":false}},{"type":"Feature","id":"4129010800100010000","geometry":{"type":"Point","coordinates":[126.9897948,37.4248958]},"properties":{"pnu":"4129010800100010000","municipality_code":"41290","municipality":"과천시","district":"과천시","locality":"원문동","address":"과천시 원문동 1","owner_type":"국유지","owner_label":"국(기획재정부)","manager":"","property_class":"","land_category":"공원","area_sqm":4826.6,"area_band":"3,000~5,000㎡","interest_category":"공원","solar_candidate":"검토필요","candidate_reason":"도시공원 관련 법령 및 공원시설 기준 검토 필요; 면적 4,827㎡","priority_score":40,"source":"경기부동산포털 국공유지조회·연속지적도","source_date":"2026-08-11","installed_solar_match":false}},{"type":"Feature","id":"4129010600107120000","geometry":{"type":"Point","coordinates":[127.026692,37.4490739]},"properties":{"pnu":"4129010600107120000","municipality_code":"41290","municipality":"과천시","district":"과천시","locality":"주암동","address":"과천시 주암동 712","owner_type":"국유지","owner_label":"국(기획재정부)","manager":"","property_class":"","land_category":"대","area_sqm":469.0,"area_band":"100~500㎡","interest_category":"대","solar_candidate":"검토필요","candidate_reason":"청사·공공건축물·주차장 현황 추가 확인 필요; 면적 469㎡","priority_score":40,"source":"경기부동산포털 국공유지조회·연속지적도","source_date":"2026-08-11","installed_solar_match":false}},{"type":"Feature","id":"4129010600107280000","geometry":{"type":"Point","coordinates":[127.0246587,37.4508307]},"properties":{"pnu":"4129010600107280000","municipality_code":"41290","municipality":"과천시","district":"과천시","locality":"주암동","address":"과천시 주암동 728","owner_type":"국유지","owner_label":"국(기획재정부)","manager":"","property_class":"","land_category":"대","area_sqm":390.0,"area_band":"100~500㎡","interest_category":"대","solar_candidate":"검토필요","candidate_reason":"청사·공공건축물·주차장 현황 추가 확인 필요; 면적 390㎡","priority_score":40,"source":"경기부동산포털 국공유지조회·연속지적도","source_date":"2026-08-11","installed_solar_match":false}},{"type":"Feature","id":"4129010700100050002","geometry":{"type":"Point","coordinates":[126.9890405,37.424817]},"properties":{"pnu":"4129010700100050002","municipality_code":"41290","municipality":"과천시","district":"과천시","locality":"중앙동","address":"과천시 중앙동 5-2","owner_type":"국유지","owner_label":"국(건설부)","manager":"","property_class":"","land_category":"대","area_sqm":379.6,"area_band":"100~500㎡","interest_category":"대","solar_candidate":"검토필요","candidate_reason":"청사·공공건축물·주차장 현황 추가 확인 필요; 면적 380㎡","priority_score":40,"source":"경기부동산포털 국공유지조회·연속지적도","source_date":"2026-08-11","installed_solar_match":false}},{"type":"Feature","id":"4129010800100020002","geometry":{"type":"Point","coordinates":[126.9893885,37.4238611]},"properties":{"pnu":"4129010800100020002","municipality_code":"41290","municipality":"과천시","district":"과천시","locality":"원문동","address":"과천시 원문동 2-2","owner_type":"국유지","owner_label":"국(건설부)","manager":"","property_class":"","land_category":"대","area_sqm":360.2,"area_band":"100~500㎡","interest_category":"대","solar_candidate":"검토필요","candidate_reason":"청사·공공건축물·주차장 현황 추가 확인 필요; 면적 360㎡","priority_score":40,"source":"경기부동산포털 국공유지조회·연속지적도","source_date":"2026-08-11","installed_solar_match":false}},{"type":"Feature","id":"4129010600107330000","geometry":{"type":"Point","coordinates":[127.02544,37.4465707]},"properties":{"pnu":"4129010600107330000","municipality_code":"41290","municipality":"과천시","district":"과천시","locality":"주암동","address":"과천시 주암동 733","owner_type":"국유지","owner_label":"국(기획재정부)","manager":"","property_class":"","land_category":"대","area_sqm":344.0,"area_band":"100~500㎡","interest_category":"대","solar_candidate":"검토필요","candidate_reason":"청사·공공건축물·주차장 현황 추가 확인 필요; 면적 344㎡","priority_score":40,"source":"경기부동산포털 국공유지조회·연속지적도","source_date":"2026-08-11","installed_solar_match":false}},{"type":"Feature","id":"4129010600103070000","geometry":{"type":"Point","coordinates":[127.0273553,37.4492247]},"properties":{"pnu":"4129010600103070000","municipality_code":"41290","municipality":"과천시","district":"과천시","locality":"주암동","address":"과천시 주암동 307","owner_type":"국유지","owner_label":"국(국방부)","manager":"","property_class":"","land_category":"대","area_sqm":330.0,"area_band":"100~500㎡","interest_category":"대","solar_candidate":"검토필요","candidate_reason":"청사·공공건축물·주차장 현황 추가 확인 필요; 면적 330㎡","priority_score":40,"source":"경기부동산포털 국공유지조회·연속지적도","source_date":"2026-08-11","installed_solar_match":false}},{"type":"Feature","id":"4129010700100040001","geometry":{"type":"Point","coordinates":[126.9870933,37.4239515]},"properties":{"pnu":"4129010700100040001","municipality_code":"41290","municipality":"과천시","district":"과천시","locality":"중앙동","address":"과천시 중앙동 4-1","owner_type":"국유지","owner_label":"국(행정자치부)","manager":"","property_class":"","land_category":"대","area_sqm":306.8,"area_band":"100~500㎡","interest_category":"대","solar_candidate":"검토필요","candidate_reason":"청사·공공건축물·주차장 현황 추가 확인 필요; 면적 307㎡","priority_score":40,"source":"경기부동산포털 국공유지조회·연속지적도","source_date":"2026-08-11","installed_solar_match":false}},{"type":"Feature","id":"4129010700100020011","geometry":{"type":"Point","coordinates":[126.9740637,37.4213545]},"properties":{"pnu":"4129010700100020011","municipality_code":"41290","municipality":"과천시","district":"과천시","locality":"중앙동","address":"과천시 중앙동 2-11","owner_type":"국유지","owner_label":"국(기획재정부)","manager":"","property_class":"","land_category":"대","area_sqm":252.7,"area_band":"100~500㎡","interest_category":"대","solar_candidate":"검토필요","candidate_reason":"청사·공공건축물·주차장 현황 추가 확인 필요; 면적 253㎡","priority_score":40,"source":"경기부동산포털 국공유지조회·연속지적도","source_date":"2026-08-11","installed_solar_match":false}},{"type":"Feature","id":"4129010900100110000","geometry":{"type":"Point","coordinates":[126.9936645,37.4240918]},"properties":{"pnu":"4129010900100110000","municipality_code":"41290","municipality":"과천시","district":"과천시","locality":"별양동","address":"과천시 별양동 11","owner_type":"국유지","owner_label":"국(기획재정부)","manager":"","property_class":"","land_category":"대","area_sqm":233.4,"area_band":"100~500㎡","interest_category":"대","solar_candidate":"검토필요","candidate_reason":"청사·공공건축물·주차장 현황 추가 확인 필요; 면적 233㎡","priority_score":40,"source":"경기부동산포털 국공유지조회·연속지적도","source_date":"2026-08-11","installed_solar_match":false}},{"type":"Feature","id":"4129010700100040002","geometry":{"type":"Point","coordinates":[126.9872348,37.4239279]},"properties":{"pnu":"4129010700100040002","municipality_code":"41290","municipality":"과천시","district":"과천시","locality":"중앙동","address":"과천시 중앙동 4-2","owner_type":"국유지","owner_label":"국(행정자치부)","manager":"","property_class":"","land_category":"대","area_sqm":205.4,"area_band":"100~500㎡","interest_category":"대","solar_candidate":"검토필요","candidate_reason":"청사·공공건축물·주차장 현황 추가 확인 필요; 면적 205㎡","priority_score":40,"source":"경기부동산포털 국공유지조회·연속지적도","source_date":"2026-08-11","installed_solar_match":false}},{"type":"Feature","id":"4129010600103020003","geometry":{"type":"Point","coordinates":[127.027745,37.4489653]},"properties":{"pnu":"4129010600103020003","municipality_code":"41290","municipality":"과천시","district":"과천시","locality":"주암동","address":"과천시 주암동 302-3","owner_type":"국유지","owner_label":"국(국방부)","manager":"","property_class":"","land_category":"대","area_sqm":197.0,"area_band":"100~500㎡","interest_category":"대","solar_candidate":"검토필요","candidate_reason":"청사·공공건축물·주차장 현황 추가 확인 필요; 면적 197㎡","priority_score":40,"source":"경기부동산포털 국공유지조회·연속지적도","source_date":"2026-08-11","installed_solar_match":false}},{"type":"Feature","id":"4129010700100020010","geometry":{"type":"Point","coordinates":[126.9747027,37.4218334]},"properties":{"pnu":"4129010700100020010","municipality_code":"41290","municipality":"과천시","district":"과천시","locality":"중앙동","address":"과천시 중앙동 2-10","owner_type":"국유지","owner_label":"국(기획재정부)","manager":"","property_class":"","land_category":"대","area_sqm":160.5,"area_band":"100~500㎡","interest_category":"대","solar_candidate":"검토필요","candidate_reason":"청사·공공건축물·주차장 현황 추가 확인 필요; 면적 160㎡","priority_score":40,"source":"경기부동산포털 국공유지조회·연속지적도","source_date":"2026-08-11","installed_solar_match":false}},{"type":"Feature","id":"4129010600101100010","geometry":{"type":"Point","coordinates":[127.0315924,37.4554155]},"properties":{"pnu":"4129010600101100010","municipality_code":"41290","municipality":"과천시","district":"과천시","locality":"주암동","address":"과천시 주암동 110-10","owner_type":"국유지","owner_label":"국","manager":"","property_class":"","land_category":"대","area_sqm":111.0,"area_band":"100~500㎡","interest_category":"대","solar_candidate":"검토필요","candidate_reason":"청사·공공건축물·주차장 현황 추가 확인 필요; 면적 111㎡","priority_score":40,"source":"경기부동산포털 국공유지조회·연속지적도","source_date":"2026-08-11","installed_solar_match":false}},{"type":"Feature","id":"4129010600101100007","geometry":{"type":"Point","coordinates":[127.0321955,37.4557252]},"properties":{"pnu":"4129010600101100007","municipality_code":"41290","municipality":"과천시","district":"과천시","locality":"주암동","address":"과천시 주암동 110-7","owner_type":"국유지","owner_label":"국","manager":"","property_class":"","land_category":"대","area_sqm":102.0,"area_band":"100~500㎡","interest_category":"대","solar_candidate":"검토필요","candidate_reason":"청사·공공건축물·주차장 현황 추가 확인 필요; 면적 102㎡","priority_score":40,"source":"경기부동산포털 국공유지조회·연속지적도","source_date":"2026-08-11","installed_solar_match":false}},{"type":"Feature","id":"4129010600100440001","geometry":{"type":"Point","coordinates":[127.0316047,37.4599458]},"properties":{"pnu":"4129010600100440001","municipality_code":"41290","municipality":"과천시","district":"과천시","locality":"주암동","address":"과천시 주암동 44-1","owner_type":"국유지","owner_label":"국(국토교통부)","manager":"","property_class":"","land_category":"도로","area_sqm":4732.0,"area_band":"3,000~5,000㎡","interest_category":"도로","solar_candidate":"검토필요","candidate_reason":"도로점용 및 실제 이용형태 추가 검토 필요; 면적 4,732㎡","priority_score":35,"source":"경기부동산포털 국공유지조회·연속지적도","source_date":"2026-08-11","installed_solar_match":false}},{"type":"Feature","id":"4129010300103190004","geometry":{"type":"Point","coordinates":[126.9807983,37.4119001]},"properties":{"pnu":"4129010300103190004","municipality_code":"41290","municipality":"과천시","district":"과천시","locality":"갈현동","address":"과천시 갈현동 319-4","owner_type":"국유지","owner_label":"국(국토교통부)","manager":"","property_class":"","land_category":"도로","area_sqm":4704.0,"area_band":"3,000~5,000㎡","interest_category":"도로","solar_candidate":"검토필요","candidate_reason":"도로점용 및 실제 이용형태 추가 검토 필요; 면적 4,704㎡","priority_score":35,"source":"경기부동산포털 국공유지조회·연속지적도","source_date":"2026-08-11","installed_solar_match":false}},{"type":"Feature","id":"4129010300100210013","geometry":{"type":"Point","coordinates":[126.9838246,37.4149839]},"properties":{"pnu":"4129010300100210013","municipality_code":"41290","municipality":"과천시","district":"과천시","locality":"갈현동","address":"과천시 갈현동 21-13","owner_type":"국유지","owner_label":"국(국토교통부)","manager":"","property_class":"","land_category":"도로","area_sqm":4468.0,"area_band":"3,000~5,000㎡","interest_category":"도로","solar_candidate":"검토필요","candidate_reason":"도로점용 및 실제 이용형태 추가 검토 필요; 면적 4,468㎡","priority_score":35,"source":"경기부동산포털 국공유지조회·연속지적도","source_date":"2026-08-11","installed_solar_match":false}},{"type":"Feature","id":"4129010600107200000","geometry":{"type":"Point","coordinates":[127.0158003,37.4514834]},"properties":{"pnu":"4129010600107200000","municipality_code":"41290","municipality":"과천시","district":"과천시","locality":"주암동","address":"과천시 주암동 720","owner_type":"국유지","owner_label":"국(기획재정부)","manager":"","property_class":"","land_category":"도로","area_sqm":4357.6,"area_band":"3,000~5,000㎡","interest_category":"도로","solar_candidate":"검토필요","candidate_reason":"도로점용 및 실제 이용형태 추가 검토 필요; 면적 4,358㎡","priority_score":35,"source":"경기부동산포털 국공유지조회·연속지적도","source_date":"2026-08-11","installed_solar_match":false}},{"type":"Feature","id":"4129010500200980013","geometry":{"type":"Point","coordinates":[126.9909626,37.4541836]},"properties":{"pnu":"4129010500200980013","municipality_code":"41290","municipality":"과천시","district":"과천시","locality":"과천동","address":"과천시 과천동 산98-13","owner_type":"국유지","owner_label":"국(기획재정부)","manager":"","property_class":"","land_category":"도로","area_sqm":4264.0,"area_band":"3,000~5,000㎡","interest_category":"도로","solar_candidate":"검토필요","candidate_reason":"도로점용 및 실제 이용형태 추가 검토 필요; 면적 4,264㎡","priority_score":35,"source":"경기부동산포털 국공유지조회·연속지적도","source_date":"2026-08-11","installed_solar_match":false}},{"type":"Feature","id":"4129010900100900000","geometry":{"type":"Point","coordinates":[126.9903887,37.4266906]},"properties":{"pnu":"4129010900100900000","municipality_code":"41290","municipality":"과천시","district":"과천시","locality":"별양동","address":"과천시 별양동 90","owner_type":"국유지","owner_label":"국(국토교통부)","manager":"","property_class":"","land_category":"도로","area_sqm":4077.9,"area_band":"3,000~5,000㎡","interest_category":"도로","solar_candidate":"검토필요","candidate_reason":"도로점용 및 실제 이용형태 추가 검토 필요; 면적 4,078㎡","priority_score":35,"source":"경기부동산포털 국공유지조회·연속지적도","source_date":"2026-08-11","installed_solar_match":false}},{"type":"Feature","id":"4129010500201190001","geometry":{"type":"Point","coordinates":[126.99012,37.4565515]},"properties":{"pnu":"4129010500201190001","municipality_code":"41290","municipality":"과천시","district":"과천시","locality":"과천동","address":"과천시 과천동 산119-1","owner_type":"국유지","owner_label":"국(국토교통부)","manager":"","property_class":"","land_category":"도로","area_sqm":3997.0,"area_band":"3,000~5,000㎡","interest_category":"도로","solar_candidate":"검토필요","candidate_reason":"도로점용 및 실제 이용형태 추가 검토 필요; 면적 3,997㎡","priority_score":35,"source":"경기부동산포털 국공유지조회·연속지적도","source_date":"2026-08-11","installed_solar_match":false}},{"type":"Feature","id":"4129010500105550057","geometry":{"type":"Point","coordinates":[127.0045497,37.4532932]},"properties":{"pnu":"4129010500105550057","municipality_code":"41290","municipality":"과천시","district":"과천시","locality":"과천동","address":"과천시 과천동 555-57","owner_type":"국유지","owner_label":"국(국토교통부)","manager":"","property_class":"","land_category":"도로","area_sqm":3978.0,"area_band":"3,000~5,000㎡","interest_category":"도로","solar_candidate":"검토필요","candidate_reason":"도로점용 및 실제 이용형태 추가 검토 필요; 면적 3,978㎡","priority_score":35,"source":"경기부동산포털 국공유지조회·연속지적도","source_date":"2026-08-11","installed_solar_match":false}},{"type":"Feature","id":"4129010200200460001","geometry":{"type":"Point","coordinates":[126.9986148,37.4220125]},"properties":{"pnu":"4129010200200460001","municipality_code":"41290","municipality":"과천시","district":"과천시","locality":"문원동","address":"과천시 문원동 산46-1","owner_type":"국유지","owner_label":"국(국토교통부)","manager":"","property_class":"","land_category":"도로","area_sqm":3950.0,"area_band":"3,000~5,000㎡","interest_category":"도로","solar_candidate":"검토필요","candidate_reason":"도로점용 및 실제 이용형태 추가 검토 필요; 면적 3,950㎡","priority_score":35,"source":"경기부동산포털 국공유지조회·연속지적도","source_date":"2026-08-11","installed_solar_match":false}},{"type":"Feature","id":"4129010200201590007","geometry":{"type":"Point","coordinates":[126.9999383,37.4065076]},"properties":{"pnu":"4129010200201590007","municipality_code":"41290","municipality":"과천시","district":"과천시","locality":"문원동","address":"과천시 문원동 산159-7","owner_type":"국유지","owner_label":"국(기획재정부)","manager":"","property_class":"","land_category":"도로","area_sqm":3950.0,"area_band":"3,000~5,000㎡","interest_category":"도로","solar_candidate":"검토필요","candidate_reason":"도로점용 및 실제 이용형태 추가 검토 필요; 면적 3,950㎡","priority_score":35,"source":"경기부동산포털 국공유지조회·연속지적도","source_date":"2026-08-11","installed_solar_match":false}},{"type":"Feature","id":"4129010300200340007","geometry":{"type":"Point","coordinates":[126.981859,37.4133561]},"properties":{"pnu":"4129010300200340007","municipality_code":"41290","municipality":"과천시","district":"과천시","locality":"갈현동","address":"과천시 갈현동 산34-7","owner_type":"국유지","owner_label":"국(국토교통부)","manager":"","property_class":"","land_category":"도로","area_sqm":3894.0,"area_band":"3,000~5,000㎡","interest_category":"도로","solar_candidate":"검토필요","candidate_reason":"도로점용 및 실제 이용형태 추가 검토 필요; 면적 3,894㎡","priority_score":35,"source":"경기부동산포털 국공유지조회·연속지적도","source_date":"2026-08-11","installed_solar_match":false}},{"type":"Feature","id":"4129010200200040006","geometry":{"type":"Point","coordinates":[127.0018496,37.430769]},"properties":{"pnu":"4129010200200040006","municipality_code":"41290","municipality":"과천시","district":"과천시","locality":"문원동","address":"과천시 문원동 산4-6","owner_type":"국유지","owner_label":"국(국토교통부)","manager":"","property_class":"","land_category":"도로","area_sqm":3882.0,"area_band":"3,000~5,000㎡","interest_category":"도로","solar_candidate":"검토필요","candidate_reason":"도로점용 및 실제 이용형태 추가 검토 필요; 면적 3,882㎡","priority_score":35,"source":"경기부동산포털 국공유지조회·연속지적도","source_date":"2026-08-11","installed_solar_match":false}},{"type":"Feature","id":"4129010300106890000","geometry":{"type":"Point","coordinates":[126.9892798,37.4177468]},"properties":{"pnu":"4129010300106890000","municipality_code":"41290","municipality":"과천시","district":"과천시","locality":"갈현동","address":"과천시 갈현동 689","owner_type":"국유지","owner_label":"국(국토교통부)","manager":"","property_class":"","land_category":"도로","area_sqm":3731.0,"area_band":"3,000~5,000㎡","interest_category":"도로","solar_candidate":"검토필요","candidate_reason":"도로점용 및 실제 이용형태 추가 검토 필요; 면적 3,731㎡","priority_score":35,"source":"경기부동산포털 국공유지조회·연속지적도","source_date":"2026-08-11","installed_solar_match":false}},{"type":"Feature","id":"4129010300102340002","geometry":{"type":"Point","coordinates":[126.9846372,37.4078955]},"properties":{"pnu":"4129010300102340002","municipality_code":"41290","municipality":"과천시","district":"과천시","locality":"갈현동","address":"과천시 갈현동 234-2","owner_type":"국유지","owner_label":"국(국토교통부)","manager":"","property_class":"","land_category":"도로","area_sqm":3711.0,"area_band":"3,000~5,000㎡","interest_category":"도로","solar_candidate":"검토필요","candidate_reason":"도로점용 및 실제 이용형태 추가 검토 필요; 면적 3,711㎡","priority_score":35,"source":"경기부동산포털 국공유지조회·연속지적도","source_date":"2026-08-11","installed_solar_match":false}},{"type":"Feature","id":"4129010500200300013","geometry":{"type":"Point","coordinates":[127.0047534,37.4535942]},"properties":{"pnu":"4129010500200300013","municipality_code":"41290","municipality":"과천시","district":"과천시","locality":"과천동","address":"과천시 과천동 산30-13","owner_type":"국유지","owner_label":"국(국토교통부)","manager":"","property_class":"","land_category":"도로","area_sqm":3669.0,"area_band":"3,000~5,000㎡","interest_category":"도로","solar_candidate":"검토필요","candidate_reason":"도로점용 및 실제 이용형태 추가 검토 필요; 면적 3,669㎡","priority_score":35,"source":"경기부동산포털 국공유지조회·연속지적도","source_date":"2026-08-11","installed_solar_match":false}},{"type":"Feature","id":"4129010200103890002","geometry":{"type":"Point","coordinates":[126.9945407,37.4198484]},"properties":{"pnu":"4129010200103890002","municipality_code":"41290","municipality":"과천시","district":"과천시","locality":"문원동","address":"과천시 문원동 389-2","owner_type":"국유지","owner_label":"국(국토교통부)","manager":"","property_class":"","land_category":"도로","area_sqm":3668.0,"area_band":"3,000~5,000㎡","interest_category":"도로","solar_candidate":"검토필요","candidate_reason":"도로점용 및 실제 이용형태 추가 검토 필요; 면적 3,668㎡","priority_score":35,"source":"경기부동산포털 국공유지조회·연속지적도","source_date":"2026-08-11","installed_solar_match":false}},{"type":"Feature","id":"4129010500104540001","geometry":{"type":"Point","coordinates":[126.9997425,37.4505047]},"properties":{"pnu":"4129010500104540001","municipality_code":"41290","municipality":"과천시","district":"과천시","locality":"과천동","address":"과천시 과천동 454-1","owner_type":"국유지","owner_label":"국(국토교통부)","manager":"","property_class":"","land_category":"도로","area_sqm":3514.0,"area_band":"3,000~5,000㎡","interest_category":"도로","solar_candidate":"검토필요","candidate_reason":"도로점용 및 실제 이용형태 추가 검토 필요; 면적 3,514㎡","priority_score":35,"source":"경기부동산포털 국공유지조회·연속지적도","source_date":"2026-08-11","installed_solar_match":false}},{"type":"Feature","id":"4129010200100140013","geometry":{"type":"Point","coordinates":[127.0016869,37.4303572]},"properties":{"pnu":"4129010200100140013","municipality_code":"41290","municipality":"과천시","district":"과천시","locality":"문원동","address":"과천시 문원동 14-13","owner_type":"국유지","owner_label":"국(국토교통부)","manager":"","property_class":"","land_category":"도로","area_sqm":3477.0,"area_band":"3,000~5,000㎡","interest_category":"도로","solar_candidate":"검토필요","candidate_reason":"도로점용 및 실제 이용형태 추가 검토 필요; 면적 3,477㎡","priority_score":35,"source":"경기부동산포털 국공유지조회·연속지적도","source_date":"2026-08-11","installed_solar_match":false}},{"type":"Feature","id":"4129010500100280003","geometry":{"type":"Point","coordinates":[127.0097681,37.4559179]},"properties":{"pnu":"4129010500100280003","municipality_code":"41290","municipality":"과천시","district":"과천시","locality":"과천동","address":"과천시 과천동 28-3","owner_type":"국유지","owner_label":"국(국토교통부)","manager":"","property_class":"","land_category":"도로","area_sqm":3471.0,"area_band":"3,000~5,000㎡","interest_category":"도로","solar_candidate":"검토필요","candidate_reason":"도로점용 및 실제 이용형태 추가 검토 필요; 면적 3,471㎡","priority_score":35,"source":"경기부동산포털 국공유지조회·연속지적도","source_date":"2026-08-11","installed_solar_match":false}},{"type":"Feature","id":"4129010300106650001","geometry":{"type":"Point","coordinates":[126.9919968,37.4179924]},"properties":{"pnu":"4129010300106650001","municipality_code":"41290","municipality":"과천시","district":"과천시","locality":"갈현동","address":"과천시 갈현동 665-1","owner_type":"국유지","owner_label":"국(국토교통부)","manager":"","property_class":"","land_category":"도로","area_sqm":3346.0,"area_band":"3,000~5,000㎡","interest_category":"도로","solar_candidate":"검토필요","candidate_reason":"도로점용 및 실제 이용형태 추가 검토 필요; 면적 3,346㎡","priority_score":35,"source":"경기부동산포털 국공유지조회·연속지적도","source_date":"2026-08-11","installed_solar_match":false}},{"type":"Feature","id":"4129010500200950015","geometry":{"type":"Point","coordinates":[126.9888931,37.4573716]},"properties":{"pnu":"4129010500200950015","municipality_code":"41290","municipality":"과천시","district":"과천시","locality":"과천동","address":"과천시 과천동 산95-15","owner_type":"국유지","owner_label":"국(국토교통부)","manager":"","property_class":"","land_category":"도로","area_sqm":3299.0,"area_band":"3,000~5,000㎡","interest_category":"도로","solar_candidate":"검토필요","candidate_reason":"도로점용 및 실제 이용형태 추가 검토 필요; 면적 3,299㎡","priority_score":35,"source":"경기부동산포털 국공유지조회·연속지적도","source_date":"2026-08-11","installed_solar_match":false}},{"type":"Feature","id":"4129010500200980004","geometry":{"type":"Point","coordinates":[126.9910683,37.453796]},"properties":{"pnu":"4129010500200980004","municipality_code":"41290","municipality":"과천시","district":"과천시","locality":"과천동","address":"과천시 과천동 산98-4","owner_type":"국유지","owner_label":"국(기획재정부)","manager":"","property_class":"","land_category":"도로","area_sqm":3174.0,"area_band":"3,000~5,000㎡","interest_category":"도로","solar_candidate":"검토필요","candidate_reason":"도로점용 및 실제 이용형태 추가 검토 필요; 면적 3,174㎡","priority_score":35,"source":"경기부동산포털 국공유지조회·연속지적도","source_date":"2026-08-11","installed_solar_match":false}},{"type":"Feature","id":"4129010300102550006","geometry":{"type":"Point","coordinates":[126.9794751,37.4064973]},"properties":{"pnu":"4129010300102550006","municipality_code":"41290","municipality":"과천시","district":"과천시","locality":"갈현동","address":"과천시 갈현동 255-6","owner_type":"국유지","owner_label":"국(국토교통부)","manager":"","property_class":"","land_category":"도로","area_sqm":3091.0,"area_band":"3,000~5,000㎡","interest_category":"도로","solar_candidate":"검토필요","candidate_reason":"도로점용 및 실제 이용형태 추가 검토 필요; 면적 3,091㎡","priority_score":35,"source":"경기부동산포털 국공유지조회·연속지적도","source_date":"2026-08-11","installed_solar_match":false}},{"type":"Feature","id":"4129010600107430025","geometry":{"type":"Point","coordinates":[127.0113501,37.4474254]},"properties":{"pnu":"4129010600107430025","municipality_code":"41290","municipality":"과천시","district":"과천시","locality":"주암동","address":"과천시 주암동 743-25","owner_type":"국유지","owner_label":"국(국토교통부)","manager":"","property_class":"","land_category":"도로","area_sqm":3076.3,"area_band":"3,000~5,000㎡","interest_category":"도로","solar_candidate":"검토필요","candidate_reason":"도로점용 및 실제 이용형태 추가 검토 필요; 면적 3,076㎡","priority_score":35,"source":"경기부동산포털 국공유지조회·연속지적도","source_date":"2026-08-11","installed_solar_match":false}},{"type":"Feature","id":"4129010300106090045","geometry":{"type":"Point","coordinates":[126.9808395,37.4115774]},"properties":{"pnu":"4129010300106090045","municipality_code":"41290","municipality":"과천시","district":"과천시","locality":"갈현동","address":"과천시 갈현동 609-45","owner_type":"국유지","owner_label":"국(국토교통부)","manager":"","property_class":"","land_category":"도로","area_sqm":3055.0,"area_band":"3,000~5,000㎡","interest_category":"도로","solar_candidate":"검토필요","candidate_reason":"도로점용 및 실제 이용형태 추가 검토 필요; 면적 3,055㎡","priority_score":35,"source":"경기부동산포털 국공유지조회·연속지적도","source_date":"2026-08-11","installed_solar_match":false}},{"type":"Feature","id":"4129010300105690001","geometry":{"type":"Point","coordinates":[126.9777355,37.4113525]},"properties":{"pnu":"4129010300105690001","municipality_code":"41290","municipality":"과천시","district":"과천시","locality":"갈현동","address":"과천시 갈현동 569-1","owner_type":"국유지","owner_label":"국(국토교통부)","manager":"","property_class":"","land_category":"도로","area_sqm":3014.0,"area_band":"3,000~5,000㎡","interest_category":"도로","solar_candidate":"검토필요","candidate_reason":"도로점용 및 실제 이용형태 추가 검토 필요; 면적 3,014㎡","priority_score":35,"source":"경기부동산포털 국공유지조회·연속지적도","source_date":"2026-08-11","installed_solar_match":false}}]}