{"type":"FeatureCollection","name":"gyeonggi_41290_province_solar_candidates","metadata":{"generated_on":"2026-08-11","source":"경기부동산포털 국공유지조회·연속지적도","source_agency":"경기도","ownership_source":"경기부동산포털 국공유지조회","coverage":"과천시","owner_code":"4","owner_type":"경기도유지","minimum_area_sqm":100.0,"feature_count":31,"coordinate_reference":"GRIS native values interpreted as EPSG:5174 and projected to EPSG:4326","coordinate_precision":"7 decimals, increased only when needed to keep narrow-parcel points inside","disclaimer":"설치 가능 확정이 아닌 현장조사 우선순위"},"features":[{"type":"Feature","id":"4129010500107590000","geometry":{"type":"Point","coordinates":[127.0030754,37.4390798]},"properties":{"pnu":"4129010500107590000","municipality_code":"41290","municipality":"과천시","district":"과천시","locality":"과천동","address":"과천시 과천동 759","owner_type":"경기도유지","owner_label":"경기도","manager":"미래성장산업국 디지털혁신과","property_class":"행정재산","land_category":"대","area_sqm":67483.3,"area_band":"5,000㎡ 이상","interest_category":"대","solar_candidate":"Y","candidate_reason":"청사·공공건축물·주차장 현황 추가 확인 필요; 면적 67,483㎡","priority_score":65,"source":"경기부동산포털 국공유지조회·연속지적도","source_date":"2026-08-11","installed_solar_match":false}},{"type":"Feature","id":"4129010500107590001","geometry":{"type":"Point","coordinates":[127.0028668,37.4409894]},"properties":{"pnu":"4129010500107590001","municipality_code":"41290","municipality":"과천시","district":"과천시","locality":"과천동","address":"과천시 과천동 759-1","owner_type":"경기도유지","owner_label":"경기도","manager":"미래성장산업국 디지털혁신과","property_class":"행정재산","land_category":"대","area_sqm":1020.4,"area_band":"1,000~3,000㎡","interest_category":"대","solar_candidate":"검토필요","candidate_reason":"청사·공공건축물·주차장 현황 추가 확인 필요; 면적 1,020㎡","priority_score":53,"source":"경기부동산포털 국공유지조회·연속지적도","source_date":"2026-08-11","installed_solar_match":false}},{"type":"Feature","id":"4129010500105950000","geometry":{"type":"Point","coordinates":[127.0007343,37.4394695]},"properties":{"pnu":"4129010500105950000","municipality_code":"41290","municipality":"과천시","district":"과천시","locality":"과천동","address":"과천시 과천동 595","owner_type":"경기도유지","owner_label":"경기도","manager":"건설국 도로정책과","property_class":"행정재산","land_category":"도로","area_sqm":15349.0,"area_band":"5,000㎡ 이상","interest_category":"도로","solar_candidate":"검토필요","candidate_reason":"도로점용 및 실제 이용형태 추가 검토 필요; 면적 15,349㎡","priority_score":40,"source":"경기부동산포털 국공유지조회·연속지적도","source_date":"2026-08-11","installed_solar_match":false}},{"type":"Feature","id":"4129010200105470000","geometry":{"type":"Point","coordinates":[126.992583,37.4167598]},"properties":{"pnu":"4129010200105470000","municipality_code":"41290","municipality":"과천시","district":"과천시","locality":"문원동","address":"과천시 문원동 547","owner_type":"경기도유지","owner_label":"경기도","manager":"건설국 도로정책과","property_class":"행정재산","land_category":"도로","area_sqm":14406.0,"area_band":"5,000㎡ 이상","interest_category":"도로","solar_candidate":"검토필요","candidate_reason":"도로점용 및 실제 이용형태 추가 검토 필요; 면적 14,406㎡","priority_score":40,"source":"경기부동산포털 국공유지조회·연속지적도","source_date":"2026-08-11","installed_solar_match":false}},{"type":"Feature","id":"4129010500102250006","geometry":{"type":"Point","coordinates":[127.0045249,37.4458447]},"properties":{"pnu":"4129010500102250006","municipality_code":"41290","municipality":"과천시","district":"과천시","locality":"과천동","address":"과천시 과천동 225-6","owner_type":"경기도유지","owner_label":"경기도","manager":"건설국 도로정책과","property_class":"행정재산","land_category":"도로","area_sqm":13786.0,"area_band":"5,000㎡ 이상","interest_category":"도로","solar_candidate":"검토필요","candidate_reason":"도로점용 및 실제 이용형태 추가 검토 필요; 면적 13,786㎡","priority_score":40,"source":"경기부동산포털 국공유지조회·연속지적도","source_date":"2026-08-11","installed_solar_match":false}},{"type":"Feature","id":"4129010500100940004","geometry":{"type":"Point","coordinates":[127.0098465,37.4508734]},"properties":{"pnu":"4129010500100940004","municipality_code":"41290","municipality":"과천시","district":"과천시","locality":"과천동","address":"과천시 과천동 94-4","owner_type":"경기도유지","owner_label":"경기도","manager":"건설국 도로정책과","property_class":"행정재산","land_category":"도로","area_sqm":11992.0,"area_band":"5,000㎡ 이상","interest_category":"도로","solar_candidate":"검토필요","candidate_reason":"도로점용 및 실제 이용형태 추가 검토 필요; 면적 11,992㎡","priority_score":40,"source":"경기부동산포털 국공유지조회·연속지적도","source_date":"2026-08-11","installed_solar_match":false}},{"type":"Feature","id":"4129010300101800000","geometry":{"type":"Point","coordinates":[126.994047,37.4095866]},"properties":{"pnu":"4129010300101800000","municipality_code":"41290","municipality":"과천시","district":"과천시","locality":"갈현동","address":"과천시 갈현동 180","owner_type":"경기도유지","owner_label":"경기도","manager":"건설국 도로정책과","property_class":"행정재산","land_category":"도로","area_sqm":11307.0,"area_band":"5,000㎡ 이상","interest_category":"도로","solar_candidate":"검토필요","candidate_reason":"도로점용 및 실제 이용형태 추가 검토 필요; 면적 11,307㎡","priority_score":40,"source":"경기부동산포털 국공유지조회·연속지적도","source_date":"2026-08-11","installed_solar_match":false}},{"type":"Feature","id":"4129010500101290001","geometry":{"type":"Point","coordinates":[127.0065595,37.4493976]},"properties":{"pnu":"4129010500101290001","municipality_code":"41290","municipality":"과천시","district":"과천시","locality":"과천동","address":"과천시 과천동 129-1","owner_type":"경기도유지","owner_label":"경기도","manager":"건설국 도로정책과","property_class":"행정재산","land_category":"도로","area_sqm":9051.0,"area_band":"5,000㎡ 이상","interest_category":"도로","solar_candidate":"검토필요","candidate_reason":"도로점용 및 실제 이용형태 추가 검토 필요; 면적 9,051㎡","priority_score":40,"source":"경기부동산포털 국공유지조회·연속지적도","source_date":"2026-08-11","installed_solar_match":false}},{"type":"Feature","id":"4129010500100940000","geometry":{"type":"Point","coordinates":[127.0097996,37.4511267]},"properties":{"pnu":"4129010500100940000","municipality_code":"41290","municipality":"과천시","district":"과천시","locality":"과천동","address":"과천시 과천동 94","owner_type":"경기도유지","owner_label":"경기도","manager":"건설국 도로정책과","property_class":"행정재산","land_category":"도로","area_sqm":8984.0,"area_band":"5,000㎡ 이상","interest_category":"도로","solar_candidate":"검토필요","candidate_reason":"도로점용 및 실제 이용형태 추가 검토 필요; 면적 8,984㎡","priority_score":40,"source":"경기부동산포털 국공유지조회·연속지적도","source_date":"2026-08-11","installed_solar_match":false}},{"type":"Feature","id":"4129010200108820001","geometry":{"type":"Point","coordinates":[126.992012,37.414317]},"properties":{"pnu":"4129010200108820001","municipality_code":"41290","municipality":"과천시","district":"과천시","locality":"문원동","address":"과천시 문원동 882-1","owner_type":"경기도유지","owner_label":"경기도","manager":"건설국 도로정책과","property_class":"행정재산","land_category":"도로","area_sqm":8127.0,"area_band":"5,000㎡ 이상","interest_category":"도로","solar_candidate":"검토필요","candidate_reason":"도로점용 및 실제 이용형태 추가 검토 필요; 면적 8,127㎡","priority_score":40,"source":"경기부동산포털 국공유지조회·연속지적도","source_date":"2026-08-11","installed_solar_match":false}},{"type":"Feature","id":"4129010300200450003","geometry":{"type":"Point","coordinates":[126.9960731,37.4073625]},"properties":{"pnu":"4129010300200450003","municipality_code":"41290","municipality":"과천시","district":"과천시","locality":"갈현동","address":"과천시 갈현동 산45-3","owner_type":"경기도유지","owner_label":"경기도","manager":"건설국 도로정책과","property_class":"행정재산","land_category":"도로","area_sqm":7261.0,"area_band":"5,000㎡ 이상","interest_category":"도로","solar_candidate":"검토필요","candidate_reason":"도로점용 및 실제 이용형태 추가 검토 필요; 면적 7,261㎡","priority_score":40,"source":"경기부동산포털 국공유지조회·연속지적도","source_date":"2026-08-11","installed_solar_match":false}},{"type":"Feature","id":"4129010200105470002","geometry":{"type":"Point","coordinates":[126.9924653,37.4175375]},"properties":{"pnu":"4129010200105470002","municipality_code":"41290","municipality":"과천시","district":"과천시","locality":"문원동","address":"과천시 문원동 547-2","owner_type":"경기도유지","owner_label":"경기도","manager":"건설국 도로정책과","property_class":"행정재산","land_category":"도로","area_sqm":6431.0,"area_band":"5,000㎡ 이상","interest_category":"도로","solar_candidate":"검토필요","candidate_reason":"도로점용 및 실제 이용형태 추가 검토 필요; 면적 6,431㎡","priority_score":40,"source":"경기부동산포털 국공유지조회·연속지적도","source_date":"2026-08-11","installed_solar_match":false}},{"type":"Feature","id":"4129010500101540016","geometry":{"type":"Point","coordinates":[127.0128325,37.4520014]},"properties":{"pnu":"4129010500101540016","municipality_code":"41290","municipality":"과천시","district":"과천시","locality":"과천동","address":"과천시 과천동 154-16","owner_type":"경기도유지","owner_label":"경기도","manager":"건설국 도로정책과","property_class":"행정재산","land_category":"도로","area_sqm":6142.0,"area_band":"5,000㎡ 이상","interest_category":"도로","solar_candidate":"검토필요","candidate_reason":"도로점용 및 실제 이용형태 추가 검토 필요; 면적 6,142㎡","priority_score":40,"source":"경기부동산포털 국공유지조회·연속지적도","source_date":"2026-08-11","installed_solar_match":false}},{"type":"Feature","id":"4129010500103120013","geometry":{"type":"Point","coordinates":[127.0015861,37.4404754]},"properties":{"pnu":"4129010500103120013","municipality_code":"41290","municipality":"과천시","district":"과천시","locality":"과천동","address":"과천시 과천동 312-13","owner_type":"경기도유지","owner_label":"경기도","manager":"건설국 도로정책과","property_class":"행정재산","land_category":"도로","area_sqm":6027.0,"area_band":"5,000㎡ 이상","interest_category":"도로","solar_candidate":"검토필요","candidate_reason":"도로점용 및 실제 이용형태 추가 검토 필요; 면적 6,027㎡","priority_score":40,"source":"경기부동산포털 국공유지조회·연속지적도","source_date":"2026-08-11","installed_solar_match":false}},{"type":"Feature","id":"4129010300200420014","geometry":{"type":"Point","coordinates":[126.9975155,37.4053076]},"properties":{"pnu":"4129010300200420014","municipality_code":"41290","municipality":"과천시","district":"과천시","locality":"갈현동","address":"과천시 갈현동 산42-14","owner_type":"경기도유지","owner_label":"경기도","manager":"건설국 도로정책과","property_class":"행정재산","land_category":"도로","area_sqm":5222.0,"area_band":"5,000㎡ 이상","interest_category":"도로","solar_candidate":"검토필요","candidate_reason":"도로점용 및 실제 이용형태 추가 검토 필요; 면적 5,222㎡","priority_score":40,"source":"경기부동산포털 국공유지조회·연속지적도","source_date":"2026-08-11","installed_solar_match":false}},{"type":"Feature","id":"4129010500102250010","geometry":{"type":"Point","coordinates":[127.0041342,37.445805]},"properties":{"pnu":"4129010500102250010","municipality_code":"41290","municipality":"과천시","district":"과천시","locality":"과천동","address":"과천시 과천동 225-10","owner_type":"경기도유지","owner_label":"경기도","manager":"건설국 도로정책과","property_class":"행정재산","land_category":"도로","area_sqm":5003.0,"area_band":"5,000㎡ 이상","interest_category":"도로","solar_candidate":"검토필요","candidate_reason":"도로점용 및 실제 이용형태 추가 검토 필요; 면적 5,003㎡","priority_score":40,"source":"경기부동산포털 국공유지조회·연속지적도","source_date":"2026-08-11","installed_solar_match":false}},{"type":"Feature","id":"4129010500107590005","geometry":{"type":"Point","coordinates":[127.0014069,37.4386294]},"properties":{"pnu":"4129010500107590005","municipality_code":"41290","municipality":"과천시","district":"과천시","locality":"과천동","address":"과천시 과천동 759-5","owner_type":"경기도유지","owner_label":"경기도","manager":"미래성장산업국 디지털혁신과","property_class":"행정재산","land_category":"대","area_sqm":127.3,"area_band":"100~500㎡","interest_category":"대","solar_candidate":"검토필요","candidate_reason":"청사·공공건축물·주차장 현황 추가 확인 필요; 면적 127㎡","priority_score":40,"source":"경기부동산포털 국공유지조회·연속지적도","source_date":"2026-08-11","installed_solar_match":false}},{"type":"Feature","id":"4129010300101820001","geometry":{"type":"Point","coordinates":[126.9953305,37.4088111]},"properties":{"pnu":"4129010300101820001","municipality_code":"41290","municipality":"과천시","district":"과천시","locality":"갈현동","address":"과천시 갈현동 182-1","owner_type":"경기도유지","owner_label":"경기도","manager":"건설국 도로정책과","property_class":"행정재산","land_category":"대","area_sqm":119.0,"area_band":"100~500㎡","interest_category":"대","solar_candidate":"검토필요","candidate_reason":"청사·공공건축물·주차장 현황 추가 확인 필요; 면적 119㎡","priority_score":40,"source":"경기부동산포털 국공유지조회·연속지적도","source_date":"2026-08-11","installed_solar_match":false}},{"type":"Feature","id":"4129010600103590003","geometry":{"type":"Point","coordinates":[127.0200158,37.4552757]},"properties":{"pnu":"4129010600103590003","municipality_code":"41290","municipality":"과천시","district":"과천시","locality":"주암동","address":"과천시 주암동 359-3","owner_type":"경기도유지","owner_label":"경기도","manager":"건설국 도로정책과","property_class":"행정재산","land_category":"도로","area_sqm":4924.0,"area_band":"3,000~5,000㎡","interest_category":"도로","solar_candidate":"검토필요","candidate_reason":"도로점용 및 실제 이용형태 추가 검토 필요; 면적 4,924㎡","priority_score":35,"source":"경기부동산포털 국공유지조회·연속지적도","source_date":"2026-08-11","installed_solar_match":false}},{"type":"Feature","id":"4129010200105470006","geometry":{"type":"Point","coordinates":[126.9928915,37.4165477]},"properties":{"pnu":"4129010200105470006","municipality_code":"41290","municipality":"과천시","district":"과천시","locality":"문원동","address":"과천시 문원동 547-6","owner_type":"경기도유지","owner_label":"경기도","manager":"건설국 도로정책과","property_class":"행정재산","land_category":"도로","area_sqm":4715.0,"area_band":"3,000~5,000㎡","interest_category":"도로","solar_candidate":"검토필요","candidate_reason":"도로점용 및 실제 이용형태 추가 검토 필요; 면적 4,715㎡","priority_score":35,"source":"경기부동산포털 국공유지조회·연속지적도","source_date":"2026-08-11","installed_solar_match":false}},{"type":"Feature","id":"4129010500100940003","geometry":{"type":"Point","coordinates":[127.0096425,37.4512301]},"properties":{"pnu":"4129010500100940003","municipality_code":"41290","municipality":"과천시","district":"과천시","locality":"과천동","address":"과천시 과천동 94-3","owner_type":"경기도유지","owner_label":"경기도","manager":"건설국 도로정책과","property_class":"행정재산","land_category":"도로","area_sqm":4632.0,"area_band":"3,000~5,000㎡","interest_category":"도로","solar_candidate":"검토필요","candidate_reason":"도로점용 및 실제 이용형태 추가 검토 필요; 면적 4,632㎡","priority_score":35,"source":"경기부동산포털 국공유지조회·연속지적도","source_date":"2026-08-11","installed_solar_match":false}},{"type":"Feature","id":"4129010200110200000","geometry":{"type":"Point","coordinates":[126.9929842,37.4113149]},"properties":{"pnu":"4129010200110200000","municipality_code":"41290","municipality":"과천시","district":"과천시","locality":"문원동","address":"과천시 문원동 1020","owner_type":"경기도유지","owner_label":"경기도","manager":"건설국 도로정책과","property_class":"행정재산","land_category":"도로","area_sqm":4590.0,"area_band":"3,000~5,000㎡","interest_category":"도로","solar_candidate":"검토필요","candidate_reason":"도로점용 및 실제 이용형태 추가 검토 필요; 면적 4,590㎡","priority_score":35,"source":"경기부동산포털 국공유지조회·연속지적도","source_date":"2026-08-11","installed_solar_match":false}},{"type":"Feature","id":"4129010500102910004","geometry":{"type":"Point","coordinates":[127.003067,37.4434017]},"properties":{"pnu":"4129010500102910004","municipality_code":"41290","municipality":"과천시","district":"과천시","locality":"과천동","address":"과천시 과천동 291-4","owner_type":"경기도유지","owner_label":"경기도","manager":"건설국 도로정책과","property_class":"행정재산","land_category":"도로","area_sqm":4376.0,"area_band":"3,000~5,000㎡","interest_category":"도로","solar_candidate":"검토필요","candidate_reason":"도로점용 및 실제 이용형태 추가 검토 필요; 면적 4,376㎡","priority_score":35,"source":"경기부동산포털 국공유지조회·연속지적도","source_date":"2026-08-11","installed_solar_match":false}},{"type":"Feature","id":"4129010300200420012","geometry":{"type":"Point","coordinates":[126.9983892,37.4053924]},"properties":{"pnu":"4129010300200420012","municipality_code":"41290","municipality":"과천시","district":"과천시","locality":"갈현동","address":"과천시 갈현동 산42-12","owner_type":"경기도유지","owner_label":"경기도","manager":"건설국 도로정책과","property_class":"행정재산","land_category":"도로","area_sqm":4274.0,"area_band":"3,000~5,000㎡","interest_category":"도로","solar_candidate":"검토필요","candidate_reason":"도로점용 및 실제 이용형태 추가 검토 필요; 면적 4,274㎡","priority_score":35,"source":"경기부동산포털 국공유지조회·연속지적도","source_date":"2026-08-11","installed_solar_match":false}},{"type":"Feature","id":"4129010500102250011","geometry":{"type":"Point","coordinates":[127.0045116,37.4453376]},"properties":{"pnu":"4129010500102250011","municipality_code":"41290","municipality":"과천시","district":"과천시","locality":"과천동","address":"과천시 과천동 225-11","owner_type":"경기도유지","owner_label":"경기도","manager":"건설국 도로정책과","property_class":"행정재산","land_category":"도로","area_sqm":3976.0,"area_band":"3,000~5,000㎡","interest_category":"도로","solar_candidate":"검토필요","candidate_reason":"도로점용 및 실제 이용형태 추가 검토 필요; 면적 3,976㎡","priority_score":35,"source":"경기부동산포털 국공유지조회·연속지적도","source_date":"2026-08-11","installed_solar_match":false}},{"type":"Feature","id":"4129010200110080000","geometry":{"type":"Point","coordinates":[126.9922524,37.4126465]},"properties":{"pnu":"4129010200110080000","municipality_code":"41290","municipality":"과천시","district":"과천시","locality":"문원동","address":"과천시 문원동 1008","owner_type":"경기도유지","owner_label":"경기도","manager":"건설국 도로정책과","property_class":"행정재산","land_category":"도로","area_sqm":3893.0,"area_band":"3,000~5,000㎡","interest_category":"도로","solar_candidate":"검토필요","candidate_reason":"도로점용 및 실제 이용형태 추가 검토 필요; 면적 3,893㎡","priority_score":35,"source":"경기부동산포털 국공유지조회·연속지적도","source_date":"2026-08-11","installed_solar_match":false}},{"type":"Feature","id":"4129010300200450000","geometry":{"type":"Point","coordinates":[126.9966225,37.4066361]},"properties":{"pnu":"4129010300200450000","municipality_code":"41290","municipality":"과천시","district":"과천시","locality":"갈현동","address":"과천시 갈현동 산45","owner_type":"경기도유지","owner_label":"경기도","manager":"건설국 도로정책과","property_class":"행정재산","land_category":"도로","area_sqm":3641.0,"area_band":"3,000~5,000㎡","interest_category":"도로","solar_candidate":"검토필요","candidate_reason":"도로점용 및 실제 이용형태 추가 검토 필요; 면적 3,641㎡","priority_score":35,"source":"경기부동산포털 국공유지조회·연속지적도","source_date":"2026-08-11","installed_solar_match":false}},{"type":"Feature","id":"4129010200200790007","geometry":{"type":"Point","coordinates":[126.9933913,37.4105094]},"properties":{"pnu":"4129010200200790007","municipality_code":"41290","municipality":"과천시","district":"과천시","locality":"문원동","address":"과천시 문원동 산79-7","owner_type":"경기도유지","owner_label":"경기도","manager":"건설국 도로정책과","property_class":"행정재산","land_category":"도로","area_sqm":3582.0,"area_band":"3,000~5,000㎡","interest_category":"도로","solar_candidate":"검토필요","candidate_reason":"도로점용 및 실제 이용형태 추가 검토 필요; 면적 3,582㎡","priority_score":35,"source":"경기부동산포털 국공유지조회·연속지적도","source_date":"2026-08-11","installed_solar_match":false}},{"type":"Feature","id":"4129010500101290005","geometry":{"type":"Point","coordinates":[127.0065483,37.4497459]},"properties":{"pnu":"4129010500101290005","municipality_code":"41290","municipality":"과천시","district":"과천시","locality":"과천동","address":"과천시 과천동 129-5","owner_type":"경기도유지","owner_label":"경기도","manager":"건설국 도로정책과","property_class":"행정재산","land_category":"도로","area_sqm":3349.0,"area_band":"3,000~5,000㎡","interest_category":"도로","solar_candidate":"검토필요","candidate_reason":"도로점용 및 실제 이용형태 추가 검토 필요; 면적 3,349㎡","priority_score":35,"source":"경기부동산포털 국공유지조회·연속지적도","source_date":"2026-08-11","installed_solar_match":false}},{"type":"Feature","id":"4129010500100820010","geometry":{"type":"Point","coordinates":[127.0138066,37.4527914]},"properties":{"pnu":"4129010500100820010","municipality_code":"41290","municipality":"과천시","district":"과천시","locality":"과천동","address":"과천시 과천동 82-10","owner_type":"경기도유지","owner_label":"경기도","manager":"건설국 도로정책과","property_class":"행정재산","land_category":"도로","area_sqm":3306.0,"area_band":"3,000~5,000㎡","interest_category":"도로","solar_candidate":"검토필요","candidate_reason":"도로점용 및 실제 이용형태 추가 검토 필요; 면적 3,306㎡","priority_score":35,"source":"경기부동산포털 국공유지조회·연속지적도","source_date":"2026-08-11","installed_solar_match":false}},{"type":"Feature","id":"4129010300101950001","geometry":{"type":"Point","coordinates":[126.9950203,37.408137]},"properties":{"pnu":"4129010300101950001","municipality_code":"41290","municipality":"과천시","district":"과천시","locality":"갈현동","address":"과천시 갈현동 195-1","owner_type":"경기도유지","owner_label":"경기도","manager":"건설국 도로정책과","property_class":"행정재산","land_category":"도로","area_sqm":3167.0,"area_band":"3,000~5,000㎡","interest_category":"도로","solar_candidate":"검토필요","candidate_reason":"도로점용 및 실제 이용형태 추가 검토 필요; 면적 3,167㎡","priority_score":35,"source":"경기부동산포털 국공유지조회·연속지적도","source_date":"2026-08-11","installed_solar_match":false}}]}