{"type":"FeatureCollection","name":"gyeonggi_41310_province_solar_candidates","metadata":{"generated_on":"2026-08-11","source":"경기부동산포털 국공유지조회·연속지적도","source_agency":"경기도","ownership_source":"경기부동산포털 국공유지조회","coverage":"구리시","owner_code":"4","owner_type":"경기도유지","minimum_area_sqm":100.0,"feature_count":39,"coordinate_reference":"GRIS native values interpreted as EPSG:5174 and projected to EPSG:4326","coordinate_precision":"7 decimals, increased only when needed to keep narrow-parcel points inside","disclaimer":"설치 가능 확정이 아닌 현장조사 우선순위"},"features":[{"type":"Feature","id":"4131010700104310005","geometry":{"type":"Point","coordinates":[127.1504447,37.5830762]},"properties":{"pnu":"4131010700104310005","municipality_code":"41310","municipality":"구리시","district":"구리시","locality":"토평동","address":"구리시 토평동 431-5","owner_type":"경기도유지","owner_label":"경기도","manager":"건설국 하천과","property_class":"일반재산","land_category":"잡종지","area_sqm":18188.0,"area_band":"5,000㎡ 이상","interest_category":"잡종지","solar_candidate":"Y","candidate_reason":"실제 이용·점유 여부 확인 후 검토할 잡종지; 면적 18,188㎡","priority_score":90,"source":"경기부동산포털 국공유지조회·연속지적도","source_date":"2026-08-11","installed_solar_match":false}},{"type":"Feature","id":"4131010700104310006","geometry":{"type":"Point","coordinates":[127.1523626,37.5840955]},"properties":{"pnu":"4131010700104310006","municipality_code":"41310","municipality":"구리시","district":"구리시","locality":"토평동","address":"구리시 토평동 431-6","owner_type":"경기도유지","owner_label":"경기도","manager":"건설국 하천과","property_class":"일반재산","land_category":"잡종지","area_sqm":14781.0,"area_band":"5,000㎡ 이상","interest_category":"잡종지","solar_candidate":"Y","candidate_reason":"실제 이용·점유 여부 확인 후 검토할 잡종지; 면적 14,781㎡","priority_score":90,"source":"경기부동산포털 국공유지조회·연속지적도","source_date":"2026-08-11","installed_solar_match":false}},{"type":"Feature","id":"4131010700100190003","geometry":{"type":"Point","coordinates":[127.1598673,37.586547]},"properties":{"pnu":"4131010700100190003","municipality_code":"41310","municipality":"구리시","district":"구리시","locality":"토평동","address":"구리시 토평동 19-3","owner_type":"경기도유지","owner_label":"경기도","manager":"건설국 하천과","property_class":"일반재산","land_category":"주차장","area_sqm":3295.0,"area_band":"3,000~5,000㎡","interest_category":"주차장","solar_candidate":"Y","candidate_reason":"주차면 상부 태양광을 우선 검토할 지목; 면적 3,295㎡","priority_score":90,"source":"경기부동산포털 국공유지조회·연속지적도","source_date":"2026-08-11","installed_solar_match":false}},{"type":"Feature","id":"4131010700105230003","geometry":{"type":"Point","coordinates":[127.1473424,37.5815905]},"properties":{"pnu":"4131010700105230003","municipality_code":"41310","municipality":"구리시","district":"구리시","locality":"토평동","address":"구리시 토평동 523-3","owner_type":"경기도유지","owner_label":"경기도","manager":"건설국 하천과","property_class":"일반재산","land_category":"잡종지","area_sqm":3353.0,"area_band":"3,000~5,000㎡","interest_category":"잡종지","solar_candidate":"Y","candidate_reason":"실제 이용·점유 여부 확인 후 검토할 잡종지; 면적 3,353㎡","priority_score":85,"source":"경기부동산포털 국공유지조회·연속지적도","source_date":"2026-08-11","installed_solar_match":false}},{"type":"Feature","id":"4131010700100510001","geometry":{"type":"Point","coordinates":[127.1539515,37.5848537]},"properties":{"pnu":"4131010700100510001","municipality_code":"41310","municipality":"구리시","district":"구리시","locality":"토평동","address":"구리시 토평동 51-1","owner_type":"경기도유지","owner_label":"경기도","manager":"건설국 하천과","property_class":"일반재산","land_category":"잡종지","area_sqm":3200.0,"area_band":"3,000~5,000㎡","interest_category":"잡종지","solar_candidate":"Y","candidate_reason":"실제 이용·점유 여부 확인 후 검토할 잡종지; 면적 3,200㎡","priority_score":85,"source":"경기부동산포털 국공유지조회·연속지적도","source_date":"2026-08-11","installed_solar_match":false}},{"type":"Feature","id":"4131010700100190002","geometry":{"type":"Point","coordinates":[127.1600684,37.5868557]},"properties":{"pnu":"4131010700100190002","municipality_code":"41310","municipality":"구리시","district":"구리시","locality":"토평동","address":"구리시 토평동 19-2","owner_type":"경기도유지","owner_label":"경기도","manager":"건설국 하천과","property_class":"일반재산","land_category":"잡종지","area_sqm":3079.0,"area_band":"3,000~5,000㎡","interest_category":"잡종지","solar_candidate":"Y","candidate_reason":"실제 이용·점유 여부 확인 후 검토할 잡종지; 면적 3,079㎡","priority_score":85,"source":"경기부동산포털 국공유지조회·연속지적도","source_date":"2026-08-11","installed_solar_match":false}},{"type":"Feature","id":"4131010700100510004","geometry":{"type":"Point","coordinates":[127.1548345,37.5849515]},"properties":{"pnu":"4131010700100510004","municipality_code":"41310","municipality":"구리시","district":"구리시","locality":"토평동","address":"구리시 토평동 51-4","owner_type":"경기도유지","owner_label":"경기도","manager":"건설국 하천과","property_class":"일반재산","land_category":"잡종지","area_sqm":2653.0,"area_band":"1,000~3,000㎡","interest_category":"잡종지","solar_candidate":"Y","candidate_reason":"실제 이용·점유 여부 확인 후 검토할 잡종지; 면적 2,653㎡","priority_score":78,"source":"경기부동산포털 국공유지조회·연속지적도","source_date":"2026-08-11","installed_solar_match":false}},{"type":"Feature","id":"4131010700104310017","geometry":{"type":"Point","coordinates":[127.1489457,37.5821357]},"properties":{"pnu":"4131010700104310017","municipality_code":"41310","municipality":"구리시","district":"구리시","locality":"토평동","address":"구리시 토평동 431-17","owner_type":"경기도유지","owner_label":"경기도","manager":"건설국 하천과","property_class":"일반재산","land_category":"잡종지","area_sqm":1674.0,"area_band":"1,000~3,000㎡","interest_category":"잡종지","solar_candidate":"Y","candidate_reason":"실제 이용·점유 여부 확인 후 검토할 잡종지; 면적 1,674㎡","priority_score":78,"source":"경기부동산포털 국공유지조회·연속지적도","source_date":"2026-08-11","installed_solar_match":false}},{"type":"Feature","id":"4131010700104310002","geometry":{"type":"Point","coordinates":[127.1485863,37.5825177]},"properties":{"pnu":"4131010700104310002","municipality_code":"41310","municipality":"구리시","district":"구리시","locality":"토평동","address":"구리시 토평동 431-2","owner_type":"경기도유지","owner_label":"경기도","manager":"건설국 하천과","property_class":"일반재산","land_category":"잡종지","area_sqm":1510.0,"area_band":"1,000~3,000㎡","interest_category":"잡종지","solar_candidate":"Y","candidate_reason":"실제 이용·점유 여부 확인 후 검토할 잡종지; 면적 1,510㎡","priority_score":78,"source":"경기부동산포털 국공유지조회·연속지적도","source_date":"2026-08-11","installed_solar_match":false}},{"type":"Feature","id":"4131010700100190013","geometry":{"type":"Point","coordinates":[127.1594752,37.5860981]},"properties":{"pnu":"4131010700100190013","municipality_code":"41310","municipality":"구리시","district":"구리시","locality":"토평동","address":"구리시 토평동 19-13","owner_type":"경기도유지","owner_label":"경기도","manager":"건설국 하천과","property_class":"일반재산","land_category":"잡종지","area_sqm":1412.0,"area_band":"1,000~3,000㎡","interest_category":"잡종지","solar_candidate":"Y","candidate_reason":"실제 이용·점유 여부 확인 후 검토할 잡종지; 면적 1,412㎡","priority_score":78,"source":"경기부동산포털 국공유지조회·연속지적도","source_date":"2026-08-11","installed_solar_match":false}},{"type":"Feature","id":"4131010700100190006","geometry":{"type":"Point","coordinates":[127.1610667,37.5850315]},"properties":{"pnu":"4131010700100190006","municipality_code":"41310","municipality":"구리시","district":"구리시","locality":"토평동","address":"구리시 토평동 19-6","owner_type":"경기도유지","owner_label":"경기도","manager":"건설국 하천과","property_class":"일반재산","land_category":"잡종지","area_sqm":1264.0,"area_band":"1,000~3,000㎡","interest_category":"잡종지","solar_candidate":"Y","candidate_reason":"실제 이용·점유 여부 확인 후 검토할 잡종지; 면적 1,264㎡","priority_score":78,"source":"경기부동산포털 국공유지조회·연속지적도","source_date":"2026-08-11","installed_solar_match":false}},{"type":"Feature","id":"4131010700100510002","geometry":{"type":"Point","coordinates":[127.154199,37.5851691]},"properties":{"pnu":"4131010700100510002","municipality_code":"41310","municipality":"구리시","district":"구리시","locality":"토평동","address":"구리시 토평동 51-2","owner_type":"경기도유지","owner_label":"경기도","manager":"건설국 하천과","property_class":"일반재산","land_category":"잡종지","area_sqm":1206.0,"area_band":"1,000~3,000㎡","interest_category":"잡종지","solar_candidate":"Y","candidate_reason":"실제 이용·점유 여부 확인 후 검토할 잡종지; 면적 1,206㎡","priority_score":78,"source":"경기부동산포털 국공유지조회·연속지적도","source_date":"2026-08-11","installed_solar_match":false}},{"type":"Feature","id":"4131010700100190005","geometry":{"type":"Point","coordinates":[127.1605262,37.5854821]},"properties":{"pnu":"4131010700100190005","municipality_code":"41310","municipality":"구리시","district":"구리시","locality":"토평동","address":"구리시 토평동 19-5","owner_type":"경기도유지","owner_label":"경기도","manager":"건설국 하천과","property_class":"일반재산","land_category":"잡종지","area_sqm":1027.0,"area_band":"1,000~3,000㎡","interest_category":"잡종지","solar_candidate":"Y","candidate_reason":"실제 이용·점유 여부 확인 후 검토할 잡종지; 면적 1,027㎡","priority_score":78,"source":"경기부동산포털 국공유지조회·연속지적도","source_date":"2026-08-11","installed_solar_match":false}},{"type":"Feature","id":"4131010400103960001","geometry":{"type":"Point","coordinates":[127.1303035,37.5934139]},"properties":{"pnu":"4131010400103960001","municipality_code":"41310","municipality":"구리시","district":"구리시","locality":"교문동","address":"구리시 교문동 396-1","owner_type":"경기도유지","owner_label":"경기도(교육감)","manager":"","property_class":"","land_category":"잡종지","area_sqm":12234.0,"area_band":"5,000㎡ 이상","interest_category":"잡종지","solar_candidate":"Y","candidate_reason":"실제 이용·점유 여부 확인 후 검토할 잡종지; 면적 12,234㎡","priority_score":75,"source":"경기부동산포털 국공유지조회·연속지적도","source_date":"2026-08-11","installed_solar_match":false}},{"type":"Feature","id":"4131010700104310001","geometry":{"type":"Point","coordinates":[127.1481248,37.582203]},"properties":{"pnu":"4131010700104310001","municipality_code":"41310","municipality":"구리시","district":"구리시","locality":"토평동","address":"구리시 토평동 431-1","owner_type":"경기도유지","owner_label":"경기도","manager":"건설국 하천과","property_class":"일반재산","land_category":"잡종지","area_sqm":770.0,"area_band":"500~1,000㎡","interest_category":"잡종지","solar_candidate":"Y","candidate_reason":"실제 이용·점유 여부 확인 후 검토할 잡종지; 면적 770㎡","priority_score":70,"source":"경기부동산포털 국공유지조회·연속지적도","source_date":"2026-08-11","installed_solar_match":false}},{"type":"Feature","id":"4131010700104310004","geometry":{"type":"Point","coordinates":[127.1496514,37.5831493]},"properties":{"pnu":"4131010700104310004","municipality_code":"41310","municipality":"구리시","district":"구리시","locality":"토평동","address":"구리시 토평동 431-4","owner_type":"경기도유지","owner_label":"경기도","manager":"건설국 하천과","property_class":"일반재산","land_category":"잡종지","area_sqm":625.0,"area_band":"500~1,000㎡","interest_category":"잡종지","solar_candidate":"Y","candidate_reason":"실제 이용·점유 여부 확인 후 검토할 잡종지; 면적 625㎡","priority_score":70,"source":"경기부동산포털 국공유지조회·연속지적도","source_date":"2026-08-11","installed_solar_match":false}},{"type":"Feature","id":"4131010400103540006","geometry":{"type":"Point","coordinates":[127.1277846,37.5982978]},"properties":{"pnu":"4131010400103540006","municipality_code":"41310","municipality":"구리시","district":"구리시","locality":"교문동","address":"구리시 교문동 354-6","owner_type":"경기도유지","owner_label":"경기도","manager":"소방재난본부 회계장비담당관","property_class":"행정재산","land_category":"대","area_sqm":5502.0,"area_band":"5,000㎡ 이상","interest_category":"대","solar_candidate":"Y","candidate_reason":"청사·공공건축물·주차장 현황 추가 확인 필요; 면적 5,502㎡","priority_score":65,"source":"경기부동산포털 국공유지조회·연속지적도","source_date":"2026-08-11","installed_solar_match":false}},{"type":"Feature","id":"4131010700100190004","geometry":{"type":"Point","coordinates":[127.1600657,37.5857429]},"properties":{"pnu":"4131010700100190004","municipality_code":"41310","municipality":"구리시","district":"구리시","locality":"토평동","address":"구리시 토평동 19-4","owner_type":"경기도유지","owner_label":"경기도","manager":"건설국 하천과","property_class":"일반재산","land_category":"잡종지","area_sqm":492.0,"area_band":"100~500㎡","interest_category":"잡종지","solar_candidate":"Y","candidate_reason":"실제 이용·점유 여부 확인 후 검토할 잡종지; 면적 492㎡","priority_score":65,"source":"경기부동산포털 국공유지조회·연속지적도","source_date":"2026-08-11","installed_solar_match":false}},{"type":"Feature","id":"4131010700105250019","geometry":{"type":"Point","coordinates":[127.1465075,37.5805156]},"properties":{"pnu":"4131010700105250019","municipality_code":"41310","municipality":"구리시","district":"구리시","locality":"토평동","address":"구리시 토평동 525-19","owner_type":"경기도유지","owner_label":"경기도","manager":"건설국 하천과","property_class":"일반재산","land_category":"잡종지","area_sqm":314.0,"area_band":"100~500㎡","interest_category":"잡종지","solar_candidate":"Y","candidate_reason":"실제 이용·점유 여부 확인 후 검토할 잡종지; 면적 314㎡","priority_score":65,"source":"경기부동산포털 국공유지조회·연속지적도","source_date":"2026-08-11","installed_solar_match":false}},{"type":"Feature","id":"4131010700105250020","geometry":{"type":"Point","coordinates":[127.1463768,37.5800804]},"properties":{"pnu":"4131010700105250020","municipality_code":"41310","municipality":"구리시","district":"구리시","locality":"토평동","address":"구리시 토평동 525-20","owner_type":"경기도유지","owner_label":"경기도","manager":"건설국 하천과","property_class":"일반재산","land_category":"잡종지","area_sqm":305.0,"area_band":"100~500㎡","interest_category":"잡종지","solar_candidate":"Y","candidate_reason":"실제 이용·점유 여부 확인 후 검토할 잡종지; 면적 305㎡","priority_score":65,"source":"경기부동산포털 국공유지조회·연속지적도","source_date":"2026-08-11","installed_solar_match":false}},{"type":"Feature","id":"4131010700105250003","geometry":{"type":"Point","coordinates":[127.1466042,37.5805054]},"properties":{"pnu":"4131010700105250003","municipality_code":"41310","municipality":"구리시","district":"구리시","locality":"토평동","address":"구리시 토평동 525-3","owner_type":"경기도유지","owner_label":"경기도","manager":"건설국 하천과","property_class":"일반재산","land_category":"잡종지","area_sqm":292.0,"area_band":"100~500㎡","interest_category":"잡종지","solar_candidate":"Y","candidate_reason":"실제 이용·점유 여부 확인 후 검토할 잡종지; 면적 292㎡","priority_score":65,"source":"경기부동산포털 국공유지조회·연속지적도","source_date":"2026-08-11","installed_solar_match":false}},{"type":"Feature","id":"4131010700105250004","geometry":{"type":"Point","coordinates":[127.1465376,37.5800181]},"properties":{"pnu":"4131010700105250004","municipality_code":"41310","municipality":"구리시","district":"구리시","locality":"토평동","address":"구리시 토평동 525-4","owner_type":"경기도유지","owner_label":"경기도","manager":"건설국 하천과","property_class":"일반재산","land_category":"잡종지","area_sqm":149.0,"area_band":"100~500㎡","interest_category":"잡종지","solar_candidate":"Y","candidate_reason":"실제 이용·점유 여부 확인 후 검토할 잡종지; 면적 149㎡","priority_score":65,"source":"경기부동산포털 국공유지조회·연속지적도","source_date":"2026-08-11","installed_solar_match":false}},{"type":"Feature","id":"4131010700104310013","geometry":{"type":"Point","coordinates":[127.1492363,37.5827191]},"properties":{"pnu":"4131010700104310013","municipality_code":"41310","municipality":"구리시","district":"구리시","locality":"토평동","address":"구리시 토평동 431-13","owner_type":"경기도유지","owner_label":"경기도","manager":"건설국 하천과","property_class":"일반재산","land_category":"잡종지","area_sqm":146.0,"area_band":"100~500㎡","interest_category":"잡종지","solar_candidate":"Y","candidate_reason":"실제 이용·점유 여부 확인 후 검토할 잡종지; 면적 146㎡","priority_score":65,"source":"경기부동산포털 국공유지조회·연속지적도","source_date":"2026-08-11","installed_solar_match":false}},{"type":"Feature","id":"4131010500103630002","geometry":{"type":"Point","coordinates":[127.1492486,37.6012096]},"properties":{"pnu":"4131010500103630002","municipality_code":"41310","municipality":"구리시","district":"구리시","locality":"수택동","address":"구리시 수택동 363-2","owner_type":"경기도유지","owner_label":"경기도","manager":"건설국 하천과","property_class":"행정재산","land_category":"잡종지","area_sqm":1035.0,"area_band":"1,000~3,000㎡","interest_category":"잡종지","solar_candidate":"Y","candidate_reason":"실제 이용·점유 여부 확인 후 검토할 잡종지; 면적 1,035㎡","priority_score":63,"source":"경기부동산포털 국공유지조회·연속지적도","source_date":"2026-08-11","installed_solar_match":false}},{"type":"Feature","id":"4131010500103670001","geometry":{"type":"Point","coordinates":[127.1483966,37.6030069]},"properties":{"pnu":"4131010500103670001","municipality_code":"41310","municipality":"구리시","district":"구리시","locality":"수택동","address":"구리시 수택동 367-1","owner_type":"경기도유지","owner_label":"경기도","manager":"건설국 하천과","property_class":"행정재산","land_category":"잡종지","area_sqm":897.0,"area_band":"500~1,000㎡","interest_category":"잡종지","solar_candidate":"검토필요","candidate_reason":"실제 이용·점유 여부 확인 후 검토할 잡종지; 면적 897㎡","priority_score":55,"source":"경기부동산포털 국공유지조회·연속지적도","source_date":"2026-08-11","installed_solar_match":false}},{"type":"Feature","id":"4131010100106540001","geometry":{"type":"Point","coordinates":[127.1206025,37.6294997]},"properties":{"pnu":"4131010100106540001","municipality_code":"41310","municipality":"구리시","district":"구리시","locality":"갈매동","address":"구리시 갈매동 654-1","owner_type":"경기도유지","owner_label":"경기도","manager":"소방재난본부 회계장비담당관","property_class":"행정재산","land_category":"대","area_sqm":1001.3,"area_band":"1,000~3,000㎡","interest_category":"대","solar_candidate":"검토필요","candidate_reason":"청사·공공건축물·주차장 현황 추가 확인 필요; 면적 1,001㎡","priority_score":53,"source":"경기부동산포털 국공유지조회·연속지적도","source_date":"2026-08-11","installed_solar_match":true,"installed_solar_count":1,"installed_solar_area_sqm":54.6,"installed_solar_analysis_years":["2024"],"installed_solar_types":["공공시설물"],"installed_solar_permit_status_counts":{"N":1}}},{"type":"Feature","id":"4131010500103630011","geometry":{"type":"Point","coordinates":[127.1491378,37.6014889]},"properties":{"pnu":"4131010500103630011","municipality_code":"41310","municipality":"구리시","district":"구리시","locality":"수택동","address":"구리시 수택동 363-11","owner_type":"경기도유지","owner_label":"경기도","manager":"건설국 하천과","property_class":"행정재산","land_category":"잡종지","area_sqm":284.0,"area_band":"100~500㎡","interest_category":"잡종지","solar_candidate":"검토필요","candidate_reason":"실제 이용·점유 여부 확인 후 검토할 잡종지; 면적 284㎡","priority_score":50,"source":"경기부동산포털 국공유지조회·연속지적도","source_date":"2026-08-11","installed_solar_match":false}},{"type":"Feature","id":"4131010500103670004","geometry":{"type":"Point","coordinates":[127.1482739,37.6028609]},"properties":{"pnu":"4131010500103670004","municipality_code":"41310","municipality":"구리시","district":"구리시","locality":"수택동","address":"구리시 수택동 367-4","owner_type":"경기도유지","owner_label":"경기도","manager":"건설국 하천과","property_class":"행정재산","land_category":"잡종지","area_sqm":274.0,"area_band":"100~500㎡","interest_category":"잡종지","solar_candidate":"검토필요","candidate_reason":"실제 이용·점유 여부 확인 후 검토할 잡종지; 면적 274㎡","priority_score":50,"source":"경기부동산포털 국공유지조회·연속지적도","source_date":"2026-08-11","installed_solar_match":false}},{"type":"Feature","id":"4131010600101190004","geometry":{"type":"Point","coordinates":[127.1243653,37.5709465]},"properties":{"pnu":"4131010600101190004","municipality_code":"41310","municipality":"구리시","district":"구리시","locality":"아천동","address":"구리시 아천동 119-4","owner_type":"경기도유지","owner_label":"경기도","manager":"자치행정국 자산관리과","property_class":"일반재산","land_category":"유지","area_sqm":5200.0,"area_band":"5,000㎡ 이상","interest_category":"대규모부지","solar_candidate":"검토필요","candidate_reason":"넓은 경기도유지로 실제 이용·규제 현황 추가 검토; 면적 5,200㎡","priority_score":45,"source":"경기부동산포털 국공유지조회·연속지적도","source_date":"2026-08-11","installed_solar_match":false}},{"type":"Feature","id":"4131010500103680015","geometry":{"type":"Point","coordinates":[127.1481537,37.6033593]},"properties":{"pnu":"4131010500103680015","municipality_code":"41310","municipality":"구리시","district":"구리시","locality":"수택동","address":"구리시 수택동 368-15","owner_type":"경기도유지","owner_label":"경기도","manager":"건설국 하천과","property_class":"행정재산","land_category":"대","area_sqm":788.0,"area_band":"500~1,000㎡","interest_category":"대","solar_candidate":"검토필요","candidate_reason":"청사·공공건축물·주차장 현황 추가 확인 필요; 면적 788㎡","priority_score":45,"source":"경기부동산포털 국공유지조회·연속지적도","source_date":"2026-08-11","installed_solar_match":false}},{"type":"Feature","id":"4131010300106730003","geometry":{"type":"Point","coordinates":[127.1419429,37.6041716]},"properties":{"pnu":"4131010300106730003","municipality_code":"41310","municipality":"구리시","district":"구리시","locality":"인창동","address":"구리시 인창동 673-3","owner_type":"경기도유지","owner_label":"경기도","manager":"소방재난본부 회계장비담당관","property_class":"행정재산","land_category":"대","area_sqm":657.4,"area_band":"500~1,000㎡","interest_category":"대","solar_candidate":"검토필요","candidate_reason":"청사·공공건축물·주차장 현황 추가 확인 필요; 면적 657㎡","priority_score":45,"source":"경기부동산포털 국공유지조회·연속지적도","source_date":"2026-08-11","installed_solar_match":false}},{"type":"Feature","id":"4131010500104940014","geometry":{"type":"Point","coordinates":[127.1481075,37.596946]},"properties":{"pnu":"4131010500104940014","municipality_code":"41310","municipality":"구리시","district":"구리시","locality":"수택동","address":"구리시 수택동 494-14","owner_type":"경기도유지","owner_label":"경기도","manager":"소방재난본부 회계장비담당관","property_class":"행정재산","land_category":"대","area_sqm":545.6,"area_band":"500~1,000㎡","interest_category":"대","solar_candidate":"검토필요","candidate_reason":"청사·공공건축물·주차장 현황 추가 확인 필요; 면적 546㎡","priority_score":45,"source":"경기부동산포털 국공유지조회·연속지적도","source_date":"2026-08-11","installed_solar_match":false}},{"type":"Feature","id":"4131010500103680026","geometry":{"type":"Point","coordinates":[127.148076,37.6032041]},"properties":{"pnu":"4131010500103680026","municipality_code":"41310","municipality":"구리시","district":"구리시","locality":"수택동","address":"구리시 수택동 368-26","owner_type":"경기도유지","owner_label":"경기도","manager":"건설국 하천과","property_class":"행정재산","land_category":"대","area_sqm":525.0,"area_band":"500~1,000㎡","interest_category":"대","solar_candidate":"검토필요","candidate_reason":"청사·공공건축물·주차장 현황 추가 확인 필요; 면적 525㎡","priority_score":45,"source":"경기부동산포털 국공유지조회·연속지적도","source_date":"2026-08-11","installed_solar_match":false}},{"type":"Feature","id":"4131010700105250018","geometry":{"type":"Point","coordinates":[127.1461639,37.5800442]},"properties":{"pnu":"4131010700105250018","municipality_code":"41310","municipality":"구리시","district":"구리시","locality":"토평동","address":"구리시 토평동 525-18","owner_type":"경기도유지","owner_label":"경기도","manager":"건설국 하천과","property_class":"일반재산","land_category":"하천","area_sqm":4653.0,"area_band":"3,000~5,000㎡","interest_category":"대규모부지","solar_candidate":"검토필요","candidate_reason":"넓은 경기도유지로 실제 이용·규제 현황 추가 검토; 면적 4,653㎡","priority_score":40,"source":"경기부동산포털 국공유지조회·연속지적도","source_date":"2026-08-11","installed_solar_match":false}},{"type":"Feature","id":"4131010500103680004","geometry":{"type":"Point","coordinates":[127.1482337,37.6035375]},"properties":{"pnu":"4131010500103680004","municipality_code":"41310","municipality":"구리시","district":"구리시","locality":"수택동","address":"구리시 수택동 368-4","owner_type":"경기도유지","owner_label":"경기도","manager":"건설국 하천과","property_class":"행정재산","land_category":"대","area_sqm":347.0,"area_band":"100~500㎡","interest_category":"대","solar_candidate":"검토필요","candidate_reason":"청사·공공건축물·주차장 현황 추가 확인 필요; 면적 347㎡","priority_score":40,"source":"경기부동산포털 국공유지조회·연속지적도","source_date":"2026-08-11","installed_solar_match":false}},{"type":"Feature","id":"4131010300100200001","geometry":{"type":"Point","coordinates":[127.1410345,37.6227872]},"properties":{"pnu":"4131010300100200001","municipality_code":"41310","municipality":"구리시","district":"구리시","locality":"인창동","address":"구리시 인창동 20-1","owner_type":"경기도유지","owner_label":"경기도","manager":"소방재난본부 회계장비담당관","property_class":"행정재산","land_category":"대","area_sqm":330.0,"area_band":"100~500㎡","interest_category":"대","solar_candidate":"검토필요","candidate_reason":"청사·공공건축물·주차장 현황 추가 확인 필요; 면적 330㎡","priority_score":40,"source":"경기부동산포털 국공유지조회·연속지적도","source_date":"2026-08-11","installed_solar_match":false}},{"type":"Feature","id":"4131010100104370002","geometry":{"type":"Point","coordinates":[127.1065579,37.6212494]},"properties":{"pnu":"4131010100104370002","municipality_code":"41310","municipality":"구리시","district":"구리시","locality":"갈매동","address":"구리시 갈매동 437-2","owner_type":"경기도유지","owner_label":"경기도","manager":"건설국 하천과","property_class":"행정재산","land_category":"대","area_sqm":272.0,"area_band":"100~500㎡","interest_category":"대","solar_candidate":"검토필요","candidate_reason":"청사·공공건축물·주차장 현황 추가 확인 필요; 면적 272㎡","priority_score":40,"source":"경기부동산포털 국공유지조회·연속지적도","source_date":"2026-08-11","installed_solar_match":false}},{"type":"Feature","id":"4131010400108090005","geometry":{"type":"Point","coordinates":[127.1353558,37.5920312]},"properties":{"pnu":"4131010400108090005","municipality_code":"41310","municipality":"구리시","district":"구리시","locality":"교문동","address":"구리시 교문동 809-5","owner_type":"경기도유지","owner_label":"경기도","manager":"건설국 도로정책과","property_class":"행정재산","land_category":"대","area_sqm":145.7,"area_band":"100~500㎡","interest_category":"대","solar_candidate":"검토필요","candidate_reason":"청사·공공건축물·주차장 현황 추가 확인 필요; 면적 146㎡","priority_score":40,"source":"경기부동산포털 국공유지조회·연속지적도","source_date":"2026-08-11","installed_solar_match":false}},{"type":"Feature","id":"4131010700100510003","geometry":{"type":"Point","coordinates":[127.1544131,37.5850216]},"properties":{"pnu":"4131010700100510003","municipality_code":"41310","municipality":"구리시","district":"구리시","locality":"토평동","address":"구리시 토평동 51-3","owner_type":"경기도유지","owner_label":"경기도","manager":"건설국 하천과","property_class":"일반재산","land_category":"도로","area_sqm":837.0,"area_band":"500~1,000㎡","interest_category":"도로","solar_candidate":"검토필요","candidate_reason":"도로점용 및 실제 이용형태 추가 검토 필요; 면적 837㎡","priority_score":35,"source":"경기부동산포털 국공유지조회·연속지적도","source_date":"2026-08-11","installed_solar_match":false}}]}