{"type":"FeatureCollection","name":"gyeonggi_41370_province_solar_candidates","metadata":{"generated_on":"2026-08-11","source":"경기부동산포털 국공유지조회·연속지적도","source_agency":"경기도","ownership_source":"경기부동산포털 국공유지조회","coverage":"오산시","owner_code":"4","owner_type":"경기도유지","minimum_area_sqm":100.0,"feature_count":17,"coordinate_reference":"GRIS native values interpreted as EPSG:5174 and projected to EPSG:4326","coordinate_precision":"7 decimals, increased only when needed to keep narrow-parcel points inside","disclaimer":"설치 가능 확정이 아닌 현장조사 우선순위"},"features":[{"type":"Feature","id":"4137011000109060000","geometry":{"type":"Point","coordinates":[127.0613596,37.1859985]},"properties":{"pnu":"4137011000109060000","municipality_code":"41370","municipality":"오산시","district":"오산시","locality":"내삼미동","address":"오산시 내삼미동 906","owner_type":"경기도유지","owner_label":"경기도(교육감)","manager":"","property_class":"","land_category":"대","area_sqm":27488.8,"area_band":"5,000㎡ 이상","interest_category":"대","solar_candidate":"Y","candidate_reason":"청사·공공건축물·주차장 현황 추가 확인 필요; 면적 27,489㎡","priority_score":65,"source":"경기부동산포털 국공유지조회·연속지적도","source_date":"2026-08-11","installed_solar_match":true,"installed_solar_count":1,"installed_solar_area_sqm":132.9,"installed_solar_analysis_years":["2024"],"installed_solar_types":["공공시설물"],"installed_solar_permit_status_counts":{"N":1}}},{"type":"Feature","id":"4137011000108800000","geometry":{"type":"Point","coordinates":[127.0537427,37.1752087]},"properties":{"pnu":"4137011000108800000","municipality_code":"41370","municipality":"오산시","district":"오산시","locality":"내삼미동","address":"오산시 내삼미동 880","owner_type":"경기도유지","owner_label":"경기도","manager":"소방재난본부 회계장비담당관","property_class":"행정재산","land_category":"대","area_sqm":7275.9,"area_band":"5,000㎡ 이상","interest_category":"대","solar_candidate":"Y","candidate_reason":"청사·공공건축물·주차장 현황 추가 확인 필요; 면적 7,276㎡","priority_score":65,"source":"경기부동산포털 국공유지조회·연속지적도","source_date":"2026-08-11","installed_solar_match":true,"installed_solar_count":1,"installed_solar_area_sqm":158.6,"installed_solar_analysis_years":["2024"],"installed_solar_types":["공공시설물"],"installed_solar_permit_status_counts":{"N":1}}},{"type":"Feature","id":"4137011000108960002","geometry":{"type":"Point","coordinates":[127.0650723,37.1733936]},"properties":{"pnu":"4137011000108960002","municipality_code":"41370","municipality":"오산시","district":"오산시","locality":"내삼미동","address":"오산시 내삼미동 896-2","owner_type":"경기도유지","owner_label":"경기도(교육감)","manager":"","property_class":"","land_category":"대","area_sqm":1573.1,"area_band":"1,000~3,000㎡","interest_category":"대","solar_candidate":"검토필요","candidate_reason":"청사·공공건축물·주차장 현황 추가 확인 필요; 면적 1,573㎡","priority_score":53,"source":"경기부동산포털 국공유지조회·연속지적도","source_date":"2026-08-11","installed_solar_match":false}},{"type":"Feature","id":"4137010200106080000","geometry":{"type":"Point","coordinates":[127.0852331,37.14915]},"properties":{"pnu":"4137010200106080000","municipality_code":"41370","municipality":"오산시","district":"오산시","locality":"부산동","address":"오산시 부산동 608","owner_type":"경기도유지","owner_label":"경기도(교육감)","manager":"","property_class":"","land_category":"대","area_sqm":1499.0,"area_band":"1,000~3,000㎡","interest_category":"대","solar_candidate":"검토필요","candidate_reason":"청사·공공건축물·주차장 현황 추가 확인 필요; 면적 1,499㎡","priority_score":53,"source":"경기부동산포털 국공유지조회·연속지적도","source_date":"2026-08-11","installed_solar_match":false}},{"type":"Feature","id":"4137011700101160010","geometry":{"type":"Point","coordinates":[127.0371066,37.138924]},"properties":{"pnu":"4137011700101160010","municipality_code":"41370","municipality":"오산시","district":"오산시","locality":"벌음동","address":"오산시 벌음동 116-10","owner_type":"경기도유지","owner_label":"경기도","manager":"건설국 도로정책과","property_class":"행정재산","land_category":"잡종지","area_sqm":253.0,"area_band":"100~500㎡","interest_category":"잡종지","solar_candidate":"검토필요","candidate_reason":"실제 이용·점유 여부 확인 후 검토할 잡종지; 면적 253㎡","priority_score":50,"source":"경기부동산포털 국공유지조회·연속지적도","source_date":"2026-08-11","installed_solar_match":false}},{"type":"Feature","id":"4137010100104830002","geometry":{"type":"Point","coordinates":[127.0667164,37.1503994]},"properties":{"pnu":"4137010100104830002","municipality_code":"41370","municipality":"오산시","district":"오산시","locality":"오산동","address":"오산시 오산동 483-2","owner_type":"경기도유지","owner_label":"경기도(교육감)","manager":"","property_class":"","land_category":"대","area_sqm":762.0,"area_band":"500~1,000㎡","interest_category":"대","solar_candidate":"검토필요","candidate_reason":"청사·공공건축물·주차장 현황 추가 확인 필요; 면적 762㎡","priority_score":45,"source":"경기부동산포털 국공유지조회·연속지적도","source_date":"2026-08-11","installed_solar_match":false}},{"type":"Feature","id":"4137010700102360001","geometry":{"type":"Point","coordinates":[127.0527276,37.1687125]},"properties":{"pnu":"4137010700102360001","municipality_code":"41370","municipality":"오산시","district":"오산시","locality":"금암동","address":"오산시 금암동 236-1","owner_type":"경기도유지","owner_label":"경기도","manager":"경기도산림환경연구소","property_class":"행정재산","land_category":"대","area_sqm":749.0,"area_band":"500~1,000㎡","interest_category":"대","solar_candidate":"검토필요","candidate_reason":"청사·공공건축물·주차장 현황 추가 확인 필요; 면적 749㎡","priority_score":45,"source":"경기부동산포털 국공유지조회·연속지적도","source_date":"2026-08-11","installed_solar_match":false}},{"type":"Feature","id":"4137010100104780002","geometry":{"type":"Point","coordinates":[127.0670457,37.1503997]},"properties":{"pnu":"4137010100104780002","municipality_code":"41370","municipality":"오산시","district":"오산시","locality":"오산동","address":"오산시 오산동 478-2","owner_type":"경기도유지","owner_label":"경기도(교육감)","manager":"","property_class":"","land_category":"대","area_sqm":620.0,"area_band":"500~1,000㎡","interest_category":"대","solar_candidate":"검토필요","candidate_reason":"청사·공공건축물·주차장 현황 추가 확인 필요; 면적 620㎡","priority_score":45,"source":"경기부동산포털 국공유지조회·연속지적도","source_date":"2026-08-11","installed_solar_match":false}},{"type":"Feature","id":"4137010100109220001","geometry":{"type":"Point","coordinates":[127.0766113,37.1531596]},"properties":{"pnu":"4137010100109220001","municipality_code":"41370","municipality":"오산시","district":"오산시","locality":"오산동","address":"오산시 오산동 922-1","owner_type":"경기도유지","owner_label":"경기도","manager":"소방재난본부 회계장비담당관","property_class":"행정재산","land_category":"대","area_sqm":600.0,"area_band":"500~1,000㎡","interest_category":"대","solar_candidate":"검토필요","candidate_reason":"청사·공공건축물·주차장 현황 추가 확인 필요; 면적 600㎡","priority_score":45,"source":"경기부동산포털 국공유지조회·연속지적도","source_date":"2026-08-11","installed_solar_match":false}},{"type":"Feature","id":"4137010300108070001","geometry":{"type":"Point","coordinates":[127.0722319,37.1336278]},"properties":{"pnu":"4137010300108070001","municipality_code":"41370","municipality":"오산시","district":"오산시","locality":"원동","address":"오산시 원동 807-1","owner_type":"경기도유지","owner_label":"경기도","manager":"소방재난본부 회계장비담당관","property_class":"행정재산","land_category":"대","area_sqm":600.0,"area_band":"500~1,000㎡","interest_category":"대","solar_candidate":"검토필요","candidate_reason":"청사·공공건축물·주차장 현황 추가 확인 필요; 면적 600㎡","priority_score":45,"source":"경기부동산포털 국공유지조회·연속지적도","source_date":"2026-08-11","installed_solar_match":false}},{"type":"Feature","id":"4137010100104840005","geometry":{"type":"Point","coordinates":[127.0662601,37.1504789]},"properties":{"pnu":"4137010100104840005","municipality_code":"41370","municipality":"오산시","district":"오산시","locality":"오산동","address":"오산시 오산동 484-5","owner_type":"경기도유지","owner_label":"경기도(교육감)","manager":"","property_class":"","land_category":"대","area_sqm":364.0,"area_band":"100~500㎡","interest_category":"대","solar_candidate":"검토필요","candidate_reason":"청사·공공건축물·주차장 현황 추가 확인 필요; 면적 364㎡","priority_score":40,"source":"경기부동산포털 국공유지조회·연속지적도","source_date":"2026-08-11","installed_solar_match":false}},{"type":"Feature","id":"4137010100104830008","geometry":{"type":"Point","coordinates":[127.0664269,37.1504558]},"properties":{"pnu":"4137010100104830008","municipality_code":"41370","municipality":"오산시","district":"오산시","locality":"오산동","address":"오산시 오산동 483-8","owner_type":"경기도유지","owner_label":"경기도(교육감)","manager":"","property_class":"","land_category":"대","area_sqm":360.0,"area_band":"100~500㎡","interest_category":"대","solar_candidate":"검토필요","candidate_reason":"청사·공공건축물·주차장 현황 추가 확인 필요; 면적 360㎡","priority_score":40,"source":"경기부동산포털 국공유지조회·연속지적도","source_date":"2026-08-11","installed_solar_match":false}},{"type":"Feature","id":"4137010400100140001","geometry":{"type":"Point","coordinates":[127.066484,37.1599872]},"properties":{"pnu":"4137010400100140001","municipality_code":"41370","municipality":"오산시","district":"오산시","locality":"궐동","address":"오산시 궐동 14-1","owner_type":"경기도유지","owner_label":"경기도","manager":"건설국 하천과","property_class":"행정재산","land_category":"대","area_sqm":248.0,"area_band":"100~500㎡","interest_category":"대","solar_candidate":"검토필요","candidate_reason":"청사·공공건축물·주차장 현황 추가 확인 필요; 면적 248㎡","priority_score":40,"source":"경기부동산포털 국공유지조회·연속지적도","source_date":"2026-08-11","installed_solar_match":false}},{"type":"Feature","id":"4137011700101670019","geometry":{"type":"Point","coordinates":[127.037325,37.1388112]},"properties":{"pnu":"4137011700101670019","municipality_code":"41370","municipality":"오산시","district":"오산시","locality":"벌음동","address":"오산시 벌음동 167-19","owner_type":"경기도유지","owner_label":"경기도","manager":"건설국 도로정책과","property_class":"행정재산","land_category":"대","area_sqm":218.0,"area_band":"100~500㎡","interest_category":"대","solar_candidate":"검토필요","candidate_reason":"청사·공공건축물·주차장 현황 추가 확인 필요; 면적 218㎡","priority_score":40,"source":"경기부동산포털 국공유지조회·연속지적도","source_date":"2026-08-11","installed_solar_match":false}},{"type":"Feature","id":"4137010300100600026","geometry":{"type":"Point","coordinates":[127.0865975,37.1454543]},"properties":{"pnu":"4137010300100600026","municipality_code":"41370","municipality":"오산시","district":"오산시","locality":"원동","address":"오산시 원동 60-26","owner_type":"경기도유지","owner_label":"경기도(교육감)","manager":"","property_class":"","land_category":"대","area_sqm":180.0,"area_band":"100~500㎡","interest_category":"대","solar_candidate":"검토필요","candidate_reason":"청사·공공건축물·주차장 현황 추가 확인 필요; 면적 180㎡","priority_score":40,"source":"경기부동산포털 국공유지조회·연속지적도","source_date":"2026-08-11","installed_solar_match":false}},{"type":"Feature","id":"4137010100104830012","geometry":{"type":"Point","coordinates":[127.0667073,37.1505124]},"properties":{"pnu":"4137010100104830012","municipality_code":"41370","municipality":"오산시","district":"오산시","locality":"오산동","address":"오산시 오산동 483-12","owner_type":"경기도유지","owner_label":"경기도(교육감)","manager":"","property_class":"","land_category":"대","area_sqm":140.0,"area_band":"100~500㎡","interest_category":"대","solar_candidate":"검토필요","candidate_reason":"청사·공공건축물·주차장 현황 추가 확인 필요; 면적 140㎡","priority_score":40,"source":"경기부동산포털 국공유지조회·연속지적도","source_date":"2026-08-11","installed_solar_match":false}},{"type":"Feature","id":"4137011700101380006","geometry":{"type":"Point","coordinates":[127.0362277,37.1367099]},"properties":{"pnu":"4137011700101380006","municipality_code":"41370","municipality":"오산시","district":"오산시","locality":"벌음동","address":"오산시 벌음동 138-6","owner_type":"경기도유지","owner_label":"경기도","manager":"건설국 도로정책과","property_class":"행정재산","land_category":"대","area_sqm":129.0,"area_band":"100~500㎡","interest_category":"대","solar_candidate":"검토필요","candidate_reason":"청사·공공건축물·주차장 현황 추가 확인 필요; 면적 129㎡","priority_score":40,"source":"경기부동산포털 국공유지조회·연속지적도","source_date":"2026-08-11","installed_solar_match":false}}]}