{"type":"FeatureCollection","name":"gyeonggi_41390_province_solar_candidates","metadata":{"generated_on":"2026-08-11","source":"경기부동산포털 국공유지조회·연속지적도","source_agency":"경기도","ownership_source":"경기부동산포털 국공유지조회","coverage":"시흥시","owner_code":"4","owner_type":"경기도유지","minimum_area_sqm":100.0,"feature_count":100,"coordinate_reference":"GRIS native values interpreted as EPSG:5174 and projected to EPSG:4326","coordinate_precision":"7 decimals, increased only when needed to keep narrow-parcel points inside","disclaimer":"설치 가능 확정이 아닌 현장조사 우선순위"},"features":[{"type":"Feature","id":"4139013200117740002","geometry":{"type":"Point","coordinates":[126.7369711,37.3676806]},"properties":{"pnu":"4139013200117740002","municipality_code":"41390","municipality":"시흥시","district":"시흥시","locality":"정왕동","address":"시흥시 정왕동 1774-2","owner_type":"경기도유지","owner_label":"경기도","manager":"문화체육관광국 체육진흥과","property_class":"행정재산","land_category":"잡종지","area_sqm":8265.0,"area_band":"5,000㎡ 이상","interest_category":"잡종지","solar_candidate":"Y","candidate_reason":"실제 이용·점유 여부 확인 후 검토할 잡종지; 면적 8,265㎡","priority_score":75,"source":"경기부동산포털 국공유지조회·연속지적도","source_date":"2026-08-11","installed_solar_match":false}},{"type":"Feature","id":"4139013200118000001","geometry":{"type":"Point","coordinates":[126.7397223,37.3493402]},"properties":{"pnu":"4139013200118000001","municipality_code":"41390","municipality":"시흥시","district":"시흥시","locality":"정왕동","address":"시흥시 정왕동 1800-1","owner_type":"경기도유지","owner_label":"경기도","manager":"소방재난본부 회계장비담당관","property_class":"행정재산","land_category":"대","area_sqm":7124.2,"area_band":"5,000㎡ 이상","interest_category":"대","solar_candidate":"Y","candidate_reason":"청사·공공건축물·주차장 현황 추가 확인 필요; 면적 7,124㎡","priority_score":65,"source":"경기부동산포털 국공유지조회·연속지적도","source_date":"2026-08-11","installed_solar_match":false}},{"type":"Feature","id":"4139010100104200174","geometry":{"type":"Point","coordinates":[126.7915789,37.4508512]},"properties":{"pnu":"4139010100104200174","municipality_code":"41390","municipality":"시흥시","district":"시흥시","locality":"대야동","address":"시흥시 대야동 420-174","owner_type":"경기도유지","owner_label":"경기도","manager":"건설국 하천과","property_class":"일반재산","land_category":"잡종지","area_sqm":265.0,"area_band":"100~500㎡","interest_category":"잡종지","solar_candidate":"Y","candidate_reason":"실제 이용·점유 여부 확인 후 검토할 잡종지; 면적 265㎡","priority_score":65,"source":"경기부동산포털 국공유지조회·연속지적도","source_date":"2026-08-11","installed_solar_match":false}},{"type":"Feature","id":"4139010100104200046","geometry":{"type":"Point","coordinates":[126.7915399,37.4510463]},"properties":{"pnu":"4139010100104200046","municipality_code":"41390","municipality":"시흥시","district":"시흥시","locality":"대야동","address":"시흥시 대야동 420-46","owner_type":"경기도유지","owner_label":"경기도","manager":"건설국 하천과","property_class":"일반재산","land_category":"잡종지","area_sqm":223.0,"area_band":"100~500㎡","interest_category":"잡종지","solar_candidate":"Y","candidate_reason":"실제 이용·점유 여부 확인 후 검토할 잡종지; 면적 223㎡","priority_score":65,"source":"경기부동산포털 국공유지조회·연속지적도","source_date":"2026-08-11","installed_solar_match":false}},{"type":"Feature","id":"4139010100104200177","geometry":{"type":"Point","coordinates":[126.7916205,37.4507331]},"properties":{"pnu":"4139010100104200177","municipality_code":"41390","municipality":"시흥시","district":"시흥시","locality":"대야동","address":"시흥시 대야동 420-177","owner_type":"경기도유지","owner_label":"경기도","manager":"건설국 하천과","property_class":"일반재산","land_category":"잡종지","area_sqm":210.0,"area_band":"100~500㎡","interest_category":"잡종지","solar_candidate":"Y","candidate_reason":"실제 이용·점유 여부 확인 후 검토할 잡종지; 면적 210㎡","priority_score":65,"source":"경기부동산포털 국공유지조회·연속지적도","source_date":"2026-08-11","installed_solar_match":false}},{"type":"Feature","id":"4139010100104200093","geometry":{"type":"Point","coordinates":[126.7916055,37.4510818]},"properties":{"pnu":"4139010100104200093","municipality_code":"41390","municipality":"시흥시","district":"시흥시","locality":"대야동","address":"시흥시 대야동 420-93","owner_type":"경기도유지","owner_label":"경기도","manager":"건설국 하천과","property_class":"일반재산","land_category":"잡종지","area_sqm":103.0,"area_band":"100~500㎡","interest_category":"잡종지","solar_candidate":"Y","candidate_reason":"실제 이용·점유 여부 확인 후 검토할 잡종지; 면적 103㎡","priority_score":65,"source":"경기부동산포털 국공유지조회·연속지적도","source_date":"2026-08-11","installed_solar_match":false}},{"type":"Feature","id":"4139013000109530000","geometry":{"type":"Point","coordinates":[126.7915997,37.3723408]},"properties":{"pnu":"4139013000109530000","municipality_code":"41390","municipality":"시흥시","district":"시흥시","locality":"장곡동","address":"시흥시 장곡동 953","owner_type":"경기도유지","owner_label":"경기도","manager":"소방재난본부 회계장비담당관","property_class":"행정재산","land_category":"대","area_sqm":3016.7,"area_band":"3,000~5,000㎡","interest_category":"대","solar_candidate":"Y","candidate_reason":"청사·공공건축물·주차장 현황 추가 확인 필요; 면적 3,017㎡","priority_score":60,"source":"경기부동산포털 국공유지조회·연속지적도","source_date":"2026-08-11","installed_solar_match":false}},{"type":"Feature","id":"4139010400100200010","geometry":{"type":"Point","coordinates":[126.7712055,37.4049143]},"properties":{"pnu":"4139010400100200010","municipality_code":"41390","municipality":"시흥시","district":"시흥시","locality":"포동","address":"시흥시 포동 20-10","owner_type":"경기도유지","owner_label":"경기도(경기도교육감)","manager":"","property_class":"","land_category":"잡종지","area_sqm":713.0,"area_band":"500~1,000㎡","interest_category":"잡종지","solar_candidate":"검토필요","candidate_reason":"실제 이용·점유 여부 확인 후 검토할 잡종지; 면적 713㎡","priority_score":55,"source":"경기부동산포털 국공유지조회·연속지적도","source_date":"2026-08-11","installed_solar_match":false}},{"type":"Feature","id":"4139012600100700001","geometry":{"type":"Point","coordinates":[126.8670626,37.3970803]},"properties":{"pnu":"4139012600100700001","municipality_code":"41390","municipality":"시흥시","district":"시흥시","locality":"목감동","address":"시흥시 목감동 70-1","owner_type":"경기도유지","owner_label":"경기도(시흥시)","manager":"자치행정국 자산관리과","property_class":"일반재산","land_category":"대","area_sqm":274.0,"area_band":"100~500㎡","interest_category":"대","solar_candidate":"검토필요","candidate_reason":"청사·공공건축물·주차장 현황 추가 확인 필요; 면적 274㎡","priority_score":55,"source":"경기부동산포털 국공유지조회·연속지적도","source_date":"2026-08-11","installed_solar_match":false}},{"type":"Feature","id":"4139013100106340005","geometry":{"type":"Point","coordinates":[126.7492311,37.3873289]},"properties":{"pnu":"4139013100106340005","municipality_code":"41390","municipality":"시흥시","district":"시흥시","locality":"월곶동","address":"시흥시 월곶동 634-5","owner_type":"경기도유지","owner_label":"경기도(시흥시)","manager":"자치행정국 자산관리과","property_class":"일반재산","land_category":"대","area_sqm":219.0,"area_band":"100~500㎡","interest_category":"대","solar_candidate":"검토필요","candidate_reason":"청사·공공건축물·주차장 현황 추가 확인 필요; 면적 219㎡","priority_score":55,"source":"경기부동산포털 국공유지조회·연속지적도","source_date":"2026-08-11","installed_solar_match":false}},{"type":"Feature","id":"4139010200108440003","geometry":{"type":"Point","coordinates":[126.7822884,37.4364755]},"properties":{"pnu":"4139010200108440003","municipality_code":"41390","municipality":"시흥시","district":"시흥시","locality":"신천동","address":"시흥시 신천동 844-3","owner_type":"경기도유지","owner_label":"경기도","manager":"건설국 하천과","property_class":"일반재산","land_category":"대","area_sqm":180.7,"area_band":"100~500㎡","interest_category":"대","solar_candidate":"검토필요","candidate_reason":"청사·공공건축물·주차장 현황 추가 확인 필요; 면적 181㎡","priority_score":55,"source":"경기부동산포털 국공유지조회·연속지적도","source_date":"2026-08-11","installed_solar_match":false}},{"type":"Feature","id":"4139013500100090000","geometry":{"type":"Point","coordinates":[126.7337129,37.3832462]},"properties":{"pnu":"4139013500100090000","municipality_code":"41390","municipality":"시흥시","district":"시흥시","locality":"배곧동","address":"시흥시 배곧동 9","owner_type":"경기도유지","owner_label":"경기도(경기도교육감)","manager":"","property_class":"","land_category":"대","area_sqm":2146.5,"area_band":"1,000~3,000㎡","interest_category":"대","solar_candidate":"검토필요","candidate_reason":"청사·공공건축물·주차장 현황 추가 확인 필요; 면적 2,146㎡","priority_score":53,"source":"경기부동산포털 국공유지조회·연속지적도","source_date":"2026-08-11","installed_solar_match":true,"installed_solar_count":1,"installed_solar_area_sqm":197.6,"installed_solar_analysis_years":["2024"],"installed_solar_types":["공공시설물"],"installed_solar_permit_status_counts":{"N":1}}},{"type":"Feature","id":"4139012400106940000","geometry":{"type":"Point","coordinates":[126.8577303,37.3814335]},"properties":{"pnu":"4139012400106940000","municipality_code":"41390","municipality":"시흥시","district":"시흥시","locality":"조남동","address":"시흥시 조남동 694","owner_type":"경기도유지","owner_label":"경기도","manager":"소방재난본부 회계장비담당관","property_class":"행정재산","land_category":"대","area_sqm":2097.6,"area_band":"1,000~3,000㎡","interest_category":"대","solar_candidate":"검토필요","candidate_reason":"청사·공공건축물·주차장 현황 추가 확인 필요; 면적 2,098㎡","priority_score":53,"source":"경기부동산포털 국공유지조회·연속지적도","source_date":"2026-08-11","installed_solar_match":true,"installed_solar_count":2,"installed_solar_area_sqm":168.8,"installed_solar_analysis_years":["2024"],"installed_solar_types":["공공시설물"],"installed_solar_permit_status_counts":{"N":2}}},{"type":"Feature","id":"4139013500102060001","geometry":{"type":"Point","coordinates":[126.7322735,37.3685488]},"properties":{"pnu":"4139013500102060001","municipality_code":"41390","municipality":"시흥시","district":"시흥시","locality":"배곧동","address":"시흥시 배곧동 206-1","owner_type":"경기도유지","owner_label":"경기도","manager":"소방재난본부 회계장비담당관","property_class":"행정재산","land_category":"대","area_sqm":1585.3,"area_band":"1,000~3,000㎡","interest_category":"대","solar_candidate":"검토필요","candidate_reason":"청사·공공건축물·주차장 현황 추가 확인 필요; 면적 1,585㎡","priority_score":53,"source":"경기부동산포털 국공유지조회·연속지적도","source_date":"2026-08-11","installed_solar_match":false}},{"type":"Feature","id":"4139012900105480005","geometry":{"type":"Point","coordinates":[126.8028797,37.3818797]},"properties":{"pnu":"4139012900105480005","municipality_code":"41390","municipality":"시흥시","district":"시흥시","locality":"장현동","address":"시흥시 장현동 548-5","owner_type":"경기도유지","owner_label":"경기도","manager":"소방재난본부 회계장비담당관","property_class":"행정재산","land_category":"대","area_sqm":1293.0,"area_band":"1,000~3,000㎡","interest_category":"대","solar_candidate":"검토필요","candidate_reason":"청사·공공건축물·주차장 현황 추가 확인 필요; 면적 1,293㎡","priority_score":53,"source":"경기부동산포털 국공유지조회·연속지적도","source_date":"2026-08-11","installed_solar_match":false}},{"type":"Feature","id":"4139010600105590001","geometry":{"type":"Point","coordinates":[126.7932923,37.4393696]},"properties":{"pnu":"4139010600105590001","municipality_code":"41390","municipality":"시흥시","district":"시흥시","locality":"은행동","address":"시흥시 은행동 559-1","owner_type":"경기도유지","owner_label":"경기도","manager":"소방재난본부 회계장비담당관","property_class":"행정재산","land_category":"대","area_sqm":1052.8,"area_band":"1,000~3,000㎡","interest_category":"대","solar_candidate":"검토필요","candidate_reason":"청사·공공건축물·주차장 현황 추가 확인 필요; 면적 1,053㎡","priority_score":53,"source":"경기부동산포털 국공유지조회·연속지적도","source_date":"2026-08-11","installed_solar_match":false}},{"type":"Feature","id":"4139013200113660007","geometry":{"type":"Point","coordinates":[126.7297472,37.3356218]},"properties":{"pnu":"4139013200113660007","municipality_code":"41390","municipality":"시흥시","district":"시흥시","locality":"정왕동","address":"시흥시 정왕동 1366-7","owner_type":"경기도유지","owner_label":"경기도","manager":"소방재난본부 회계장비담당관","property_class":"행정재산","land_category":"대","area_sqm":1004.6,"area_band":"1,000~3,000㎡","interest_category":"대","solar_candidate":"검토필요","candidate_reason":"청사·공공건축물·주차장 현황 추가 확인 필요; 면적 1,005㎡","priority_score":53,"source":"경기부동산포털 국공유지조회·연속지적도","source_date":"2026-08-11","installed_solar_match":false}},{"type":"Feature","id":"4139013100105200266","geometry":{"type":"Point","coordinates":[126.7546206,37.3888841]},"properties":{"pnu":"4139013100105200266","municipality_code":"41390","municipality":"시흥시","district":"시흥시","locality":"월곶동","address":"시흥시 월곶동 520-266","owner_type":"경기도유지","owner_label":"경기도","manager":"건설국 도로정책과","property_class":"행정재산","land_category":"잡종지","area_sqm":186.0,"area_band":"100~500㎡","interest_category":"잡종지","solar_candidate":"검토필요","candidate_reason":"실제 이용·점유 여부 확인 후 검토할 잡종지; 면적 186㎡","priority_score":50,"source":"경기부동산포털 국공유지조회·연속지적도","source_date":"2026-08-11","installed_solar_match":false}},{"type":"Feature","id":"4139013100105200314","geometry":{"type":"Point","coordinates":[126.7661331,37.3879878]},"properties":{"pnu":"4139013100105200314","municipality_code":"41390","municipality":"시흥시","district":"시흥시","locality":"월곶동","address":"시흥시 월곶동 520-314","owner_type":"경기도유지","owner_label":"경기도(시흥시)","manager":"건설국 도로정책과","property_class":"행정재산","land_category":"잡종지","area_sqm":138.0,"area_band":"100~500㎡","interest_category":"잡종지","solar_candidate":"검토필요","candidate_reason":"실제 이용·점유 여부 확인 후 검토할 잡종지; 면적 138㎡","priority_score":50,"source":"경기부동산포털 국공유지조회·연속지적도","source_date":"2026-08-11","installed_solar_match":false}},{"type":"Feature","id":"4139013500100340002","geometry":{"type":"Point","coordinates":[126.7308005,37.3803063]},"properties":{"pnu":"4139013500100340002","municipality_code":"41390","municipality":"시흥시","district":"시흥시","locality":"배곧동","address":"시흥시 배곧동 34-2","owner_type":"경기도유지","owner_label":"경기도","manager":"건설국 도로정책과","property_class":"행정재산","land_category":"도로","area_sqm":144763.0,"area_band":"5,000㎡ 이상","interest_category":"도로","solar_candidate":"검토필요","candidate_reason":"도로점용 및 실제 이용형태 추가 검토 필요; 면적 144,763㎡","priority_score":40,"source":"경기부동산포털 국공유지조회·연속지적도","source_date":"2026-08-11","installed_solar_match":false}},{"type":"Feature","id":"4139013000107240020","geometry":{"type":"Point","coordinates":[126.7782981,37.3884172]},"properties":{"pnu":"4139013000107240020","municipality_code":"41390","municipality":"시흥시","district":"시흥시","locality":"장곡동","address":"시흥시 장곡동 724-20","owner_type":"경기도유지","owner_label":"경기도","manager":"건설국 도로정책과","property_class":"행정재산","land_category":"도로","area_sqm":45513.0,"area_band":"5,000㎡ 이상","interest_category":"도로","solar_candidate":"검토필요","candidate_reason":"도로점용 및 실제 이용형태 추가 검토 필요; 면적 45,513㎡","priority_score":40,"source":"경기부동산포털 국공유지조회·연속지적도","source_date":"2026-08-11","installed_solar_match":false}},{"type":"Feature","id":"4139013100105200324","geometry":{"type":"Point","coordinates":[126.769555,37.388376]},"properties":{"pnu":"4139013100105200324","municipality_code":"41390","municipality":"시흥시","district":"시흥시","locality":"월곶동","address":"시흥시 월곶동 520-324","owner_type":"경기도유지","owner_label":"경기도","manager":"건설국 도로정책과","property_class":"행정재산","land_category":"도로","area_sqm":37223.0,"area_band":"5,000㎡ 이상","interest_category":"도로","solar_candidate":"검토필요","candidate_reason":"도로점용 및 실제 이용형태 추가 검토 필요; 면적 37,223㎡","priority_score":40,"source":"경기부동산포털 국공유지조회·연속지적도","source_date":"2026-08-11","installed_solar_match":false}},{"type":"Feature","id":"4139012500103290007","geometry":{"type":"Point","coordinates":[126.8492696,37.3966997]},"properties":{"pnu":"4139012500103290007","municipality_code":"41390","municipality":"시흥시","district":"시흥시","locality":"논곡동","address":"시흥시 논곡동 329-7","owner_type":"경기도유지","owner_label":"경기도","manager":"건설국 도로정책과","property_class":"행정재산","land_category":"도로","area_sqm":23573.0,"area_band":"5,000㎡ 이상","interest_category":"도로","solar_candidate":"검토필요","candidate_reason":"도로점용 및 실제 이용형태 추가 검토 필요; 면적 23,573㎡","priority_score":40,"source":"경기부동산포털 국공유지조회·연속지적도","source_date":"2026-08-11","installed_solar_match":true,"installed_solar_count":31,"installed_solar_area_sqm":5026.6,"installed_solar_analysis_years":["2024"],"installed_solar_types":["도로유휴부지"],"installed_solar_permit_status_counts":{"Y":31}}},{"type":"Feature","id":"4139013500100340000","geometry":{"type":"Point","coordinates":[126.7389857,37.3817453]},"properties":{"pnu":"4139013500100340000","municipality_code":"41390","municipality":"시흥시","district":"시흥시","locality":"배곧동","address":"시흥시 배곧동 34","owner_type":"경기도유지","owner_label":"경기도","manager":"건설국 도로정책과","property_class":"행정재산","land_category":"도로","area_sqm":21738.1,"area_band":"5,000㎡ 이상","interest_category":"도로","solar_candidate":"검토필요","candidate_reason":"도로점용 및 실제 이용형태 추가 검토 필요; 면적 21,738㎡","priority_score":40,"source":"경기부동산포털 국공유지조회·연속지적도","source_date":"2026-08-11","installed_solar_match":false}},{"type":"Feature","id":"4139013100106340012","geometry":{"type":"Point","coordinates":[126.7494288,37.3865776]},"properties":{"pnu":"4139013100106340012","municipality_code":"41390","municipality":"시흥시","district":"시흥시","locality":"월곶동","address":"시흥시 월곶동 634-12","owner_type":"경기도유지","owner_label":"경기도","manager":"건설국 도로정책과","property_class":"행정재산","land_category":"도로","area_sqm":16745.0,"area_band":"5,000㎡ 이상","interest_category":"도로","solar_candidate":"검토필요","candidate_reason":"도로점용 및 실제 이용형태 추가 검토 필요; 면적 16,745㎡","priority_score":40,"source":"경기부동산포털 국공유지조회·연속지적도","source_date":"2026-08-11","installed_solar_match":false}},{"type":"Feature","id":"4139011000104290008","geometry":{"type":"Point","coordinates":[126.8455004,37.3948422]},"properties":{"pnu":"4139011000104290008","municipality_code":"41390","municipality":"시흥시","district":"시흥시","locality":"금이동","address":"시흥시 금이동 429-8","owner_type":"경기도유지","owner_label":"경기도","manager":"건설국 도로정책과","property_class":"행정재산","land_category":"도로","area_sqm":13618.0,"area_band":"5,000㎡ 이상","interest_category":"도로","solar_candidate":"검토필요","candidate_reason":"도로점용 및 실제 이용형태 추가 검토 필요; 면적 13,618㎡","priority_score":40,"source":"경기부동산포털 국공유지조회·연속지적도","source_date":"2026-08-11","installed_solar_match":false}},{"type":"Feature","id":"4139011000104290005","geometry":{"type":"Point","coordinates":[126.8441089,37.3942248]},"properties":{"pnu":"4139011000104290005","municipality_code":"41390","municipality":"시흥시","district":"시흥시","locality":"금이동","address":"시흥시 금이동 429-5","owner_type":"경기도유지","owner_label":"경기도","manager":"건설국 도로정책과","property_class":"행정재산","land_category":"도로","area_sqm":11875.0,"area_band":"5,000㎡ 이상","interest_category":"도로","solar_candidate":"검토필요","candidate_reason":"도로점용 및 실제 이용형태 추가 검토 필요; 면적 11,875㎡","priority_score":40,"source":"경기부동산포털 국공유지조회·연속지적도","source_date":"2026-08-11","installed_solar_match":false}},{"type":"Feature","id":"4139011000100050018","geometry":{"type":"Point","coordinates":[126.8461319,37.3966524]},"properties":{"pnu":"4139011000100050018","municipality_code":"41390","municipality":"시흥시","district":"시흥시","locality":"금이동","address":"시흥시 금이동 5-18","owner_type":"경기도유지","owner_label":"경기도","manager":"건설국 도로정책과","property_class":"행정재산","land_category":"도로","area_sqm":11794.0,"area_band":"5,000㎡ 이상","interest_category":"도로","solar_candidate":"검토필요","candidate_reason":"도로점용 및 실제 이용형태 추가 검토 필요; 면적 11,794㎡","priority_score":40,"source":"경기부동산포털 국공유지조회·연속지적도","source_date":"2026-08-11","installed_solar_match":true,"installed_solar_count":1,"installed_solar_area_sqm":98.9,"installed_solar_analysis_years":["2024"],"installed_solar_types":["도로유휴부지"],"installed_solar_permit_status_counts":{"Y":1}}},{"type":"Feature","id":"4139012500103290009","geometry":{"type":"Point","coordinates":[126.8501877,37.3954416]},"properties":{"pnu":"4139012500103290009","municipality_code":"41390","municipality":"시흥시","district":"시흥시","locality":"논곡동","address":"시흥시 논곡동 329-9","owner_type":"경기도유지","owner_label":"경기도","manager":"건설국 도로정책과","property_class":"행정재산","land_category":"도로","area_sqm":10870.0,"area_band":"5,000㎡ 이상","interest_category":"도로","solar_candidate":"검토필요","candidate_reason":"도로점용 및 실제 이용형태 추가 검토 필요; 면적 10,870㎡","priority_score":40,"source":"경기부동산포털 국공유지조회·연속지적도","source_date":"2026-08-11","installed_solar_match":true,"installed_solar_count":1,"installed_solar_area_sqm":36.8,"installed_solar_analysis_years":["2024"],"installed_solar_types":["도로유휴부지"],"installed_solar_permit_status_counts":{"Y":1}}},{"type":"Feature","id":"4139011000104290006","geometry":{"type":"Point","coordinates":[126.8443153,37.3947426]},"properties":{"pnu":"4139011000104290006","municipality_code":"41390","municipality":"시흥시","district":"시흥시","locality":"금이동","address":"시흥시 금이동 429-6","owner_type":"경기도유지","owner_label":"경기도","manager":"건설국 도로정책과","property_class":"행정재산","land_category":"도로","area_sqm":9160.0,"area_band":"5,000㎡ 이상","interest_category":"도로","solar_candidate":"검토필요","candidate_reason":"도로점용 및 실제 이용형태 추가 검토 필요; 면적 9,160㎡","priority_score":40,"source":"경기부동산포털 국공유지조회·연속지적도","source_date":"2026-08-11","installed_solar_match":false}},{"type":"Feature","id":"4139011000105180016","geometry":{"type":"Point","coordinates":[126.8335496,37.3924326]},"properties":{"pnu":"4139011000105180016","municipality_code":"41390","municipality":"시흥시","district":"시흥시","locality":"금이동","address":"시흥시 금이동 518-16","owner_type":"경기도유지","owner_label":"경기도","manager":"건설국 도로정책과","property_class":"행정재산","land_category":"도로","area_sqm":7955.0,"area_band":"5,000㎡ 이상","interest_category":"도로","solar_candidate":"검토필요","candidate_reason":"도로점용 및 실제 이용형태 추가 검토 필요; 면적 7,955㎡","priority_score":40,"source":"경기부동산포털 국공유지조회·연속지적도","source_date":"2026-08-11","installed_solar_match":false}},{"type":"Feature","id":"4139013100105200309","geometry":{"type":"Point","coordinates":[126.7622993,37.3883213]},"properties":{"pnu":"4139013100105200309","municipality_code":"41390","municipality":"시흥시","district":"시흥시","locality":"월곶동","address":"시흥시 월곶동 520-309","owner_type":"경기도유지","owner_label":"경기도","manager":"건설국 도로정책과","property_class":"행정재산","land_category":"도로","area_sqm":7617.0,"area_band":"5,000㎡ 이상","interest_category":"도로","solar_candidate":"검토필요","candidate_reason":"도로점용 및 실제 이용형태 추가 검토 필요; 면적 7,617㎡","priority_score":40,"source":"경기부동산포털 국공유지조회·연속지적도","source_date":"2026-08-11","installed_solar_match":false}},{"type":"Feature","id":"4139013100106510041","geometry":{"type":"Point","coordinates":[126.7476417,37.385771]},"properties":{"pnu":"4139013100106510041","municipality_code":"41390","municipality":"시흥시","district":"시흥시","locality":"월곶동","address":"시흥시 월곶동 651-41","owner_type":"경기도유지","owner_label":"경기도(시흥시)","manager":"건설국 도로정책과","property_class":"행정재산","land_category":"도로","area_sqm":7528.0,"area_band":"5,000㎡ 이상","interest_category":"도로","solar_candidate":"검토필요","candidate_reason":"도로점용 및 실제 이용형태 추가 검토 필요; 면적 7,528㎡","priority_score":40,"source":"경기부동산포털 국공유지조회·연속지적도","source_date":"2026-08-11","installed_solar_match":false}},{"type":"Feature","id":"4139012000103430020","geometry":{"type":"Point","coordinates":[126.8104112,37.3887396]},"properties":{"pnu":"4139012000103430020","municipality_code":"41390","municipality":"시흥시","district":"시흥시","locality":"하상동","address":"시흥시 하상동 343-20","owner_type":"경기도유지","owner_label":"경기도","manager":"건설국 도로정책과","property_class":"행정재산","land_category":"도로","area_sqm":7038.0,"area_band":"5,000㎡ 이상","interest_category":"도로","solar_candidate":"검토필요","candidate_reason":"도로점용 및 실제 이용형태 추가 검토 필요; 면적 7,038㎡","priority_score":40,"source":"경기부동산포털 국공유지조회·연속지적도","source_date":"2026-08-11","installed_solar_match":false}},{"type":"Feature","id":"4139013100106350007","geometry":{"type":"Point","coordinates":[126.7501422,37.3881899]},"properties":{"pnu":"4139013100106350007","municipality_code":"41390","municipality":"시흥시","district":"시흥시","locality":"월곶동","address":"시흥시 월곶동 635-7","owner_type":"경기도유지","owner_label":"경기도","manager":"건설국 도로정책과","property_class":"행정재산","land_category":"도로","area_sqm":6645.0,"area_band":"5,000㎡ 이상","interest_category":"도로","solar_candidate":"검토필요","candidate_reason":"도로점용 및 실제 이용형태 추가 검토 필요; 면적 6,645㎡","priority_score":40,"source":"경기부동산포털 국공유지조회·연속지적도","source_date":"2026-08-11","installed_solar_match":true,"installed_solar_count":1,"installed_solar_area_sqm":233.0,"installed_solar_analysis_years":["2024"],"installed_solar_types":["도로유휴부지"],"installed_solar_permit_status_counts":{"Y":1}}},{"type":"Feature","id":"4139012500103010005","geometry":{"type":"Point","coordinates":[126.8542009,37.3961928]},"properties":{"pnu":"4139012500103010005","municipality_code":"41390","municipality":"시흥시","district":"시흥시","locality":"논곡동","address":"시흥시 논곡동 301-5","owner_type":"경기도유지","owner_label":"경기도","manager":"건설국 도로정책과","property_class":"행정재산","land_category":"도로","area_sqm":6625.0,"area_band":"5,000㎡ 이상","interest_category":"도로","solar_candidate":"검토필요","candidate_reason":"도로점용 및 실제 이용형태 추가 검토 필요; 면적 6,625㎡","priority_score":40,"source":"경기부동산포털 국공유지조회·연속지적도","source_date":"2026-08-11","installed_solar_match":false}},{"type":"Feature","id":"4139012500103290014","geometry":{"type":"Point","coordinates":[126.8511239,37.3958265]},"properties":{"pnu":"4139012500103290014","municipality_code":"41390","municipality":"시흥시","district":"시흥시","locality":"논곡동","address":"시흥시 논곡동 329-14","owner_type":"경기도유지","owner_label":"경기도(시흥시)","manager":"건설국 도로정책과","property_class":"행정재산","land_category":"도로","area_sqm":6148.0,"area_band":"5,000㎡ 이상","interest_category":"도로","solar_candidate":"검토필요","candidate_reason":"도로점용 및 실제 이용형태 추가 검토 필요; 면적 6,148㎡","priority_score":40,"source":"경기부동산포털 국공유지조회·연속지적도","source_date":"2026-08-11","installed_solar_match":false}},{"type":"Feature","id":"4139012500100970025","geometry":{"type":"Point","coordinates":[126.860847,37.3970528]},"properties":{"pnu":"4139012500100970025","municipality_code":"41390","municipality":"시흥시","district":"시흥시","locality":"논곡동","address":"시흥시 논곡동 97-25","owner_type":"경기도유지","owner_label":"경기도","manager":"건설국 도로정책과","property_class":"행정재산","land_category":"도로","area_sqm":5567.0,"area_band":"5,000㎡ 이상","interest_category":"도로","solar_candidate":"검토필요","candidate_reason":"도로점용 및 실제 이용형태 추가 검토 필요; 면적 5,567㎡","priority_score":40,"source":"경기부동산포털 국공유지조회·연속지적도","source_date":"2026-08-11","installed_solar_match":false}},{"type":"Feature","id":"4139012500102970007","geometry":{"type":"Point","coordinates":[126.8556996,37.3963954]},"properties":{"pnu":"4139012500102970007","municipality_code":"41390","municipality":"시흥시","district":"시흥시","locality":"논곡동","address":"시흥시 논곡동 297-7","owner_type":"경기도유지","owner_label":"경기도","manager":"건설국 도로정책과","property_class":"행정재산","land_category":"도로","area_sqm":5509.0,"area_band":"5,000㎡ 이상","interest_category":"도로","solar_candidate":"검토필요","candidate_reason":"도로점용 및 실제 이용형태 추가 검토 필요; 면적 5,509㎡","priority_score":40,"source":"경기부동산포털 국공유지조회·연속지적도","source_date":"2026-08-11","installed_solar_match":false}},{"type":"Feature","id":"4139011000100050019","geometry":{"type":"Point","coordinates":[126.8471228,37.3962943]},"properties":{"pnu":"4139011000100050019","municipality_code":"41390","municipality":"시흥시","district":"시흥시","locality":"금이동","address":"시흥시 금이동 5-19","owner_type":"경기도유지","owner_label":"경기도","manager":"건설국 도로정책과","property_class":"행정재산","land_category":"도로","area_sqm":5330.0,"area_band":"5,000㎡ 이상","interest_category":"도로","solar_candidate":"검토필요","candidate_reason":"도로점용 및 실제 이용형태 추가 검토 필요; 면적 5,330㎡","priority_score":40,"source":"경기부동산포털 국공유지조회·연속지적도","source_date":"2026-08-11","installed_solar_match":true,"installed_solar_count":6,"installed_solar_area_sqm":944.7,"installed_solar_analysis_years":["2024"],"installed_solar_types":["도로유휴부지"],"installed_solar_permit_status_counts":{"Y":6}}},{"type":"Feature","id":"4139013500100340003","geometry":{"type":"Point","coordinates":[126.7264146,37.380241]},"properties":{"pnu":"4139013500100340003","municipality_code":"41390","municipality":"시흥시","district":"시흥시","locality":"배곧동","address":"시흥시 배곧동 34-3","owner_type":"경기도유지","owner_label":"경기도","manager":"건설국 도로정책과","property_class":"행정재산","land_category":"도로","area_sqm":5082.4,"area_band":"5,000㎡ 이상","interest_category":"도로","solar_candidate":"검토필요","candidate_reason":"도로점용 및 실제 이용형태 추가 검토 필요; 면적 5,082㎡","priority_score":40,"source":"경기부동산포털 국공유지조회·연속지적도","source_date":"2026-08-11","installed_solar_match":false}},{"type":"Feature","id":"4139011300104270002","geometry":{"type":"Point","coordinates":[126.8009105,37.4550719]},"properties":{"pnu":"4139011300104270002","municipality_code":"41390","municipality":"시흥시","district":"시흥시","locality":"계수동","address":"시흥시 계수동 427-2","owner_type":"경기도유지","owner_label":"경기도","manager":"자치행정국 자산관리과","property_class":"일반재산","land_category":"전","area_sqm":4774.1,"area_band":"3,000~5,000㎡","interest_category":"대규모부지","solar_candidate":"검토필요","candidate_reason":"넓은 경기도유지로 실제 이용·규제 현황 추가 검토; 면적 4,774㎡","priority_score":40,"source":"경기부동산포털 국공유지조회·연속지적도","source_date":"2026-08-11","installed_solar_match":false}},{"type":"Feature","id":"4139013100104650003","geometry":{"type":"Point","coordinates":[126.7619662,37.3810043]},"properties":{"pnu":"4139013100104650003","municipality_code":"41390","municipality":"시흥시","district":"시흥시","locality":"월곶동","address":"시흥시 월곶동 465-3","owner_type":"경기도유지","owner_label":"경기도","manager":"건설국 도로정책과","property_class":"행정재산","land_category":"대","area_sqm":370.0,"area_band":"100~500㎡","interest_category":"대","solar_candidate":"검토필요","candidate_reason":"청사·공공건축물·주차장 현황 추가 확인 필요; 면적 370㎡","priority_score":40,"source":"경기부동산포털 국공유지조회·연속지적도","source_date":"2026-08-11","installed_solar_match":false}},{"type":"Feature","id":"4139010300109170001","geometry":{"type":"Point","coordinates":[126.7570389,37.4210592]},"properties":{"pnu":"4139010300109170001","municipality_code":"41390","municipality":"시흥시","district":"시흥시","locality":"방산동","address":"시흥시 방산동 917-1","owner_type":"경기도유지","owner_label":"경기도","manager":"건설국 하천과","property_class":"행정재산","land_category":"대","area_sqm":323.0,"area_band":"100~500㎡","interest_category":"대","solar_candidate":"검토필요","candidate_reason":"청사·공공건축물·주차장 현황 추가 확인 필요; 면적 323㎡","priority_score":40,"source":"경기부동산포털 국공유지조회·연속지적도","source_date":"2026-08-11","installed_solar_match":false}},{"type":"Feature","id":"4139013000100040011","geometry":{"type":"Point","coordinates":[126.7834306,37.388209]},"properties":{"pnu":"4139013000100040011","municipality_code":"41390","municipality":"시흥시","district":"시흥시","locality":"장곡동","address":"시흥시 장곡동 4-11","owner_type":"경기도유지","owner_label":"경기도(시흥시)","manager":"건설국 도로정책과","property_class":"행정재산","land_category":"대","area_sqm":321.0,"area_band":"100~500㎡","interest_category":"대","solar_candidate":"검토필요","candidate_reason":"청사·공공건축물·주차장 현황 추가 확인 필요; 면적 321㎡","priority_score":40,"source":"경기부동산포털 국공유지조회·연속지적도","source_date":"2026-08-11","installed_solar_match":false}},{"type":"Feature","id":"4139010400102780001","geometry":{"type":"Point","coordinates":[126.7707094,37.4053987]},"properties":{"pnu":"4139010400102780001","municipality_code":"41390","municipality":"시흥시","district":"시흥시","locality":"포동","address":"시흥시 포동 278-1","owner_type":"경기도유지","owner_label":"경기도(경기도교육감)","manager":"","property_class":"","land_category":"대","area_sqm":268.0,"area_band":"100~500㎡","interest_category":"대","solar_candidate":"검토필요","candidate_reason":"청사·공공건축물·주차장 현황 추가 확인 필요; 면적 268㎡","priority_score":40,"source":"경기부동산포털 국공유지조회·연속지적도","source_date":"2026-08-11","installed_solar_match":false}},{"type":"Feature","id":"4139010400100010095","geometry":{"type":"Point","coordinates":[126.7878755,37.4077168]},"properties":{"pnu":"4139010400100010095","municipality_code":"41390","municipality":"시흥시","district":"시흥시","locality":"포동","address":"시흥시 포동 1-95","owner_type":"경기도유지","owner_label":"경기도","manager":"건설국 도로정책과","property_class":"행정재산","land_category":"대","area_sqm":157.0,"area_band":"100~500㎡","interest_category":"대","solar_candidate":"검토필요","candidate_reason":"청사·공공건축물·주차장 현황 추가 확인 필요; 면적 157㎡","priority_score":40,"source":"경기부동산포털 국공유지조회·연속지적도","source_date":"2026-08-11","installed_solar_match":false}},{"type":"Feature","id":"4139013100106220002","geometry":{"type":"Point","coordinates":[126.7511408,37.3860166]},"properties":{"pnu":"4139013100106220002","municipality_code":"41390","municipality":"시흥시","district":"시흥시","locality":"월곶동","address":"시흥시 월곶동 622-2","owner_type":"경기도유지","owner_label":"경기도(시흥시)","manager":"건설국 도로정책과","property_class":"행정재산","land_category":"대","area_sqm":129.0,"area_band":"100~500㎡","interest_category":"대","solar_candidate":"검토필요","candidate_reason":"청사·공공건축물·주차장 현황 추가 확인 필요; 면적 129㎡","priority_score":40,"source":"경기부동산포털 국공유지조회·연속지적도","source_date":"2026-08-11","installed_solar_match":false}},{"type":"Feature","id":"4139013000100040001","geometry":{"type":"Point","coordinates":[126.7830871,37.388198]},"properties":{"pnu":"4139013000100040001","municipality_code":"41390","municipality":"시흥시","district":"시흥시","locality":"장곡동","address":"시흥시 장곡동 4-1","owner_type":"경기도유지","owner_label":"경기도","manager":"건설국 도로정책과","property_class":"행정재산","land_category":"대","area_sqm":127.0,"area_band":"100~500㎡","interest_category":"대","solar_candidate":"검토필요","candidate_reason":"청사·공공건축물·주차장 현황 추가 확인 필요; 면적 127㎡","priority_score":40,"source":"경기부동산포털 국공유지조회·연속지적도","source_date":"2026-08-11","installed_solar_match":false}},{"type":"Feature","id":"4139010400100010090","geometry":{"type":"Point","coordinates":[126.7878083,37.4075516]},"properties":{"pnu":"4139010400100010090","municipality_code":"41390","municipality":"시흥시","district":"시흥시","locality":"포동","address":"시흥시 포동 1-90","owner_type":"경기도유지","owner_label":"경기도(시흥시)","manager":"건설국 하천과","property_class":"행정재산","land_category":"대","area_sqm":113.0,"area_band":"100~500㎡","interest_category":"대","solar_candidate":"검토필요","candidate_reason":"청사·공공건축물·주차장 현황 추가 확인 필요; 면적 113㎡","priority_score":40,"source":"경기부동산포털 국공유지조회·연속지적도","source_date":"2026-08-11","installed_solar_match":false}},{"type":"Feature","id":"4139013100106420001","geometry":{"type":"Point","coordinates":[126.7510733,37.3892016]},"properties":{"pnu":"4139013100106420001","municipality_code":"41390","municipality":"시흥시","district":"시흥시","locality":"월곶동","address":"시흥시 월곶동 642-1","owner_type":"경기도유지","owner_label":"경기도(시흥시)","manager":"건설국 도로정책과","property_class":"행정재산","land_category":"대","area_sqm":101.0,"area_band":"100~500㎡","interest_category":"대","solar_candidate":"검토필요","candidate_reason":"청사·공공건축물·주차장 현황 추가 확인 필요; 면적 101㎡","priority_score":40,"source":"경기부동산포털 국공유지조회·연속지적도","source_date":"2026-08-11","installed_solar_match":false}},{"type":"Feature","id":"4139011900106350007","geometry":{"type":"Point","coordinates":[126.8095121,37.3888362]},"properties":{"pnu":"4139011900106350007","municipality_code":"41390","municipality":"시흥시","district":"시흥시","locality":"하중동","address":"시흥시 하중동 635-7","owner_type":"경기도유지","owner_label":"경기도","manager":"건설국 도로정책과","property_class":"행정재산","land_category":"도로","area_sqm":4981.0,"area_band":"3,000~5,000㎡","interest_category":"도로","solar_candidate":"검토필요","candidate_reason":"도로점용 및 실제 이용형태 추가 검토 필요; 면적 4,981㎡","priority_score":35,"source":"경기부동산포털 국공유지조회·연속지적도","source_date":"2026-08-11","installed_solar_match":false}},{"type":"Feature","id":"4139012600100670014","geometry":{"type":"Point","coordinates":[126.8657565,37.3964202]},"properties":{"pnu":"4139012600100670014","municipality_code":"41390","municipality":"시흥시","district":"시흥시","locality":"목감동","address":"시흥시 목감동 67-14","owner_type":"경기도유지","owner_label":"경기도","manager":"건설국 도로정책과","property_class":"행정재산","land_category":"도로","area_sqm":4648.0,"area_band":"3,000~5,000㎡","interest_category":"도로","solar_candidate":"검토필요","candidate_reason":"도로점용 및 실제 이용형태 추가 검토 필요; 면적 4,648㎡","priority_score":35,"source":"경기부동산포털 국공유지조회·연속지적도","source_date":"2026-08-11","installed_solar_match":false}},{"type":"Feature","id":"4139012600100830011","geometry":{"type":"Point","coordinates":[126.8672973,37.3956404]},"properties":{"pnu":"4139012600100830011","municipality_code":"41390","municipality":"시흥시","district":"시흥시","locality":"목감동","address":"시흥시 목감동 83-11","owner_type":"경기도유지","owner_label":"경기도","manager":"건설국 도로정책과","property_class":"행정재산","land_category":"도로","area_sqm":4564.0,"area_band":"3,000~5,000㎡","interest_category":"도로","solar_candidate":"검토필요","candidate_reason":"도로점용 및 실제 이용형태 추가 검토 필요; 면적 4,564㎡","priority_score":35,"source":"경기부동산포털 국공유지조회·연속지적도","source_date":"2026-08-11","installed_solar_match":false}},{"type":"Feature","id":"4139013100106490033","geometry":{"type":"Point","coordinates":[126.7455767,37.3849413]},"properties":{"pnu":"4139013100106490033","municipality_code":"41390","municipality":"시흥시","district":"시흥시","locality":"월곶동","address":"시흥시 월곶동 649-33","owner_type":"경기도유지","owner_label":"경기도","manager":"건설국 도로정책과","property_class":"행정재산","land_category":"도로","area_sqm":4564.0,"area_band":"3,000~5,000㎡","interest_category":"도로","solar_candidate":"검토필요","candidate_reason":"도로점용 및 실제 이용형태 추가 검토 필요; 면적 4,564㎡","priority_score":35,"source":"경기부동산포털 국공유지조회·연속지적도","source_date":"2026-08-11","installed_solar_match":false}},{"type":"Feature","id":"4139012500101040007","geometry":{"type":"Point","coordinates":[126.8640143,37.3966442]},"properties":{"pnu":"4139012500101040007","municipality_code":"41390","municipality":"시흥시","district":"시흥시","locality":"논곡동","address":"시흥시 논곡동 104-7","owner_type":"경기도유지","owner_label":"경기도","manager":"건설국 도로정책과","property_class":"행정재산","land_category":"도로","area_sqm":4556.0,"area_band":"3,000~5,000㎡","interest_category":"도로","solar_candidate":"검토필요","candidate_reason":"도로점용 및 실제 이용형태 추가 검토 필요; 면적 4,556㎡","priority_score":35,"source":"경기부동산포털 국공유지조회·연속지적도","source_date":"2026-08-11","installed_solar_match":false}},{"type":"Feature","id":"4139013100105200317","geometry":{"type":"Point","coordinates":[126.7725187,37.3882366]},"properties":{"pnu":"4139013100105200317","municipality_code":"41390","municipality":"시흥시","district":"시흥시","locality":"월곶동","address":"시흥시 월곶동 520-317","owner_type":"경기도유지","owner_label":"경기도(시흥시)","manager":"건설국 도로정책과","property_class":"행정재산","land_category":"도로","area_sqm":4381.0,"area_band":"3,000~5,000㎡","interest_category":"도로","solar_candidate":"검토필요","candidate_reason":"도로점용 및 실제 이용형태 추가 검토 필요; 면적 4,381㎡","priority_score":35,"source":"경기부동산포털 국공유지조회·연속지적도","source_date":"2026-08-11","installed_solar_match":false}},{"type":"Feature","id":"4139013100105200300","geometry":{"type":"Point","coordinates":[126.7489953,37.3904068]},"properties":{"pnu":"4139013100105200300","municipality_code":"41390","municipality":"시흥시","district":"시흥시","locality":"월곶동","address":"시흥시 월곶동 520-300","owner_type":"경기도유지","owner_label":"경기도","manager":"건설국 도로정책과","property_class":"행정재산","land_category":"도로","area_sqm":4288.0,"area_band":"3,000~5,000㎡","interest_category":"도로","solar_candidate":"검토필요","candidate_reason":"도로점용 및 실제 이용형태 추가 검토 필요; 면적 4,288㎡","priority_score":35,"source":"경기부동산포털 국공유지조회·연속지적도","source_date":"2026-08-11","installed_solar_match":false}},{"type":"Feature","id":"4139011900106350010","geometry":{"type":"Point","coordinates":[126.8084963,37.3885619]},"properties":{"pnu":"4139011900106350010","municipality_code":"41390","municipality":"시흥시","district":"시흥시","locality":"하중동","address":"시흥시 하중동 635-10","owner_type":"경기도유지","owner_label":"경기도","manager":"건설국 도로정책과","property_class":"행정재산","land_category":"도로","area_sqm":4260.0,"area_band":"3,000~5,000㎡","interest_category":"도로","solar_candidate":"검토필요","candidate_reason":"도로점용 및 실제 이용형태 추가 검토 필요; 면적 4,260㎡","priority_score":35,"source":"경기부동산포털 국공유지조회·연속지적도","source_date":"2026-08-11","installed_solar_match":false}},{"type":"Feature","id":"4139012000103430051","geometry":{"type":"Point","coordinates":[126.815071,37.3886216]},"properties":{"pnu":"4139012000103430051","municipality_code":"41390","municipality":"시흥시","district":"시흥시","locality":"하상동","address":"시흥시 하상동 343-51","owner_type":"경기도유지","owner_label":"경기도","manager":"건설국 도로정책과","property_class":"행정재산","land_category":"도로","area_sqm":4110.0,"area_band":"3,000~5,000㎡","interest_category":"도로","solar_candidate":"검토필요","candidate_reason":"도로점용 및 실제 이용형태 추가 검토 필요; 면적 4,110㎡","priority_score":35,"source":"경기부동산포털 국공유지조회·연속지적도","source_date":"2026-08-11","installed_solar_match":false}},{"type":"Feature","id":"4139011900107540008","geometry":{"type":"Point","coordinates":[126.8047026,37.3885798]},"properties":{"pnu":"4139011900107540008","municipality_code":"41390","municipality":"시흥시","district":"시흥시","locality":"하중동","address":"시흥시 하중동 754-8","owner_type":"경기도유지","owner_label":"경기도","manager":"건설국 도로정책과","property_class":"행정재산","land_category":"도로","area_sqm":4072.0,"area_band":"3,000~5,000㎡","interest_category":"도로","solar_candidate":"검토필요","candidate_reason":"도로점용 및 실제 이용형태 추가 검토 필요; 면적 4,072㎡","priority_score":35,"source":"경기부동산포털 국공유지조회·연속지적도","source_date":"2026-08-11","installed_solar_match":false}},{"type":"Feature","id":"4139011900107800004","geometry":{"type":"Point","coordinates":[126.7993443,37.3878577]},"properties":{"pnu":"4139011900107800004","municipality_code":"41390","municipality":"시흥시","district":"시흥시","locality":"하중동","address":"시흥시 하중동 780-4","owner_type":"경기도유지","owner_label":"경기도","manager":"건설국 도로정책과","property_class":"행정재산","land_category":"도로","area_sqm":4061.0,"area_band":"3,000~5,000㎡","interest_category":"도로","solar_candidate":"검토필요","candidate_reason":"도로점용 및 실제 이용형태 추가 검토 필요; 면적 4,061㎡","priority_score":35,"source":"경기부동산포털 국공유지조회·연속지적도","source_date":"2026-08-11","installed_solar_match":true,"installed_solar_count":9,"installed_solar_area_sqm":3634.0,"installed_solar_analysis_years":["2024"],"installed_solar_types":["도로유휴부지"],"installed_solar_permit_status_counts":{"Y":9}}},{"type":"Feature","id":"4139011900107070001","geometry":{"type":"Point","coordinates":[126.7978861,37.3917965]},"properties":{"pnu":"4139011900107070001","municipality_code":"41390","municipality":"시흥시","district":"시흥시","locality":"하중동","address":"시흥시 하중동 707-1","owner_type":"경기도유지","owner_label":"경기도","manager":"건설국 도로정책과","property_class":"행정재산","land_category":"도로","area_sqm":3988.0,"area_band":"3,000~5,000㎡","interest_category":"도로","solar_candidate":"검토필요","candidate_reason":"도로점용 및 실제 이용형태 추가 검토 필요; 면적 3,988㎡","priority_score":35,"source":"경기부동산포털 국공유지조회·연속지적도","source_date":"2026-08-11","installed_solar_match":false}},{"type":"Feature","id":"4139011900107800003","geometry":{"type":"Point","coordinates":[126.7988912,37.3878837]},"properties":{"pnu":"4139011900107800003","municipality_code":"41390","municipality":"시흥시","district":"시흥시","locality":"하중동","address":"시흥시 하중동 780-3","owner_type":"경기도유지","owner_label":"경기도","manager":"건설국 도로정책과","property_class":"행정재산","land_category":"도로","area_sqm":3978.0,"area_band":"3,000~5,000㎡","interest_category":"도로","solar_candidate":"검토필요","candidate_reason":"도로점용 및 실제 이용형태 추가 검토 필요; 면적 3,978㎡","priority_score":35,"source":"경기부동산포털 국공유지조회·연속지적도","source_date":"2026-08-11","installed_solar_match":true,"installed_solar_count":3,"installed_solar_area_sqm":1137.5,"installed_solar_analysis_years":["2024"],"installed_solar_types":["도로유휴부지"],"installed_solar_permit_status_counts":{"Y":3}}},{"type":"Feature","id":"4139011900107780004","geometry":{"type":"Point","coordinates":[126.7980777,37.3888921]},"properties":{"pnu":"4139011900107780004","municipality_code":"41390","municipality":"시흥시","district":"시흥시","locality":"하중동","address":"시흥시 하중동 778-4","owner_type":"경기도유지","owner_label":"경기도","manager":"건설국 도로정책과","property_class":"행정재산","land_category":"도로","area_sqm":3974.0,"area_band":"3,000~5,000㎡","interest_category":"도로","solar_candidate":"검토필요","candidate_reason":"도로점용 및 실제 이용형태 추가 검토 필요; 면적 3,974㎡","priority_score":35,"source":"경기부동산포털 국공유지조회·연속지적도","source_date":"2026-08-11","installed_solar_match":true,"installed_solar_count":6,"installed_solar_area_sqm":636.3,"installed_solar_analysis_years":["2024"],"installed_solar_types":["도로유휴부지"],"installed_solar_permit_status_counts":{"Y":6}}},{"type":"Feature","id":"4139012900101250007","geometry":{"type":"Point","coordinates":[126.794893,37.3884476]},"properties":{"pnu":"4139012900101250007","municipality_code":"41390","municipality":"시흥시","district":"시흥시","locality":"장현동","address":"시흥시 장현동 125-7","owner_type":"경기도유지","owner_label":"경기도","manager":"건설국 도로정책과","property_class":"행정재산","land_category":"도로","area_sqm":3974.0,"area_band":"3,000~5,000㎡","interest_category":"도로","solar_candidate":"검토필요","candidate_reason":"도로점용 및 실제 이용형태 추가 검토 필요; 면적 3,974㎡","priority_score":35,"source":"경기부동산포털 국공유지조회·연속지적도","source_date":"2026-08-11","installed_solar_match":false}},{"type":"Feature","id":"4139011900106900003","geometry":{"type":"Point","coordinates":[126.7979796,37.3928354]},"properties":{"pnu":"4139011900106900003","municipality_code":"41390","municipality":"시흥시","district":"시흥시","locality":"하중동","address":"시흥시 하중동 690-3","owner_type":"경기도유지","owner_label":"경기도","manager":"건설국 도로정책과","property_class":"행정재산","land_category":"도로","area_sqm":3957.0,"area_band":"3,000~5,000㎡","interest_category":"도로","solar_candidate":"검토필요","candidate_reason":"도로점용 및 실제 이용형태 추가 검토 필요; 면적 3,957㎡","priority_score":35,"source":"경기부동산포털 국공유지조회·연속지적도","source_date":"2026-08-11","installed_solar_match":false}},{"type":"Feature","id":"4139011900107180006","geometry":{"type":"Point","coordinates":[126.7978015,37.3908305]},"properties":{"pnu":"4139011900107180006","municipality_code":"41390","municipality":"시흥시","district":"시흥시","locality":"하중동","address":"시흥시 하중동 718-6","owner_type":"경기도유지","owner_label":"경기도","manager":"건설국 도로정책과","property_class":"행정재산","land_category":"도로","area_sqm":3948.0,"area_band":"3,000~5,000㎡","interest_category":"도로","solar_candidate":"검토필요","candidate_reason":"도로점용 및 실제 이용형태 추가 검토 필요; 면적 3,948㎡","priority_score":35,"source":"경기부동산포털 국공유지조회·연속지적도","source_date":"2026-08-11","installed_solar_match":false}},{"type":"Feature","id":"4139013000107140006","geometry":{"type":"Point","coordinates":[126.7880306,37.3885125]},"properties":{"pnu":"4139013000107140006","municipality_code":"41390","municipality":"시흥시","district":"시흥시","locality":"장곡동","address":"시흥시 장곡동 714-6","owner_type":"경기도유지","owner_label":"경기도","manager":"건설국 도로정책과","property_class":"행정재산","land_category":"도로","area_sqm":3937.0,"area_band":"3,000~5,000㎡","interest_category":"도로","solar_candidate":"검토필요","candidate_reason":"도로점용 및 실제 이용형태 추가 검토 필요; 면적 3,937㎡","priority_score":35,"source":"경기부동산포털 국공유지조회·연속지적도","source_date":"2026-08-11","installed_solar_match":false}},{"type":"Feature","id":"4139011900107260001","geometry":{"type":"Point","coordinates":[126.7977212,37.3898764]},"properties":{"pnu":"4139011900107260001","municipality_code":"41390","municipality":"시흥시","district":"시흥시","locality":"하중동","address":"시흥시 하중동 726-1","owner_type":"경기도유지","owner_label":"경기도","manager":"건설국 도로정책과","property_class":"행정재산","land_category":"도로","area_sqm":3910.0,"area_band":"3,000~5,000㎡","interest_category":"도로","solar_candidate":"검토필요","candidate_reason":"도로점용 및 실제 이용형태 추가 검토 필요; 면적 3,910㎡","priority_score":35,"source":"경기부동산포털 국공유지조회·연속지적도","source_date":"2026-08-11","installed_solar_match":false}},{"type":"Feature","id":"4139011000104840000","geometry":{"type":"Point","coordinates":[126.8384257,37.3933808]},"properties":{"pnu":"4139011000104840000","municipality_code":"41390","municipality":"시흥시","district":"시흥시","locality":"금이동","address":"시흥시 금이동 484","owner_type":"경기도유지","owner_label":"경기도","manager":"건설국 도로정책과","property_class":"행정재산","land_category":"도로","area_sqm":3866.0,"area_band":"3,000~5,000㎡","interest_category":"도로","solar_candidate":"검토필요","candidate_reason":"도로점용 및 실제 이용형태 추가 검토 필요; 면적 3,866㎡","priority_score":35,"source":"경기부동산포털 국공유지조회·연속지적도","source_date":"2026-08-11","installed_solar_match":false}},{"type":"Feature","id":"4139011900107760006","geometry":{"type":"Point","coordinates":[126.8021402,37.3886438]},"properties":{"pnu":"4139011900107760006","municipality_code":"41390","municipality":"시흥시","district":"시흥시","locality":"하중동","address":"시흥시 하중동 776-6","owner_type":"경기도유지","owner_label":"경기도","manager":"건설국 도로정책과","property_class":"행정재산","land_category":"도로","area_sqm":3844.0,"area_band":"3,000~5,000㎡","interest_category":"도로","solar_candidate":"검토필요","candidate_reason":"도로점용 및 실제 이용형태 추가 검토 필요; 면적 3,844㎡","priority_score":35,"source":"경기부동산포털 국공유지조회·연속지적도","source_date":"2026-08-11","installed_solar_match":false}},{"type":"Feature","id":"4139013100109400011","geometry":{"type":"Point","coordinates":[126.7596974,37.3883305]},"properties":{"pnu":"4139013100109400011","municipality_code":"41390","municipality":"시흥시","district":"시흥시","locality":"월곶동","address":"시흥시 월곶동 940-11","owner_type":"경기도유지","owner_label":"경기도","manager":"건설국 도로정책과","property_class":"행정재산","land_category":"도로","area_sqm":3842.0,"area_band":"3,000~5,000㎡","interest_category":"도로","solar_candidate":"검토필요","candidate_reason":"도로점용 및 실제 이용형태 추가 검토 필요; 면적 3,842㎡","priority_score":35,"source":"경기부동산포털 국공유지조회·연속지적도","source_date":"2026-08-11","installed_solar_match":false}},{"type":"Feature","id":"4139013100106350009","geometry":{"type":"Point","coordinates":[126.749489,37.3885986]},"properties":{"pnu":"4139013100106350009","municipality_code":"41390","municipality":"시흥시","district":"시흥시","locality":"월곶동","address":"시흥시 월곶동 635-9","owner_type":"경기도유지","owner_label":"경기도","manager":"건설국 도로정책과","property_class":"행정재산","land_category":"도로","area_sqm":3807.0,"area_band":"3,000~5,000㎡","interest_category":"도로","solar_candidate":"검토필요","candidate_reason":"도로점용 및 실제 이용형태 추가 검토 필요; 면적 3,807㎡","priority_score":35,"source":"경기부동산포털 국공유지조회·연속지적도","source_date":"2026-08-11","installed_solar_match":false}},{"type":"Feature","id":"4139013100109440033","geometry":{"type":"Point","coordinates":[126.7646808,37.3883856]},"properties":{"pnu":"4139013100109440033","municipality_code":"41390","municipality":"시흥시","district":"시흥시","locality":"월곶동","address":"시흥시 월곶동 944-33","owner_type":"경기도유지","owner_label":"경기도","manager":"건설국 도로정책과","property_class":"행정재산","land_category":"도로","area_sqm":3798.0,"area_band":"3,000~5,000㎡","interest_category":"도로","solar_candidate":"검토필요","candidate_reason":"도로점용 및 실제 이용형태 추가 검토 필요; 면적 3,798㎡","priority_score":35,"source":"경기부동산포털 국공유지조회·연속지적도","source_date":"2026-08-11","installed_solar_match":false}},{"type":"Feature","id":"4139011000105370000","geometry":{"type":"Point","coordinates":[126.8286129,37.3911711]},"properties":{"pnu":"4139011000105370000","municipality_code":"41390","municipality":"시흥시","district":"시흥시","locality":"금이동","address":"시흥시 금이동 537","owner_type":"경기도유지","owner_label":"경기도","manager":"건설국 도로정책과","property_class":"행정재산","land_category":"도로","area_sqm":3783.0,"area_band":"3,000~5,000㎡","interest_category":"도로","solar_candidate":"검토필요","candidate_reason":"도로점용 및 실제 이용형태 추가 검토 필요; 면적 3,783㎡","priority_score":35,"source":"경기부동산포털 국공유지조회·연속지적도","source_date":"2026-08-11","installed_solar_match":false}},{"type":"Feature","id":"4139011900107810011","geometry":{"type":"Point","coordinates":[126.800244,37.3878281]},"properties":{"pnu":"4139011900107810011","municipality_code":"41390","municipality":"시흥시","district":"시흥시","locality":"하중동","address":"시흥시 하중동 781-11","owner_type":"경기도유지","owner_label":"경기도","manager":"건설국 도로정책과","property_class":"행정재산","land_category":"도로","area_sqm":3781.0,"area_band":"3,000~5,000㎡","interest_category":"도로","solar_candidate":"검토필요","candidate_reason":"도로점용 및 실제 이용형태 추가 검토 필요; 면적 3,781㎡","priority_score":35,"source":"경기부동산포털 국공유지조회·연속지적도","source_date":"2026-08-11","installed_solar_match":false}},{"type":"Feature","id":"4139011900107770008","geometry":{"type":"Point","coordinates":[126.8016863,37.3886543]},"properties":{"pnu":"4139011900107770008","municipality_code":"41390","municipality":"시흥시","district":"시흥시","locality":"하중동","address":"시흥시 하중동 777-8","owner_type":"경기도유지","owner_label":"경기도","manager":"건설국 도로정책과","property_class":"행정재산","land_category":"도로","area_sqm":3757.0,"area_band":"3,000~5,000㎡","interest_category":"도로","solar_candidate":"검토필요","candidate_reason":"도로점용 및 실제 이용형태 추가 검토 필요; 면적 3,757㎡","priority_score":35,"source":"경기부동산포털 국공유지조회·연속지적도","source_date":"2026-08-11","installed_solar_match":false}},{"type":"Feature","id":"4139011900107780012","geometry":{"type":"Point","coordinates":[126.7989719,37.3888082]},"properties":{"pnu":"4139011900107780012","municipality_code":"41390","municipality":"시흥시","district":"시흥시","locality":"하중동","address":"시흥시 하중동 778-12","owner_type":"경기도유지","owner_label":"경기도","manager":"건설국 도로정책과","property_class":"행정재산","land_category":"도로","area_sqm":3692.0,"area_band":"3,000~5,000㎡","interest_category":"도로","solar_candidate":"검토필요","candidate_reason":"도로점용 및 실제 이용형태 추가 검토 필요; 면적 3,692㎡","priority_score":35,"source":"경기부동산포털 국공유지조회·연속지적도","source_date":"2026-08-11","installed_solar_match":false}},{"type":"Feature","id":"4139011000100050020","geometry":{"type":"Point","coordinates":[126.8461502,37.3959662]},"properties":{"pnu":"4139011000100050020","municipality_code":"41390","municipality":"시흥시","district":"시흥시","locality":"금이동","address":"시흥시 금이동 5-20","owner_type":"경기도유지","owner_label":"경기도","manager":"건설국 도로정책과","property_class":"행정재산","land_category":"도로","area_sqm":3651.0,"area_band":"3,000~5,000㎡","interest_category":"도로","solar_candidate":"검토필요","candidate_reason":"도로점용 및 실제 이용형태 추가 검토 필요; 면적 3,651㎡","priority_score":35,"source":"경기부동산포털 국공유지조회·연속지적도","source_date":"2026-08-11","installed_solar_match":false}},{"type":"Feature","id":"4139011000103860001","geometry":{"type":"Point","coordinates":[126.8427416,37.3947639]},"properties":{"pnu":"4139011000103860001","municipality_code":"41390","municipality":"시흥시","district":"시흥시","locality":"금이동","address":"시흥시 금이동 386-1","owner_type":"경기도유지","owner_label":"경기도","manager":"건설국 도로정책과","property_class":"행정재산","land_category":"도로","area_sqm":3632.0,"area_band":"3,000~5,000㎡","interest_category":"도로","solar_candidate":"검토필요","candidate_reason":"도로점용 및 실제 이용형태 추가 검토 필요; 면적 3,632㎡","priority_score":35,"source":"경기부동산포털 국공유지조회·연속지적도","source_date":"2026-08-11","installed_solar_match":false}},{"type":"Feature","id":"4139012600100830012","geometry":{"type":"Point","coordinates":[126.8672269,37.394945]},"properties":{"pnu":"4139012600100830012","municipality_code":"41390","municipality":"시흥시","district":"시흥시","locality":"목감동","address":"시흥시 목감동 83-12","owner_type":"경기도유지","owner_label":"경기도","manager":"건설국 도로정책과","property_class":"행정재산","land_category":"도로","area_sqm":3598.0,"area_band":"3,000~5,000㎡","interest_category":"도로","solar_candidate":"검토필요","candidate_reason":"도로점용 및 실제 이용형태 추가 검토 필요; 면적 3,598㎡","priority_score":35,"source":"경기부동산포털 국공유지조회·연속지적도","source_date":"2026-08-11","installed_solar_match":false}},{"type":"Feature","id":"4139012600100670015","geometry":{"type":"Point","coordinates":[126.8648337,37.3963084]},"properties":{"pnu":"4139012600100670015","municipality_code":"41390","municipality":"시흥시","district":"시흥시","locality":"목감동","address":"시흥시 목감동 67-15","owner_type":"경기도유지","owner_label":"경기도","manager":"건설국 도로정책과","property_class":"행정재산","land_category":"도로","area_sqm":3591.0,"area_band":"3,000~5,000㎡","interest_category":"도로","solar_candidate":"검토필요","candidate_reason":"도로점용 및 실제 이용형태 추가 검토 필요; 면적 3,591㎡","priority_score":35,"source":"경기부동산포털 국공유지조회·연속지적도","source_date":"2026-08-11","installed_solar_match":false}},{"type":"Feature","id":"4139013100106490041","geometry":{"type":"Point","coordinates":[126.7448854,37.3844759]},"properties":{"pnu":"4139013100106490041","municipality_code":"41390","municipality":"시흥시","district":"시흥시","locality":"월곶동","address":"시흥시 월곶동 649-41","owner_type":"경기도유지","owner_label":"경기도(시흥시)","manager":"건설국 도로정책과","property_class":"행정재산","land_category":"도로","area_sqm":3564.0,"area_band":"3,000~5,000㎡","interest_category":"도로","solar_candidate":"검토필요","candidate_reason":"도로점용 및 실제 이용형태 추가 검토 필요; 면적 3,564㎡","priority_score":35,"source":"경기부동산포털 국공유지조회·연속지적도","source_date":"2026-08-11","installed_solar_match":false}},{"type":"Feature","id":"4139012000102960018","geometry":{"type":"Point","coordinates":[126.8162497,37.3888423]},"properties":{"pnu":"4139012000102960018","municipality_code":"41390","municipality":"시흥시","district":"시흥시","locality":"하상동","address":"시흥시 하상동 296-18","owner_type":"경기도유지","owner_label":"경기도","manager":"건설국 도로정책과","property_class":"행정재산","land_category":"도로","area_sqm":3551.0,"area_band":"3,000~5,000㎡","interest_category":"도로","solar_candidate":"검토필요","candidate_reason":"도로점용 및 실제 이용형태 추가 검토 필요; 면적 3,551㎡","priority_score":35,"source":"경기부동산포털 국공유지조회·연속지적도","source_date":"2026-08-11","installed_solar_match":false}},{"type":"Feature","id":"4139013100109390006","geometry":{"type":"Point","coordinates":[126.7584736,37.3880334]},"properties":{"pnu":"4139013100109390006","municipality_code":"41390","municipality":"시흥시","district":"시흥시","locality":"월곶동","address":"시흥시 월곶동 939-6","owner_type":"경기도유지","owner_label":"경기도","manager":"건설국 도로정책과","property_class":"행정재산","land_category":"도로","area_sqm":3524.0,"area_band":"3,000~5,000㎡","interest_category":"도로","solar_candidate":"검토필요","candidate_reason":"도로점용 및 실제 이용형태 추가 검토 필요; 면적 3,524㎡","priority_score":35,"source":"경기부동산포털 국공유지조회·연속지적도","source_date":"2026-08-11","installed_solar_match":false}},{"type":"Feature","id":"4139011000105410001","geometry":{"type":"Point","coordinates":[126.8276208,37.3906423]},"properties":{"pnu":"4139011000105410001","municipality_code":"41390","municipality":"시흥시","district":"시흥시","locality":"금이동","address":"시흥시 금이동 541-1","owner_type":"경기도유지","owner_label":"경기도","manager":"건설국 도로정책과","property_class":"행정재산","land_category":"도로","area_sqm":3523.0,"area_band":"3,000~5,000㎡","interest_category":"도로","solar_candidate":"검토필요","candidate_reason":"도로점용 및 실제 이용형태 추가 검토 필요; 면적 3,523㎡","priority_score":35,"source":"경기부동산포털 국공유지조회·연속지적도","source_date":"2026-08-11","installed_solar_match":false}},{"type":"Feature","id":"4139012900101250011","geometry":{"type":"Point","coordinates":[126.7946793,37.3887472]},"properties":{"pnu":"4139012900101250011","municipality_code":"41390","municipality":"시흥시","district":"시흥시","locality":"장현동","address":"시흥시 장현동 125-11","owner_type":"경기도유지","owner_label":"경기도","manager":"건설국 도로정책과","property_class":"행정재산","land_category":"도로","area_sqm":3460.0,"area_band":"3,000~5,000㎡","interest_category":"도로","solar_candidate":"검토필요","candidate_reason":"도로점용 및 실제 이용형태 추가 검토 필요; 면적 3,460㎡","priority_score":35,"source":"경기부동산포털 국공유지조회·연속지적도","source_date":"2026-08-11","installed_solar_match":false}},{"type":"Feature","id":"4139013100106270001","geometry":{"type":"Point","coordinates":[126.7522559,37.3865804]},"properties":{"pnu":"4139013100106270001","municipality_code":"41390","municipality":"시흥시","district":"시흥시","locality":"월곶동","address":"시흥시 월곶동 627-1","owner_type":"경기도유지","owner_label":"경기도","manager":"건설국 도로정책과","property_class":"행정재산","land_category":"도로","area_sqm":3398.0,"area_band":"3,000~5,000㎡","interest_category":"도로","solar_candidate":"검토필요","candidate_reason":"도로점용 및 실제 이용형태 추가 검토 필요; 면적 3,398㎡","priority_score":35,"source":"경기부동산포털 국공유지조회·연속지적도","source_date":"2026-08-11","installed_solar_match":true,"installed_solar_count":6,"installed_solar_area_sqm":583.8,"installed_solar_analysis_years":["2024"],"installed_solar_types":["도로유휴부지"],"installed_solar_permit_status_counts":{"Y":6}}},{"type":"Feature","id":"4139011900107760004","geometry":{"type":"Point","coordinates":[126.8025511,37.3886391]},"properties":{"pnu":"4139011900107760004","municipality_code":"41390","municipality":"시흥시","district":"시흥시","locality":"하중동","address":"시흥시 하중동 776-4","owner_type":"경기도유지","owner_label":"경기도","manager":"건설국 도로정책과","property_class":"행정재산","land_category":"도로","area_sqm":3336.0,"area_band":"3,000~5,000㎡","interest_category":"도로","solar_candidate":"검토필요","candidate_reason":"도로점용 및 실제 이용형태 추가 검토 필요; 면적 3,336㎡","priority_score":35,"source":"경기부동산포털 국공유지조회·연속지적도","source_date":"2026-08-11","installed_solar_match":false}},{"type":"Feature","id":"4139011900107800006","geometry":{"type":"Point","coordinates":[126.7998387,37.3878295]},"properties":{"pnu":"4139011900107800006","municipality_code":"41390","municipality":"시흥시","district":"시흥시","locality":"하중동","address":"시흥시 하중동 780-6","owner_type":"경기도유지","owner_label":"경기도","manager":"건설국 도로정책과","property_class":"행정재산","land_category":"도로","area_sqm":3332.0,"area_band":"3,000~5,000㎡","interest_category":"도로","solar_candidate":"검토필요","candidate_reason":"도로점용 및 실제 이용형태 추가 검토 필요; 면적 3,332㎡","priority_score":35,"source":"경기부동산포털 국공유지조회·연속지적도","source_date":"2026-08-11","installed_solar_match":false}},{"type":"Feature","id":"4139011900107770013","geometry":{"type":"Point","coordinates":[126.8003308,37.3886876]},"properties":{"pnu":"4139011900107770013","municipality_code":"41390","municipality":"시흥시","district":"시흥시","locality":"하중동","address":"시흥시 하중동 777-13","owner_type":"경기도유지","owner_label":"경기도","manager":"건설국 도로정책과","property_class":"행정재산","land_category":"도로","area_sqm":3326.0,"area_band":"3,000~5,000㎡","interest_category":"도로","solar_candidate":"검토필요","candidate_reason":"도로점용 및 실제 이용형태 추가 검토 필요; 면적 3,326㎡","priority_score":35,"source":"경기부동산포털 국공유지조회·연속지적도","source_date":"2026-08-11","installed_solar_match":false}},{"type":"Feature","id":"4139011900107540010","geometry":{"type":"Point","coordinates":[126.8053707,37.3886315]},"properties":{"pnu":"4139011900107540010","municipality_code":"41390","municipality":"시흥시","district":"시흥시","locality":"하중동","address":"시흥시 하중동 754-10","owner_type":"경기도유지","owner_label":"경기도","manager":"건설국 도로정책과","property_class":"행정재산","land_category":"도로","area_sqm":3310.0,"area_band":"3,000~5,000㎡","interest_category":"도로","solar_candidate":"검토필요","candidate_reason":"도로점용 및 실제 이용형태 추가 검토 필요; 면적 3,310㎡","priority_score":35,"source":"경기부동산포털 국공유지조회·연속지적도","source_date":"2026-08-11","installed_solar_match":false}},{"type":"Feature","id":"4139011900107770014","geometry":{"type":"Point","coordinates":[126.7998775,37.3887044]},"properties":{"pnu":"4139011900107770014","municipality_code":"41390","municipality":"시흥시","district":"시흥시","locality":"하중동","address":"시흥시 하중동 777-14","owner_type":"경기도유지","owner_label":"경기도","manager":"건설국 도로정책과","property_class":"행정재산","land_category":"도로","area_sqm":3242.0,"area_band":"3,000~5,000㎡","interest_category":"도로","solar_candidate":"검토필요","candidate_reason":"도로점용 및 실제 이용형태 추가 검토 필요; 면적 3,242㎡","priority_score":35,"source":"경기부동산포털 국공유지조회·연속지적도","source_date":"2026-08-11","installed_solar_match":false}},{"type":"Feature","id":"4139011000105170000","geometry":{"type":"Point","coordinates":[126.8315956,37.3918037]},"properties":{"pnu":"4139011000105170000","municipality_code":"41390","municipality":"시흥시","district":"시흥시","locality":"금이동","address":"시흥시 금이동 517","owner_type":"경기도유지","owner_label":"경기도","manager":"건설국 도로정책과","property_class":"행정재산","land_category":"도로","area_sqm":3207.0,"area_band":"3,000~5,000㎡","interest_category":"도로","solar_candidate":"검토필요","candidate_reason":"도로점용 및 실제 이용형태 추가 검토 필요; 면적 3,207㎡","priority_score":35,"source":"경기부동산포털 국공유지조회·연속지적도","source_date":"2026-08-11","installed_solar_match":false}},{"type":"Feature","id":"4139011000104280001","geometry":{"type":"Point","coordinates":[126.8422378,37.3938189]},"properties":{"pnu":"4139011000104280001","municipality_code":"41390","municipality":"시흥시","district":"시흥시","locality":"금이동","address":"시흥시 금이동 428-1","owner_type":"경기도유지","owner_label":"경기도","manager":"건설국 도로정책과","property_class":"행정재산","land_category":"도로","area_sqm":3179.0,"area_band":"3,000~5,000㎡","interest_category":"도로","solar_candidate":"검토필요","candidate_reason":"도로점용 및 실제 이용형태 추가 검토 필요; 면적 3,179㎡","priority_score":35,"source":"경기부동산포털 국공유지조회·연속지적도","source_date":"2026-08-11","installed_solar_match":false}},{"type":"Feature","id":"4139012900101160010","geometry":{"type":"Point","coordinates":[126.7933676,37.3886967]},"properties":{"pnu":"4139012900101160010","municipality_code":"41390","municipality":"시흥시","district":"시흥시","locality":"장현동","address":"시흥시 장현동 116-10","owner_type":"경기도유지","owner_label":"경기도","manager":"건설국 도로정책과","property_class":"행정재산","land_category":"도로","area_sqm":3149.0,"area_band":"3,000~5,000㎡","interest_category":"도로","solar_candidate":"검토필요","candidate_reason":"도로점용 및 실제 이용형태 추가 검토 필요; 면적 3,149㎡","priority_score":35,"source":"경기부동산포털 국공유지조회·연속지적도","source_date":"2026-08-11","installed_solar_match":false}},{"type":"Feature","id":"4139012900100230008","geometry":{"type":"Point","coordinates":[126.7898299,37.3883598]},"properties":{"pnu":"4139012900100230008","municipality_code":"41390","municipality":"시흥시","district":"시흥시","locality":"장현동","address":"시흥시 장현동 23-8","owner_type":"경기도유지","owner_label":"경기도","manager":"건설국 도로정책과","property_class":"행정재산","land_category":"도로","area_sqm":3133.0,"area_band":"3,000~5,000㎡","interest_category":"도로","solar_candidate":"검토필요","candidate_reason":"도로점용 및 실제 이용형태 추가 검토 필요; 면적 3,133㎡","priority_score":35,"source":"경기부동산포털 국공유지조회·연속지적도","source_date":"2026-08-11","installed_solar_match":false}},{"type":"Feature","id":"4139012000103430044","geometry":{"type":"Point","coordinates":[126.8133755,37.3884756]},"properties":{"pnu":"4139012000103430044","municipality_code":"41390","municipality":"시흥시","district":"시흥시","locality":"하상동","address":"시흥시 하상동 343-44","owner_type":"경기도유지","owner_label":"경기도","manager":"건설국 도로정책과","property_class":"행정재산","land_category":"도로","area_sqm":3082.0,"area_band":"3,000~5,000㎡","interest_category":"도로","solar_candidate":"검토필요","candidate_reason":"도로점용 및 실제 이용형태 추가 검토 필요; 면적 3,082㎡","priority_score":35,"source":"경기부동산포털 국공유지조회·연속지적도","source_date":"2026-08-11","installed_solar_match":false}},{"type":"Feature","id":"4139013000104810010","geometry":{"type":"Point","coordinates":[126.7854775,37.388647]},"properties":{"pnu":"4139013000104810010","municipality_code":"41390","municipality":"시흥시","district":"시흥시","locality":"장곡동","address":"시흥시 장곡동 481-10","owner_type":"경기도유지","owner_label":"경기도","manager":"건설국 도로정책과","property_class":"행정재산","land_category":"도로","area_sqm":3053.0,"area_band":"3,000~5,000㎡","interest_category":"도로","solar_candidate":"검토필요","candidate_reason":"도로점용 및 실제 이용형태 추가 검토 필요; 면적 3,053㎡","priority_score":35,"source":"경기부동산포털 국공유지조회·연속지적도","source_date":"2026-08-11","installed_solar_match":false}}]}