{"type":"FeatureCollection","name":"gyeonggi_41410_national_solar_candidates","metadata":{"generated_on":"2026-08-11","source":"경기부동산포털 국공유지조회·연속지적도","source_agency":"경기도","ownership_source":"경기부동산포털 국공유지조회","coverage":"군포시","owner_code":"2","owner_type":"국유지","minimum_area_sqm":100.0,"feature_count":132,"coordinate_reference":"GRIS native values interpreted as EPSG:5174 and projected to EPSG:4326","coordinate_precision":"7 decimals, increased only when needed to keep narrow-parcel points inside","disclaimer":"설치 가능 확정이 아닌 현장조사 우선순위"},"features":[{"type":"Feature","id":"4141010200103880000","geometry":{"type":"Point","coordinates":[126.959835,37.3493987]},"properties":{"pnu":"4141010200103880000","municipality_code":"41410","municipality":"군포시","district":"군포시","locality":"당정동","address":"군포시 당정동 388","owner_type":"국유지","owner_label":"국(법무부)","manager":"","property_class":"","land_category":"대","area_sqm":14686.0,"area_band":"5,000㎡ 이상","interest_category":"대","solar_candidate":"Y","candidate_reason":"청사·공공건축물·주차장 현황 추가 확인 필요; 면적 14,686㎡","priority_score":65,"source":"경기부동산포털 국공유지조회·연속지적도","source_date":"2026-08-11","installed_solar_match":false}},{"type":"Feature","id":"4141010500108480000","geometry":{"type":"Point","coordinates":[126.9363268,37.3604709]},"properties":{"pnu":"4141010500108480000","municipality_code":"41410","municipality":"군포시","district":"군포시","locality":"금정동","address":"군포시 금정동 848","owner_type":"국유지","owner_label":"국(경찰청)","manager":"","property_class":"","land_category":"대","area_sqm":12111.8,"area_band":"5,000㎡ 이상","interest_category":"대","solar_candidate":"Y","candidate_reason":"청사·공공건축물·주차장 현황 추가 확인 필요; 면적 12,112㎡","priority_score":65,"source":"경기부동산포털 국공유지조회·연속지적도","source_date":"2026-08-11","installed_solar_match":false}},{"type":"Feature","id":"4141010200103850000","geometry":{"type":"Point","coordinates":[126.9609609,37.3501376]},"properties":{"pnu":"4141010200103850000","municipality_code":"41410","municipality":"군포시","district":"군포시","locality":"당정동","address":"군포시 당정동 385","owner_type":"국유지","owner_label":"국(법무부)","manager":"","property_class":"","land_category":"대","area_sqm":6244.0,"area_band":"5,000㎡ 이상","interest_category":"대","solar_candidate":"Y","candidate_reason":"청사·공공건축물·주차장 현황 추가 확인 필요; 면적 6,244㎡","priority_score":65,"source":"경기부동산포털 국공유지조회·연속지적도","source_date":"2026-08-11","installed_solar_match":false}},{"type":"Feature","id":"4141010700103270003","geometry":{"type":"Point","coordinates":[126.9049992,37.3573176]},"properties":{"pnu":"4141010700103270003","municipality_code":"41410","municipality":"군포시","district":"군포시","locality":"속달동","address":"군포시 속달동 327-3","owner_type":"국유지","owner_label":"국(국방부)","manager":"","property_class":"","land_category":"잡종지","area_sqm":1065.0,"area_band":"1,000~3,000㎡","interest_category":"잡종지","solar_candidate":"Y","candidate_reason":"실제 이용·점유 여부 확인 후 검토할 잡종지; 면적 1,065㎡","priority_score":63,"source":"경기부동산포털 국공유지조회·연속지적도","source_date":"2026-08-11","installed_solar_match":false}},{"type":"Feature","id":"4141010300112310000","geometry":{"type":"Point","coordinates":[126.9394267,37.3304665]},"properties":{"pnu":"4141010300112310000","municipality_code":"41410","municipality":"군포시","district":"군포시","locality":"부곡동","address":"군포시 부곡동 1231","owner_type":"국유지","owner_label":"국(국토교통부)","manager":"","property_class":"","land_category":"창고용지","area_sqm":342897.4,"area_band":"5,000㎡ 이상","interest_category":"창고용지","solar_candidate":"Y","candidate_reason":"넓은 국유지로 실제 이용·규제 현황 추가 검토; 면적 342,897㎡","priority_score":60,"source":"경기부동산포털 국공유지조회·연속지적도","source_date":"2026-08-11","installed_solar_match":true,"installed_solar_count":64,"installed_solar_area_sqm":5866.1,"installed_solar_analysis_years":["2024"],"installed_solar_types":["물류창고"],"installed_solar_permit_status_counts":{"Y":64}}},{"type":"Feature","id":"4141010300112300000","geometry":{"type":"Point","coordinates":[126.9388975,37.3330486]},"properties":{"pnu":"4141010300112300000","municipality_code":"41410","municipality":"군포시","district":"군포시","locality":"부곡동","address":"군포시 부곡동 1230","owner_type":"국유지","owner_label":"국(국토교통부)","manager":"","property_class":"","land_category":"창고용지","area_sqm":272247.6,"area_band":"5,000㎡ 이상","interest_category":"창고용지","solar_candidate":"Y","candidate_reason":"넓은 국유지로 실제 이용·규제 현황 추가 검토; 면적 272,248㎡","priority_score":60,"source":"경기부동산포털 국공유지조회·연속지적도","source_date":"2026-08-11","installed_solar_match":false}},{"type":"Feature","id":"4141010300112310003","geometry":{"type":"Point","coordinates":[126.946694,37.3312027]},"properties":{"pnu":"4141010300112310003","municipality_code":"41410","municipality":"군포시","district":"군포시","locality":"부곡동","address":"군포시 부곡동 1231-3","owner_type":"국유지","owner_label":"국(국토교통부)","manager":"","property_class":"","land_category":"창고용지","area_sqm":6720.0,"area_band":"5,000㎡ 이상","interest_category":"창고용지","solar_candidate":"Y","candidate_reason":"넓은 국유지로 실제 이용·규제 현황 추가 검토; 면적 6,720㎡","priority_score":60,"source":"경기부동산포털 국공유지조회·연속지적도","source_date":"2026-08-11","installed_solar_match":false}},{"type":"Feature","id":"4141010500108460000","geometry":{"type":"Point","coordinates":[126.9339632,37.3603152]},"properties":{"pnu":"4141010500108460000","municipality_code":"41410","municipality":"군포시","district":"군포시","locality":"금정동","address":"군포시 금정동 846","owner_type":"국유지","owner_label":"국(과학기술정보통신부)","manager":"","property_class":"","land_category":"대","area_sqm":3629.9,"area_band":"3,000~5,000㎡","interest_category":"대","solar_candidate":"Y","candidate_reason":"청사·공공건축물·주차장 현황 추가 확인 필요; 면적 3,630㎡","priority_score":60,"source":"경기부동산포털 국공유지조회·연속지적도","source_date":"2026-08-11","installed_solar_match":true,"installed_solar_count":2,"installed_solar_area_sqm":225.6,"installed_solar_analysis_years":["2024"],"installed_solar_types":["공공시설물"],"installed_solar_permit_status_counts":{"N":2}}},{"type":"Feature","id":"4141010200103940000","geometry":{"type":"Point","coordinates":[126.9600896,37.3501296]},"properties":{"pnu":"4141010200103940000","municipality_code":"41410","municipality":"군포시","district":"군포시","locality":"당정동","address":"군포시 당정동 394","owner_type":"국유지","owner_label":"국(법무부)","manager":"","property_class":"","land_category":"대","area_sqm":3394.0,"area_band":"3,000~5,000㎡","interest_category":"대","solar_candidate":"Y","candidate_reason":"청사·공공건축물·주차장 현황 추가 확인 필요; 면적 3,394㎡","priority_score":60,"source":"경기부동산포털 국공유지조회·연속지적도","source_date":"2026-08-11","installed_solar_match":false}},{"type":"Feature","id":"4141010500106080024","geometry":{"type":"Point","coordinates":[126.9488695,37.3623606]},"properties":{"pnu":"4141010500106080024","municipality_code":"41410","municipality":"군포시","district":"군포시","locality":"금정동","address":"군포시 금정동 608-24","owner_type":"국유지","owner_label":"국(기획재정부)","manager":"","property_class":"","land_category":"잡종지","area_sqm":604.0,"area_band":"500~1,000㎡","interest_category":"잡종지","solar_candidate":"검토필요","candidate_reason":"실제 이용·점유 여부 확인 후 검토할 잡종지; 면적 604㎡","priority_score":55,"source":"경기부동산포털 국공유지조회·연속지적도","source_date":"2026-08-11","installed_solar_match":false}},{"type":"Feature","id":"4141010300109460000","geometry":{"type":"Point","coordinates":[126.947617,37.3320807]},"properties":{"pnu":"4141010300109460000","municipality_code":"41410","municipality":"군포시","district":"군포시","locality":"부곡동","address":"군포시 부곡동 946","owner_type":"국유지","owner_label":"국(국토교통부)","manager":"","property_class":"","land_category":"잡종지","area_sqm":544.0,"area_band":"500~1,000㎡","interest_category":"잡종지","solar_candidate":"검토필요","candidate_reason":"실제 이용·점유 여부 확인 후 검토할 잡종지; 면적 544㎡","priority_score":55,"source":"경기부동산포털 국공유지조회·연속지적도","source_date":"2026-08-11","installed_solar_match":false}},{"type":"Feature","id":"4141010200103980003","geometry":{"type":"Point","coordinates":[126.9601207,37.3506957]},"properties":{"pnu":"4141010200103980003","municipality_code":"41410","municipality":"군포시","district":"군포시","locality":"당정동","address":"군포시 당정동 398-3","owner_type":"국유지","owner_label":"국(법무부)","manager":"","property_class":"","land_category":"대","area_sqm":2683.3,"area_band":"1,000~3,000㎡","interest_category":"대","solar_candidate":"검토필요","candidate_reason":"청사·공공건축물·주차장 현황 추가 확인 필요; 면적 2,683㎡","priority_score":53,"source":"경기부동산포털 국공유지조회·연속지적도","source_date":"2026-08-11","installed_solar_match":false}},{"type":"Feature","id":"4141010500108470000","geometry":{"type":"Point","coordinates":[126.9354003,37.3601682]},"properties":{"pnu":"4141010500108470000","municipality_code":"41410","municipality":"군포시","district":"군포시","locality":"금정동","address":"군포시 금정동 847","owner_type":"국유지","owner_label":"국(관세청)","manager":"","property_class":"","land_category":"대","area_sqm":2306.8,"area_band":"1,000~3,000㎡","interest_category":"대","solar_candidate":"검토필요","candidate_reason":"청사·공공건축물·주차장 현황 추가 확인 필요; 면적 2,307㎡","priority_score":53,"source":"경기부동산포털 국공유지조회·연속지적도","source_date":"2026-08-11","installed_solar_match":false}},{"type":"Feature","id":"4141010200103980002","geometry":{"type":"Point","coordinates":[126.9602789,37.3504739]},"properties":{"pnu":"4141010200103980002","municipality_code":"41410","municipality":"군포시","district":"군포시","locality":"당정동","address":"군포시 당정동 398-2","owner_type":"국유지","owner_label":"국(법무부)","manager":"","property_class":"","land_category":"대","area_sqm":2154.0,"area_band":"1,000~3,000㎡","interest_category":"대","solar_candidate":"검토필요","candidate_reason":"청사·공공건축물·주차장 현황 추가 확인 필요; 면적 2,154㎡","priority_score":53,"source":"경기부동산포털 국공유지조회·연속지적도","source_date":"2026-08-11","installed_solar_match":false}},{"type":"Feature","id":"4141010500106910002","geometry":{"type":"Point","coordinates":[126.9469652,37.3683713]},"properties":{"pnu":"4141010500106910002","municipality_code":"41410","municipality":"군포시","district":"군포시","locality":"금정동","address":"군포시 금정동 691-2","owner_type":"국유지","owner_label":"국(재정경제부)","manager":"","property_class":"","land_category":"대","area_sqm":2111.4,"area_band":"1,000~3,000㎡","interest_category":"대","solar_candidate":"검토필요","candidate_reason":"청사·공공건축물·주차장 현황 추가 확인 필요; 면적 2,111㎡","priority_score":53,"source":"경기부동산포털 국공유지조회·연속지적도","source_date":"2026-08-11","installed_solar_match":false}},{"type":"Feature","id":"4141010500108450002","geometry":{"type":"Point","coordinates":[126.933287,37.3611579]},"properties":{"pnu":"4141010500108450002","municipality_code":"41410","municipality":"군포시","district":"군포시","locality":"금정동","address":"군포시 금정동 845-2","owner_type":"국유지","owner_label":"국(대법원)","manager":"","property_class":"","land_category":"대","area_sqm":1969.0,"area_band":"1,000~3,000㎡","interest_category":"대","solar_candidate":"검토필요","candidate_reason":"청사·공공건축물·주차장 현황 추가 확인 필요; 면적 1,969㎡","priority_score":53,"source":"경기부동산포털 국공유지조회·연속지적도","source_date":"2026-08-11","installed_solar_match":false}},{"type":"Feature","id":"4141010500101550007","geometry":{"type":"Point","coordinates":[126.9519123,37.3660992]},"properties":{"pnu":"4141010500101550007","municipality_code":"41410","municipality":"군포시","district":"군포시","locality":"금정동","address":"군포시 금정동 155-7","owner_type":"국유지","owner_label":"국(국토교통부)","manager":"","property_class":"","land_category":"대","area_sqm":1867.0,"area_band":"1,000~3,000㎡","interest_category":"대","solar_candidate":"검토필요","candidate_reason":"청사·공공건축물·주차장 현황 추가 확인 필요; 면적 1,867㎡","priority_score":53,"source":"경기부동산포털 국공유지조회·연속지적도","source_date":"2026-08-11","installed_solar_match":false}},{"type":"Feature","id":"4141010400100750058","geometry":{"type":"Point","coordinates":[126.9404439,37.375808]},"properties":{"pnu":"4141010400100750058","municipality_code":"41410","municipality":"군포시","district":"군포시","locality":"산본동","address":"군포시 산본동 75-58","owner_type":"국유지","owner_label":"국(재무부)","manager":"","property_class":"","land_category":"대","area_sqm":1777.4,"area_band":"1,000~3,000㎡","interest_category":"대","solar_candidate":"검토필요","candidate_reason":"청사·공공건축물·주차장 현황 추가 확인 필요; 면적 1,777㎡","priority_score":53,"source":"경기부동산포털 국공유지조회·연속지적도","source_date":"2026-08-11","installed_solar_match":false}},{"type":"Feature","id":"4141010300111110001","geometry":{"type":"Point","coordinates":[126.939848,37.3227779]},"properties":{"pnu":"4141010300111110001","municipality_code":"41410","municipality":"군포시","district":"군포시","locality":"부곡동","address":"군포시 부곡동 1111-1","owner_type":"국유지","owner_label":"국(경찰청)","manager":"","property_class":"","land_category":"대","area_sqm":1282.0,"area_band":"1,000~3,000㎡","interest_category":"대","solar_candidate":"검토필요","candidate_reason":"청사·공공건축물·주차장 현황 추가 확인 필요; 면적 1,282㎡","priority_score":53,"source":"경기부동산포털 국공유지조회·연속지적도","source_date":"2026-08-11","installed_solar_match":false}},{"type":"Feature","id":"4141010200103830009","geometry":{"type":"Point","coordinates":[126.9609229,37.3510135]},"properties":{"pnu":"4141010200103830009","municipality_code":"41410","municipality":"군포시","district":"군포시","locality":"당정동","address":"군포시 당정동 383-9","owner_type":"국유지","owner_label":"국(법무부)","manager":"","property_class":"","land_category":"대","area_sqm":1277.4,"area_band":"1,000~3,000㎡","interest_category":"대","solar_candidate":"검토필요","candidate_reason":"청사·공공건축물·주차장 현황 추가 확인 필요; 면적 1,277㎡","priority_score":53,"source":"경기부동산포털 국공유지조회·연속지적도","source_date":"2026-08-11","installed_solar_match":false}},{"type":"Feature","id":"4141010200103830001","geometry":{"type":"Point","coordinates":[126.9608927,37.3507457]},"properties":{"pnu":"4141010200103830001","municipality_code":"41410","municipality":"군포시","district":"군포시","locality":"당정동","address":"군포시 당정동 383-1","owner_type":"국유지","owner_label":"국(법무부)","manager":"","property_class":"","land_category":"대","area_sqm":1158.0,"area_band":"1,000~3,000㎡","interest_category":"대","solar_candidate":"검토필요","candidate_reason":"청사·공공건축물·주차장 현황 추가 확인 필요; 면적 1,158㎡","priority_score":53,"source":"경기부동산포털 국공유지조회·연속지적도","source_date":"2026-08-11","installed_solar_match":false}},{"type":"Feature","id":"4141010500101550005","geometry":{"type":"Point","coordinates":[126.9513887,37.3663974]},"properties":{"pnu":"4141010500101550005","municipality_code":"41410","municipality":"군포시","district":"군포시","locality":"금정동","address":"군포시 금정동 155-5","owner_type":"국유지","owner_label":"국(국토교통부)","manager":"","property_class":"","land_category":"대","area_sqm":1048.0,"area_band":"1,000~3,000㎡","interest_category":"대","solar_candidate":"검토필요","candidate_reason":"청사·공공건축물·주차장 현황 추가 확인 필요; 면적 1,048㎡","priority_score":53,"source":"경기부동산포털 국공유지조회·연속지적도","source_date":"2026-08-11","installed_solar_match":false}},{"type":"Feature","id":"4141010400111500005","geometry":{"type":"Point","coordinates":[126.9159453,37.3566721]},"properties":{"pnu":"4141010400111500005","municipality_code":"41410","municipality":"군포시","district":"군포시","locality":"산본동","address":"군포시 산본동 1150-5","owner_type":"국유지","owner_label":"국(국방부)","manager":"","property_class":"","land_category":"잡종지","area_sqm":475.3,"area_band":"100~500㎡","interest_category":"잡종지","solar_candidate":"검토필요","candidate_reason":"실제 이용·점유 여부 확인 후 검토할 잡종지; 면적 475㎡","priority_score":50,"source":"경기부동산포털 국공유지조회·연속지적도","source_date":"2026-08-11","installed_solar_match":false}},{"type":"Feature","id":"4141010700103270001","geometry":{"type":"Point","coordinates":[126.9010804,37.3568318]},"properties":{"pnu":"4141010700103270001","municipality_code":"41410","municipality":"군포시","district":"군포시","locality":"속달동","address":"군포시 속달동 327-1","owner_type":"국유지","owner_label":"국(국방부)","manager":"","property_class":"","land_category":"잡종지","area_sqm":437.0,"area_band":"100~500㎡","interest_category":"잡종지","solar_candidate":"검토필요","candidate_reason":"실제 이용·점유 여부 확인 후 검토할 잡종지; 면적 437㎡","priority_score":50,"source":"경기부동산포털 국공유지조회·연속지적도","source_date":"2026-08-11","installed_solar_match":false}},{"type":"Feature","id":"4141010700103270002","geometry":{"type":"Point","coordinates":[126.9020547,37.3570563]},"properties":{"pnu":"4141010700103270002","municipality_code":"41410","municipality":"군포시","district":"군포시","locality":"속달동","address":"군포시 속달동 327-2","owner_type":"국유지","owner_label":"국(국방부)","manager":"","property_class":"","land_category":"잡종지","area_sqm":424.0,"area_band":"100~500㎡","interest_category":"잡종지","solar_candidate":"검토필요","candidate_reason":"실제 이용·점유 여부 확인 후 검토할 잡종지; 면적 424㎡","priority_score":50,"source":"경기부동산포털 국공유지조회·연속지적도","source_date":"2026-08-11","installed_solar_match":false}},{"type":"Feature","id":"4141010100105970006","geometry":{"type":"Point","coordinates":[126.9396461,37.3415543]},"properties":{"pnu":"4141010100105970006","municipality_code":"41410","municipality":"군포시","district":"군포시","locality":"당동","address":"군포시 당동 597-6","owner_type":"국유지","owner_label":"국(환경부)","manager":"","property_class":"","land_category":"잡종지","area_sqm":182.0,"area_band":"100~500㎡","interest_category":"잡종지","solar_candidate":"검토필요","candidate_reason":"실제 이용·점유 여부 확인 후 검토할 잡종지; 면적 182㎡","priority_score":50,"source":"경기부동산포털 국공유지조회·연속지적도","source_date":"2026-08-11","installed_solar_match":false}},{"type":"Feature","id":"4141010200100070010","geometry":{"type":"Point","coordinates":[126.9555262,37.3656295]},"properties":{"pnu":"4141010200100070010","municipality_code":"41410","municipality":"군포시","district":"군포시","locality":"당정동","address":"군포시 당정동 7-10","owner_type":"국유지","owner_label":"국(국토교통부)","manager":"","property_class":"","land_category":"잡종지","area_sqm":131.0,"area_band":"100~500㎡","interest_category":"잡종지","solar_candidate":"검토필요","candidate_reason":"실제 이용·점유 여부 확인 후 검토할 잡종지; 면적 131㎡","priority_score":50,"source":"경기부동산포털 국공유지조회·연속지적도","source_date":"2026-08-11","installed_solar_match":false}},{"type":"Feature","id":"4141010900200540000","geometry":{"type":"Point","coordinates":[126.9152862,37.3115568]},"properties":{"pnu":"4141010900200540000","municipality_code":"41410","municipality":"군포시","district":"군포시","locality":"도마교동","address":"군포시 도마교동 산54","owner_type":"국유지","owner_label":"국(재정경제부)","manager":"","property_class":"","land_category":"잡종지","area_sqm":112.0,"area_band":"100~500㎡","interest_category":"잡종지","solar_candidate":"검토필요","candidate_reason":"실제 이용·점유 여부 확인 후 검토할 잡종지; 면적 112㎡","priority_score":50,"source":"경기부동산포털 국공유지조회·연속지적도","source_date":"2026-08-11","installed_solar_match":false}},{"type":"Feature","id":"4141010300107320006","geometry":{"type":"Point","coordinates":[126.9297797,37.3288027]},"properties":{"pnu":"4141010300107320006","municipality_code":"41410","municipality":"군포시","district":"군포시","locality":"부곡동","address":"군포시 부곡동 732-6","owner_type":"국유지","owner_label":"국(국토교통부)","manager":"","property_class":"","land_category":"잡종지","area_sqm":109.0,"area_band":"100~500㎡","interest_category":"잡종지","solar_candidate":"검토필요","candidate_reason":"실제 이용·점유 여부 확인 후 검토할 잡종지; 면적 109㎡","priority_score":50,"source":"경기부동산포털 국공유지조회·연속지적도","source_date":"2026-08-11","installed_solar_match":false}},{"type":"Feature","id":"4141010300112290000","geometry":{"type":"Point","coordinates":[126.9376526,37.3354337]},"properties":{"pnu":"4141010300112290000","municipality_code":"41410","municipality":"군포시","district":"군포시","locality":"부곡동","address":"군포시 부곡동 1229","owner_type":"국유지","owner_label":"국(국토교통부)","manager":"","property_class":"","land_category":"공원","area_sqm":26511.6,"area_band":"5,000㎡ 이상","interest_category":"공원","solar_candidate":"검토필요","candidate_reason":"도시공원 관련 법령 및 공원시설 기준 검토 필요; 면적 26,512㎡","priority_score":45,"source":"경기부동산포털 국공유지조회·연속지적도","source_date":"2026-08-11","installed_solar_match":false}},{"type":"Feature","id":"4141010300112300001","geometry":{"type":"Point","coordinates":[126.9344443,37.3346195]},"properties":{"pnu":"4141010300112300001","municipality_code":"41410","municipality":"군포시","district":"군포시","locality":"부곡동","address":"군포시 부곡동 1230-1","owner_type":"국유지","owner_label":"국(국토교통부)","manager":"","property_class":"","land_category":"공원","area_sqm":21660.5,"area_band":"5,000㎡ 이상","interest_category":"공원","solar_candidate":"검토필요","candidate_reason":"도시공원 관련 법령 및 공원시설 기준 검토 필요; 면적 21,660㎡","priority_score":45,"source":"경기부동산포털 국공유지조회·연속지적도","source_date":"2026-08-11","installed_solar_match":false}},{"type":"Feature","id":"4141010300112310001","geometry":{"type":"Point","coordinates":[126.9326592,37.3316388]},"properties":{"pnu":"4141010300112310001","municipality_code":"41410","municipality":"군포시","district":"군포시","locality":"부곡동","address":"군포시 부곡동 1231-1","owner_type":"국유지","owner_label":"국(국토교통부)","manager":"","property_class":"","land_category":"공원","area_sqm":18524.9,"area_band":"5,000㎡ 이상","interest_category":"공원","solar_candidate":"검토필요","candidate_reason":"도시공원 관련 법령 및 공원시설 기준 검토 필요; 면적 18,525㎡","priority_score":45,"source":"경기부동산포털 국공유지조회·연속지적도","source_date":"2026-08-11","installed_solar_match":false}},{"type":"Feature","id":"4141010200110260000","geometry":{"type":"Point","coordinates":[126.9486304,37.3438939]},"properties":{"pnu":"4141010200110260000","municipality_code":"41410","municipality":"군포시","district":"군포시","locality":"당정동","address":"군포시 당정동 1026","owner_type":"국유지","owner_label":"국(국토교통부)","manager":"","property_class":"","land_category":"공원","area_sqm":5328.7,"area_band":"5,000㎡ 이상","interest_category":"공원","solar_candidate":"검토필요","candidate_reason":"도시공원 관련 법령 및 공원시설 기준 검토 필요; 면적 5,329㎡","priority_score":45,"source":"경기부동산포털 국공유지조회·연속지적도","source_date":"2026-08-11","installed_solar_match":false}},{"type":"Feature","id":"4141010500107020011","geometry":{"type":"Point","coordinates":[126.9414332,37.3673637]},"properties":{"pnu":"4141010500107020011","municipality_code":"41410","municipality":"군포시","district":"군포시","locality":"금정동","address":"군포시 금정동 702-11","owner_type":"국유지","owner_label":"국(고용노동부)","manager":"","property_class":"","land_category":"대","area_sqm":911.9,"area_band":"500~1,000㎡","interest_category":"대","solar_candidate":"검토필요","candidate_reason":"청사·공공건축물·주차장 현황 추가 확인 필요; 면적 912㎡","priority_score":45,"source":"경기부동산포털 국공유지조회·연속지적도","source_date":"2026-08-11","installed_solar_match":false}},{"type":"Feature","id":"4141010400111560007","geometry":{"type":"Point","coordinates":[126.9259349,37.3494667]},"properties":{"pnu":"4141010400111560007","municipality_code":"41410","municipality":"군포시","district":"군포시","locality":"산본동","address":"군포시 산본동 1156-7","owner_type":"국유지","owner_label":"국(과학기술정보통신부)","manager":"","property_class":"","land_category":"대","area_sqm":711.7,"area_band":"500~1,000㎡","interest_category":"대","solar_candidate":"검토필요","candidate_reason":"청사·공공건축물·주차장 현황 추가 확인 필요; 면적 712㎡","priority_score":45,"source":"경기부동산포털 국공유지조회·연속지적도","source_date":"2026-08-11","installed_solar_match":false}},{"type":"Feature","id":"4141010200100080010","geometry":{"type":"Point","coordinates":[126.9564702,37.3637905]},"properties":{"pnu":"4141010200100080010","municipality_code":"41410","municipality":"군포시","district":"군포시","locality":"당정동","address":"군포시 당정동 8-10","owner_type":"국유지","owner_label":"국(국토교통부)","manager":"","property_class":"","land_category":"대","area_sqm":605.0,"area_band":"500~1,000㎡","interest_category":"대","solar_candidate":"검토필요","candidate_reason":"청사·공공건축물·주차장 현황 추가 확인 필요; 면적 605㎡","priority_score":45,"source":"경기부동산포털 국공유지조회·연속지적도","source_date":"2026-08-11","installed_solar_match":false}},{"type":"Feature","id":"4141010500107650004","geometry":{"type":"Point","coordinates":[126.9466494,37.3603988]},"properties":{"pnu":"4141010500107650004","municipality_code":"41410","municipality":"군포시","district":"군포시","locality":"금정동","address":"군포시 금정동 765-4","owner_type":"국유지","owner_label":"국(기획재정부)","manager":"","property_class":"","land_category":"대","area_sqm":563.0,"area_band":"500~1,000㎡","interest_category":"대","solar_candidate":"검토필요","candidate_reason":"청사·공공건축물·주차장 현황 추가 확인 필요; 면적 563㎡","priority_score":45,"source":"경기부동산포털 국공유지조회·연속지적도","source_date":"2026-08-11","installed_solar_match":false}},{"type":"Feature","id":"4141010500108720004","geometry":{"type":"Point","coordinates":[126.935747,37.3556364]},"properties":{"pnu":"4141010500108720004","municipality_code":"41410","municipality":"군포시","district":"군포시","locality":"금정동","address":"군포시 금정동 872-4","owner_type":"국유지","owner_label":"국(국(기획재정부))","manager":"","property_class":"","land_category":"대","area_sqm":532.7,"area_band":"500~1,000㎡","interest_category":"대","solar_candidate":"검토필요","candidate_reason":"청사·공공건축물·주차장 현황 추가 확인 필요; 면적 533㎡","priority_score":45,"source":"경기부동산포털 국공유지조회·연속지적도","source_date":"2026-08-11","installed_solar_match":false}},{"type":"Feature","id":"4141010400110620001","geometry":{"type":"Point","coordinates":[126.9346095,37.3704986]},"properties":{"pnu":"4141010400110620001","municipality_code":"41410","municipality":"군포시","district":"군포시","locality":"산본동","address":"군포시 산본동 1062-1","owner_type":"국유지","owner_label":"국(과학기술정보통신부)","manager":"","property_class":"","land_category":"대","area_sqm":520.0,"area_band":"500~1,000㎡","interest_category":"대","solar_candidate":"검토필요","candidate_reason":"청사·공공건축물·주차장 현황 추가 확인 필요; 면적 520㎡","priority_score":45,"source":"경기부동산포털 국공유지조회·연속지적도","source_date":"2026-08-11","installed_solar_match":false}},{"type":"Feature","id":"4141010500107700002","geometry":{"type":"Point","coordinates":[126.9452474,37.3636542]},"properties":{"pnu":"4141010500107700002","municipality_code":"41410","municipality":"군포시","district":"군포시","locality":"금정동","address":"군포시 금정동 770-2","owner_type":"국유지","owner_label":"국(과학기술정보통신부)","manager":"","property_class":"","land_category":"대","area_sqm":514.2,"area_band":"500~1,000㎡","interest_category":"대","solar_candidate":"검토필요","candidate_reason":"청사·공공건축물·주차장 현황 추가 확인 필요; 면적 514㎡","priority_score":45,"source":"경기부동산포털 국공유지조회·연속지적도","source_date":"2026-08-11","installed_solar_match":false}},{"type":"Feature","id":"4141010400111510006","geometry":{"type":"Point","coordinates":[126.9212508,37.3560602]},"properties":{"pnu":"4141010400111510006","municipality_code":"41410","municipality":"군포시","district":"군포시","locality":"산본동","address":"군포시 산본동 1151-6","owner_type":"국유지","owner_label":"국(기획재정부)","manager":"","property_class":"","land_category":"대","area_sqm":504.5,"area_band":"500~1,000㎡","interest_category":"대","solar_candidate":"검토필요","candidate_reason":"청사·공공건축물·주차장 현황 추가 확인 필요; 면적 504㎡","priority_score":45,"source":"경기부동산포털 국공유지조회·연속지적도","source_date":"2026-08-11","installed_solar_match":false}},{"type":"Feature","id":"4141010500101550003","geometry":{"type":"Point","coordinates":[126.9529941,37.3659798]},"properties":{"pnu":"4141010500101550003","municipality_code":"41410","municipality":"군포시","district":"군포시","locality":"금정동","address":"군포시 금정동 155-3","owner_type":"국유지","owner_label":"국(국토교통부)","manager":"","property_class":"","land_category":"대","area_sqm":504.0,"area_band":"500~1,000㎡","interest_category":"대","solar_candidate":"검토필요","candidate_reason":"청사·공공건축물·주차장 현황 추가 확인 필요; 면적 504㎡","priority_score":45,"source":"경기부동산포털 국공유지조회·연속지적도","source_date":"2026-08-11","installed_solar_match":false}},{"type":"Feature","id":"4141010400111540000","geometry":{"type":"Point","coordinates":[126.9256423,37.3514325]},"properties":{"pnu":"4141010400111540000","municipality_code":"41410","municipality":"군포시","district":"군포시","locality":"산본동","address":"군포시 산본동 1154","owner_type":"국유지","owner_label":"국(기획재정부)","manager":"","property_class":"","land_category":"대","area_sqm":500.1,"area_band":"500~1,000㎡","interest_category":"대","solar_candidate":"검토필요","candidate_reason":"청사·공공건축물·주차장 현황 추가 확인 필요; 면적 500㎡","priority_score":45,"source":"경기부동산포털 국공유지조회·연속지적도","source_date":"2026-08-11","installed_solar_match":false}},{"type":"Feature","id":"4141010200100020008","geometry":{"type":"Point","coordinates":[126.9554823,37.3660816]},"properties":{"pnu":"4141010200100020008","municipality_code":"41410","municipality":"군포시","district":"군포시","locality":"당정동","address":"군포시 당정동 2-8","owner_type":"국유지","owner_label":"국(국토교통부)","manager":"","property_class":"","land_category":"공장용지","area_sqm":531.0,"area_band":"500~1,000㎡","interest_category":"공장용지","solar_candidate":"검토필요","candidate_reason":"지목·면적 기준 1차 검토 대상; 면적 531㎡","priority_score":42,"source":"경기부동산포털 국공유지조회·연속지적도","source_date":"2026-08-11","installed_solar_match":false}},{"type":"Feature","id":"4141010600200970005","geometry":{"type":"Point","coordinates":[126.8776772,37.3280514]},"properties":{"pnu":"4141010600200970005","municipality_code":"41410","municipality":"군포시","district":"군포시","locality":"둔대동","address":"군포시 둔대동 산97-5","owner_type":"국유지","owner_label":"국(국토교통부)","manager":"","property_class":"","land_category":"도로","area_sqm":57078.0,"area_band":"5,000㎡ 이상","interest_category":"도로","solar_candidate":"검토필요","candidate_reason":"도로점용 및 실제 이용형태 추가 검토 필요; 면적 57,078㎡","priority_score":40,"source":"경기부동산포털 국공유지조회·연속지적도","source_date":"2026-08-11","installed_solar_match":false}},{"type":"Feature","id":"4141010600200400010","geometry":{"type":"Point","coordinates":[126.9054987,37.3223288]},"properties":{"pnu":"4141010600200400010","municipality_code":"41410","municipality":"군포시","district":"군포시","locality":"둔대동","address":"군포시 둔대동 산40-10","owner_type":"국유지","owner_label":"국(국토교통부)","manager":"","property_class":"","land_category":"도로","area_sqm":55312.0,"area_band":"5,000㎡ 이상","interest_category":"도로","solar_candidate":"검토필요","candidate_reason":"도로점용 및 실제 이용형태 추가 검토 필요; 면적 55,312㎡","priority_score":40,"source":"경기부동산포털 국공유지조회·연속지적도","source_date":"2026-08-11","installed_solar_match":false}},{"type":"Feature","id":"4141010400110570000","geometry":{"type":"Point","coordinates":[126.9307204,37.3757356]},"properties":{"pnu":"4141010400110570000","municipality_code":"41410","municipality":"군포시","district":"군포시","locality":"산본동","address":"군포시 산본동 1057","owner_type":"국유지","owner_label":"국(국토교통부)","manager":"","property_class":"","land_category":"도로","area_sqm":46648.1,"area_band":"5,000㎡ 이상","interest_category":"도로","solar_candidate":"검토필요","candidate_reason":"도로점용 및 실제 이용형태 추가 검토 필요; 면적 46,648㎡","priority_score":40,"source":"경기부동산포털 국공유지조회·연속지적도","source_date":"2026-08-11","installed_solar_match":false}},{"type":"Feature","id":"4141010600200810031","geometry":{"type":"Point","coordinates":[126.8823662,37.3319787]},"properties":{"pnu":"4141010600200810031","municipality_code":"41410","municipality":"군포시","district":"군포시","locality":"둔대동","address":"군포시 둔대동 산81-31","owner_type":"국유지","owner_label":"국(국토교통부)","manager":"","property_class":"","land_category":"도로","area_sqm":22313.0,"area_band":"5,000㎡ 이상","interest_category":"도로","solar_candidate":"검토필요","candidate_reason":"도로점용 및 실제 이용형태 추가 검토 필요; 면적 22,313㎡","priority_score":40,"source":"경기부동산포털 국공유지조회·연속지적도","source_date":"2026-08-11","installed_solar_match":false}},{"type":"Feature","id":"4141010600105550084","geometry":{"type":"Point","coordinates":[126.892733,37.3244633]},"properties":{"pnu":"4141010600105550084","municipality_code":"41410","municipality":"군포시","district":"군포시","locality":"둔대동","address":"군포시 둔대동 555-84","owner_type":"국유지","owner_label":"국(국토교통부)","manager":"","property_class":"","land_category":"도로","area_sqm":18707.0,"area_band":"5,000㎡ 이상","interest_category":"도로","solar_candidate":"검토필요","candidate_reason":"도로점용 및 실제 이용형태 추가 검토 필요; 면적 18,707㎡","priority_score":40,"source":"경기부동산포털 국공유지조회·연속지적도","source_date":"2026-08-11","installed_solar_match":false}},{"type":"Feature","id":"4141010600105290001","geometry":{"type":"Point","coordinates":[126.8788769,37.3250952]},"properties":{"pnu":"4141010600105290001","municipality_code":"41410","municipality":"군포시","district":"군포시","locality":"둔대동","address":"군포시 둔대동 529-1","owner_type":"국유지","owner_label":"국(국토교통부)","manager":"","property_class":"","land_category":"도로","area_sqm":12542.0,"area_band":"5,000㎡ 이상","interest_category":"도로","solar_candidate":"검토필요","candidate_reason":"도로점용 및 실제 이용형태 추가 검토 필요; 면적 12,542㎡","priority_score":40,"source":"경기부동산포털 국공유지조회·연속지적도","source_date":"2026-08-11","installed_solar_match":false}},{"type":"Feature","id":"4141010600105230005","geometry":{"type":"Point","coordinates":[126.879333,37.3239622]},"properties":{"pnu":"4141010600105230005","municipality_code":"41410","municipality":"군포시","district":"군포시","locality":"둔대동","address":"군포시 둔대동 523-5","owner_type":"국유지","owner_label":"국(국토교통부)","manager":"","property_class":"","land_category":"도로","area_sqm":11304.0,"area_band":"5,000㎡ 이상","interest_category":"도로","solar_candidate":"검토필요","candidate_reason":"도로점용 및 실제 이용형태 추가 검토 필요; 면적 11,304㎡","priority_score":40,"source":"경기부동산포털 국공유지조회·연속지적도","source_date":"2026-08-11","installed_solar_match":false}},{"type":"Feature","id":"4141010600105300001","geometry":{"type":"Point","coordinates":[126.8788104,37.326361]},"properties":{"pnu":"4141010600105300001","municipality_code":"41410","municipality":"군포시","district":"군포시","locality":"둔대동","address":"군포시 둔대동 530-1","owner_type":"국유지","owner_label":"국(국토교통부)","manager":"","property_class":"","land_category":"도로","area_sqm":10820.0,"area_band":"5,000㎡ 이상","interest_category":"도로","solar_candidate":"검토필요","candidate_reason":"도로점용 및 실제 이용형태 추가 검토 필요; 면적 10,820㎡","priority_score":40,"source":"경기부동산포털 국공유지조회·연속지적도","source_date":"2026-08-11","installed_solar_match":false}},{"type":"Feature","id":"4141010800105010025","geometry":{"type":"Point","coordinates":[126.9159386,37.3203124]},"properties":{"pnu":"4141010800105010025","municipality_code":"41410","municipality":"군포시","district":"군포시","locality":"대야미동","address":"군포시 대야미동 501-25","owner_type":"국유지","owner_label":"국(국토교통부)","manager":"","property_class":"","land_category":"도로","area_sqm":10767.0,"area_band":"5,000㎡ 이상","interest_category":"도로","solar_candidate":"검토필요","candidate_reason":"도로점용 및 실제 이용형태 추가 검토 필요; 면적 10,767㎡","priority_score":40,"source":"경기부동산포털 국공유지조회·연속지적도","source_date":"2026-08-11","installed_solar_match":false}},{"type":"Feature","id":"4141010200100010002","geometry":{"type":"Point","coordinates":[126.9592999,37.3639341]},"properties":{"pnu":"4141010200100010002","municipality_code":"41410","municipality":"군포시","district":"군포시","locality":"당정동","address":"군포시 당정동 1-2","owner_type":"국유지","owner_label":"국(국토교통부)","manager":"","property_class":"","land_category":"도로","area_sqm":10664.0,"area_band":"5,000㎡ 이상","interest_category":"도로","solar_candidate":"검토필요","candidate_reason":"도로점용 및 실제 이용형태 추가 검토 필요; 면적 10,664㎡","priority_score":40,"source":"경기부동산포털 국공유지조회·연속지적도","source_date":"2026-08-11","installed_solar_match":false}},{"type":"Feature","id":"4141010600200820005","geometry":{"type":"Point","coordinates":[126.8868781,37.3283142]},"properties":{"pnu":"4141010600200820005","municipality_code":"41410","municipality":"군포시","district":"군포시","locality":"둔대동","address":"군포시 둔대동 산82-5","owner_type":"국유지","owner_label":"국(국토교통부)","manager":"","property_class":"","land_category":"도로","area_sqm":10654.0,"area_band":"5,000㎡ 이상","interest_category":"도로","solar_candidate":"검토필요","candidate_reason":"도로점용 및 실제 이용형태 추가 검토 필요; 면적 10,654㎡","priority_score":40,"source":"경기부동산포털 국공유지조회·연속지적도","source_date":"2026-08-11","installed_solar_match":false}},{"type":"Feature","id":"4141010800200280001","geometry":{"type":"Point","coordinates":[126.9233104,37.3250572]},"properties":{"pnu":"4141010800200280001","municipality_code":"41410","municipality":"군포시","district":"군포시","locality":"대야미동","address":"군포시 대야미동 산28-1","owner_type":"국유지","owner_label":"국(건설부)","manager":"","property_class":"","land_category":"도로","area_sqm":8630.0,"area_band":"5,000㎡ 이상","interest_category":"도로","solar_candidate":"검토필요","candidate_reason":"도로점용 및 실제 이용형태 추가 검토 필요; 면적 8,630㎡","priority_score":40,"source":"경기부동산포털 국공유지조회·연속지적도","source_date":"2026-08-11","installed_solar_match":false}},{"type":"Feature","id":"4141010800200360002","geometry":{"type":"Point","coordinates":[126.9227894,37.3235221]},"properties":{"pnu":"4141010800200360002","municipality_code":"41410","municipality":"군포시","district":"군포시","locality":"대야미동","address":"군포시 대야미동 산36-2","owner_type":"국유지","owner_label":"국(건설부)","manager":"","property_class":"","land_category":"도로","area_sqm":8461.0,"area_band":"5,000㎡ 이상","interest_category":"도로","solar_candidate":"검토필요","candidate_reason":"도로점용 및 실제 이용형태 추가 검토 필요; 면적 8,461㎡","priority_score":40,"source":"경기부동산포털 국공유지조회·연속지적도","source_date":"2026-08-11","installed_solar_match":false}},{"type":"Feature","id":"4141010300109910000","geometry":{"type":"Point","coordinates":[126.9468222,37.3281658]},"properties":{"pnu":"4141010300109910000","municipality_code":"41410","municipality":"군포시","district":"군포시","locality":"부곡동","address":"군포시 부곡동 991","owner_type":"국유지","owner_label":"국(국토교통부)","manager":"","property_class":"","land_category":"도로","area_sqm":8300.0,"area_band":"5,000㎡ 이상","interest_category":"도로","solar_candidate":"검토필요","candidate_reason":"도로점용 및 실제 이용형태 추가 검토 필요; 면적 8,300㎡","priority_score":40,"source":"경기부동산포털 국공유지조회·연속지적도","source_date":"2026-08-11","installed_solar_match":false}},{"type":"Feature","id":"4141010800200350002","geometry":{"type":"Point","coordinates":[126.923273,37.324228]},"properties":{"pnu":"4141010800200350002","municipality_code":"41410","municipality":"군포시","district":"군포시","locality":"대야미동","address":"군포시 대야미동 산35-2","owner_type":"국유지","owner_label":"국(건설부)","manager":"","property_class":"","land_category":"도로","area_sqm":7387.0,"area_band":"5,000㎡ 이상","interest_category":"도로","solar_candidate":"검토필요","candidate_reason":"도로점용 및 실제 이용형태 추가 검토 필요; 면적 7,387㎡","priority_score":40,"source":"경기부동산포털 국공유지조회·연속지적도","source_date":"2026-08-11","installed_solar_match":false}},{"type":"Feature","id":"4141010800200270001","geometry":{"type":"Point","coordinates":[126.9232525,37.3256699]},"properties":{"pnu":"4141010800200270001","municipality_code":"41410","municipality":"군포시","district":"군포시","locality":"대야미동","address":"군포시 대야미동 산27-1","owner_type":"국유지","owner_label":"국(건설부)","manager":"","property_class":"","land_category":"도로","area_sqm":7287.0,"area_band":"5,000㎡ 이상","interest_category":"도로","solar_candidate":"검토필요","candidate_reason":"도로점용 및 실제 이용형태 추가 검토 필요; 면적 7,287㎡","priority_score":40,"source":"경기부동산포털 국공유지조회·연속지적도","source_date":"2026-08-11","installed_solar_match":false}},{"type":"Feature","id":"4141010600200500016","geometry":{"type":"Point","coordinates":[126.8959334,37.3229469]},"properties":{"pnu":"4141010600200500016","municipality_code":"41410","municipality":"군포시","district":"군포시","locality":"둔대동","address":"군포시 둔대동 산50-16","owner_type":"국유지","owner_label":"국(국토교통부)","manager":"","property_class":"","land_category":"도로","area_sqm":6322.0,"area_band":"5,000㎡ 이상","interest_category":"도로","solar_candidate":"검토필요","candidate_reason":"도로점용 및 실제 이용형태 추가 검토 필요; 면적 6,322㎡","priority_score":40,"source":"경기부동산포털 국공유지조회·연속지적도","source_date":"2026-08-11","installed_solar_match":false}},{"type":"Feature","id":"4141010300107920001","geometry":{"type":"Point","coordinates":[126.9259003,37.3272008]},"properties":{"pnu":"4141010300107920001","municipality_code":"41410","municipality":"군포시","district":"군포시","locality":"부곡동","address":"군포시 부곡동 792-1","owner_type":"국유지","owner_label":"국(국토교통부)","manager":"","property_class":"","land_category":"도로","area_sqm":6316.0,"area_band":"5,000㎡ 이상","interest_category":"도로","solar_candidate":"검토필요","candidate_reason":"도로점용 및 실제 이용형태 추가 검토 필요; 면적 6,316㎡","priority_score":40,"source":"경기부동산포털 국공유지조회·연속지적도","source_date":"2026-08-11","installed_solar_match":false}},{"type":"Feature","id":"4141010600105550012","geometry":{"type":"Point","coordinates":[126.8905729,37.3256382]},"properties":{"pnu":"4141010600105550012","municipality_code":"41410","municipality":"군포시","district":"군포시","locality":"둔대동","address":"군포시 둔대동 555-12","owner_type":"국유지","owner_label":"국(국토교통부)","manager":"","property_class":"","land_category":"도로","area_sqm":5869.2,"area_band":"5,000㎡ 이상","interest_category":"도로","solar_candidate":"검토필요","candidate_reason":"도로점용 및 실제 이용형태 추가 검토 필요; 면적 5,869㎡","priority_score":40,"source":"경기부동산포털 국공유지조회·연속지적도","source_date":"2026-08-11","installed_solar_match":false}},{"type":"Feature","id":"4141010600200440001","geometry":{"type":"Point","coordinates":[126.9013577,37.3220815]},"properties":{"pnu":"4141010600200440001","municipality_code":"41410","municipality":"군포시","district":"군포시","locality":"둔대동","address":"군포시 둔대동 산44-1","owner_type":"국유지","owner_label":"국(국토교통부)","manager":"","property_class":"","land_category":"도로","area_sqm":5706.0,"area_band":"5,000㎡ 이상","interest_category":"도로","solar_candidate":"검토필요","candidate_reason":"도로점용 및 실제 이용형태 추가 검토 필요; 면적 5,706㎡","priority_score":40,"source":"경기부동산포털 국공유지조회·연속지적도","source_date":"2026-08-11","installed_solar_match":false}},{"type":"Feature","id":"4141010600200510005","geometry":{"type":"Point","coordinates":[126.8949134,37.323217]},"properties":{"pnu":"4141010600200510005","municipality_code":"41410","municipality":"군포시","district":"군포시","locality":"둔대동","address":"군포시 둔대동 산51-5","owner_type":"국유지","owner_label":"국(국토교통부)","manager":"","property_class":"","land_category":"도로","area_sqm":5672.0,"area_band":"5,000㎡ 이상","interest_category":"도로","solar_candidate":"검토필요","candidate_reason":"도로점용 및 실제 이용형태 추가 검토 필요; 면적 5,672㎡","priority_score":40,"source":"경기부동산포털 국공유지조회·연속지적도","source_date":"2026-08-11","installed_solar_match":false}},{"type":"Feature","id":"4141010600102890001","geometry":{"type":"Point","coordinates":[126.9030461,37.3223356]},"properties":{"pnu":"4141010600102890001","municipality_code":"41410","municipality":"군포시","district":"군포시","locality":"둔대동","address":"군포시 둔대동 289-1","owner_type":"국유지","owner_label":"국(국토교통부)","manager":"","property_class":"","land_category":"도로","area_sqm":5428.0,"area_band":"5,000㎡ 이상","interest_category":"도로","solar_candidate":"검토필요","candidate_reason":"도로점용 및 실제 이용형태 추가 검토 필요; 면적 5,428㎡","priority_score":40,"source":"경기부동산포털 국공유지조회·연속지적도","source_date":"2026-08-11","installed_solar_match":false}},{"type":"Feature","id":"4141010800106460000","geometry":{"type":"Point","coordinates":[126.9173414,37.3289414]},"properties":{"pnu":"4141010800106460000","municipality_code":"41410","municipality":"군포시","district":"군포시","locality":"대야미동","address":"군포시 대야미동 646","owner_type":"국유지","owner_label":"국(국토교통부)","manager":"","property_class":"","land_category":"공원","area_sqm":3132.2,"area_band":"3,000~5,000㎡","interest_category":"공원","solar_candidate":"검토필요","candidate_reason":"도시공원 관련 법령 및 공원시설 기준 검토 필요; 면적 3,132㎡","priority_score":40,"source":"경기부동산포털 국공유지조회·연속지적도","source_date":"2026-08-11","installed_solar_match":false}},{"type":"Feature","id":"4141010400111050004","geometry":{"type":"Point","coordinates":[126.9266071,37.3678271]},"properties":{"pnu":"4141010400111050004","municipality_code":"41410","municipality":"군포시","district":"군포시","locality":"산본동","address":"군포시 산본동 1105-4","owner_type":"국유지","owner_label":"국(경찰청)","manager":"","property_class":"","land_category":"대","area_sqm":473.2,"area_band":"100~500㎡","interest_category":"대","solar_candidate":"검토필요","candidate_reason":"청사·공공건축물·주차장 현황 추가 확인 필요; 면적 473㎡","priority_score":40,"source":"경기부동산포털 국공유지조회·연속지적도","source_date":"2026-08-11","installed_solar_match":false}},{"type":"Feature","id":"4141010500109040000","geometry":{"type":"Point","coordinates":[126.9440363,37.365627]},"properties":{"pnu":"4141010500109040000","municipality_code":"41410","municipality":"군포시","district":"군포시","locality":"금정동","address":"군포시 금정동 904","owner_type":"국유지","owner_label":"국(경찰청)","manager":"","property_class":"","land_category":"대","area_sqm":433.3,"area_band":"100~500㎡","interest_category":"대","solar_candidate":"검토필요","candidate_reason":"청사·공공건축물·주차장 현황 추가 확인 필요; 면적 433㎡","priority_score":40,"source":"경기부동산포털 국공유지조회·연속지적도","source_date":"2026-08-11","installed_solar_match":false}},{"type":"Feature","id":"4141010200102290036","geometry":{"type":"Point","coordinates":[126.9559382,37.3644855]},"properties":{"pnu":"4141010200102290036","municipality_code":"41410","municipality":"군포시","district":"군포시","locality":"당정동","address":"군포시 당정동 229-36","owner_type":"국유지","owner_label":"국(건설부)","manager":"","property_class":"","land_category":"대","area_sqm":410.0,"area_band":"100~500㎡","interest_category":"대","solar_candidate":"검토필요","candidate_reason":"청사·공공건축물·주차장 현황 추가 확인 필요; 면적 410㎡","priority_score":40,"source":"경기부동산포털 국공유지조회·연속지적도","source_date":"2026-08-11","installed_solar_match":false}},{"type":"Feature","id":"4141010100107850004","geometry":{"type":"Point","coordinates":[126.9442322,37.3506178]},"properties":{"pnu":"4141010100107850004","municipality_code":"41410","municipality":"군포시","district":"군포시","locality":"당동","address":"군포시 당동 785-4","owner_type":"국유지","owner_label":"국(과학기술정보통신부)","manager":"","property_class":"","land_category":"대","area_sqm":400.7,"area_band":"100~500㎡","interest_category":"대","solar_candidate":"검토필요","candidate_reason":"청사·공공건축물·주차장 현황 추가 확인 필요; 면적 401㎡","priority_score":40,"source":"경기부동산포털 국공유지조회·연속지적도","source_date":"2026-08-11","installed_solar_match":false}},{"type":"Feature","id":"4141010200100060002","geometry":{"type":"Point","coordinates":[126.955112,37.365688]},"properties":{"pnu":"4141010200100060002","municipality_code":"41410","municipality":"군포시","district":"군포시","locality":"당정동","address":"군포시 당정동 6-2","owner_type":"국유지","owner_label":"국(기획재정부)","manager":"","property_class":"","land_category":"대","area_sqm":385.0,"area_band":"100~500㎡","interest_category":"대","solar_candidate":"검토필요","candidate_reason":"청사·공공건축물·주차장 현황 추가 확인 필요; 면적 385㎡","priority_score":40,"source":"경기부동산포털 국공유지조회·연속지적도","source_date":"2026-08-11","installed_solar_match":false}},{"type":"Feature","id":"4141010100107750018","geometry":{"type":"Point","coordinates":[126.9445704,37.3521584]},"properties":{"pnu":"4141010100107750018","municipality_code":"41410","municipality":"군포시","district":"군포시","locality":"당동","address":"군포시 당동 775-18","owner_type":"국유지","owner_label":"국(경찰청)","manager":"","property_class":"","land_category":"대","area_sqm":382.8,"area_band":"100~500㎡","interest_category":"대","solar_candidate":"검토필요","candidate_reason":"청사·공공건축물·주차장 현황 추가 확인 필요; 면적 383㎡","priority_score":40,"source":"경기부동산포털 국공유지조회·연속지적도","source_date":"2026-08-11","installed_solar_match":false}},{"type":"Feature","id":"4141010800106540001","geometry":{"type":"Point","coordinates":[126.9174707,37.3278421]},"properties":{"pnu":"4141010800106540001","municipality_code":"41410","municipality":"군포시","district":"군포시","locality":"대야미동","address":"군포시 대야미동 654-1","owner_type":"국유지","owner_label":"국(군포경찰서)","manager":"","property_class":"","land_category":"대","area_sqm":341.0,"area_band":"100~500㎡","interest_category":"대","solar_candidate":"검토필요","candidate_reason":"청사·공공건축물·주차장 현황 추가 확인 필요; 면적 341㎡","priority_score":40,"source":"경기부동산포털 국공유지조회·연속지적도","source_date":"2026-08-11","installed_solar_match":false}},{"type":"Feature","id":"4141010200100060029","geometry":{"type":"Point","coordinates":[126.9551591,37.3657992]},"properties":{"pnu":"4141010200100060029","municipality_code":"41410","municipality":"군포시","district":"군포시","locality":"당정동","address":"군포시 당정동 6-29","owner_type":"국유지","owner_label":"국(국토교통부)","manager":"","property_class":"","land_category":"대","area_sqm":283.0,"area_band":"100~500㎡","interest_category":"대","solar_candidate":"검토필요","candidate_reason":"청사·공공건축물·주차장 현황 추가 확인 필요; 면적 283㎡","priority_score":40,"source":"경기부동산포털 국공유지조회·연속지적도","source_date":"2026-08-11","installed_solar_match":false}},{"type":"Feature","id":"4141010800106580009","geometry":{"type":"Point","coordinates":[126.919495,37.3269913]},"properties":{"pnu":"4141010800106580009","municipality_code":"41410","municipality":"군포시","district":"군포시","locality":"대야미동","address":"군포시 대야미동 658-9","owner_type":"국유지","owner_label":"국(기획재정부)","manager":"","property_class":"","land_category":"대","area_sqm":234.5,"area_band":"100~500㎡","interest_category":"대","solar_candidate":"검토필요","candidate_reason":"청사·공공건축물·주차장 현황 추가 확인 필요; 면적 234㎡","priority_score":40,"source":"경기부동산포털 국공유지조회·연속지적도","source_date":"2026-08-11","installed_solar_match":false}},{"type":"Feature","id":"4141010300103330024","geometry":{"type":"Point","coordinates":[126.9454777,37.3312051]},"properties":{"pnu":"4141010300103330024","municipality_code":"41410","municipality":"군포시","district":"군포시","locality":"부곡동","address":"군포시 부곡동 333-24","owner_type":"국유지","owner_label":"국(국토교통부)","manager":"","property_class":"","land_category":"대","area_sqm":208.0,"area_band":"100~500㎡","interest_category":"대","solar_candidate":"검토필요","candidate_reason":"청사·공공건축물·주차장 현황 추가 확인 필요; 면적 208㎡","priority_score":40,"source":"경기부동산포털 국공유지조회·연속지적도","source_date":"2026-08-11","installed_solar_match":false}},{"type":"Feature","id":"4141010300103330023","geometry":{"type":"Point","coordinates":[126.9455876,37.3312044]},"properties":{"pnu":"4141010300103330023","municipality_code":"41410","municipality":"군포시","district":"군포시","locality":"부곡동","address":"군포시 부곡동 333-23","owner_type":"국유지","owner_label":"국(국토교통부)","manager":"","property_class":"","land_category":"대","area_sqm":207.0,"area_band":"100~500㎡","interest_category":"대","solar_candidate":"검토필요","candidate_reason":"청사·공공건축물·주차장 현황 추가 확인 필요; 면적 207㎡","priority_score":40,"source":"경기부동산포털 국공유지조회·연속지적도","source_date":"2026-08-11","installed_solar_match":false}},{"type":"Feature","id":"4141010200100180003","geometry":{"type":"Point","coordinates":[126.9565347,37.3632542]},"properties":{"pnu":"4141010200100180003","municipality_code":"41410","municipality":"군포시","district":"군포시","locality":"당정동","address":"군포시 당정동 18-3","owner_type":"국유지","owner_label":"국(국토교통부)","manager":"","property_class":"","land_category":"대","area_sqm":200.0,"area_band":"100~500㎡","interest_category":"대","solar_candidate":"검토필요","candidate_reason":"청사·공공건축물·주차장 현황 추가 확인 필요; 면적 200㎡","priority_score":40,"source":"경기부동산포털 국공유지조회·연속지적도","source_date":"2026-08-11","installed_solar_match":false}},{"type":"Feature","id":"4141010200100230007","geometry":{"type":"Point","coordinates":[126.9565677,37.362911]},"properties":{"pnu":"4141010200100230007","municipality_code":"41410","municipality":"군포시","district":"군포시","locality":"당정동","address":"군포시 당정동 23-7","owner_type":"국유지","owner_label":"국(국토교통부)","manager":"","property_class":"","land_category":"대","area_sqm":195.0,"area_band":"100~500㎡","interest_category":"대","solar_candidate":"검토필요","candidate_reason":"청사·공공건축물·주차장 현황 추가 확인 필요; 면적 195㎡","priority_score":40,"source":"경기부동산포털 국공유지조회·연속지적도","source_date":"2026-08-11","installed_solar_match":false}},{"type":"Feature","id":"4141010900101440002","geometry":{"type":"Point","coordinates":[126.92,37.3154876]},"properties":{"pnu":"4141010900101440002","municipality_code":"41410","municipality":"군포시","district":"군포시","locality":"도마교동","address":"군포시 도마교동 144-2","owner_type":"국유지","owner_label":"국(재무부)","manager":"","property_class":"","land_category":"대","area_sqm":172.0,"area_band":"100~500㎡","interest_category":"대","solar_candidate":"검토필요","candidate_reason":"청사·공공건축물·주차장 현황 추가 확인 필요; 면적 172㎡","priority_score":40,"source":"경기부동산포털 국공유지조회·연속지적도","source_date":"2026-08-11","installed_solar_match":false}},{"type":"Feature","id":"4141010200102330009","geometry":{"type":"Point","coordinates":[126.9538566,37.3659094]},"properties":{"pnu":"4141010200102330009","municipality_code":"41410","municipality":"군포시","district":"군포시","locality":"당정동","address":"군포시 당정동 233-9","owner_type":"국유지","owner_label":"국(국토교통부)","manager":"","property_class":"","land_category":"대","area_sqm":162.0,"area_band":"100~500㎡","interest_category":"대","solar_candidate":"검토필요","candidate_reason":"청사·공공건축물·주차장 현황 추가 확인 필요; 면적 162㎡","priority_score":40,"source":"경기부동산포털 국공유지조회·연속지적도","source_date":"2026-08-11","installed_solar_match":false}},{"type":"Feature","id":"4141010200100060037","geometry":{"type":"Point","coordinates":[126.9549252,37.3658429]},"properties":{"pnu":"4141010200100060037","municipality_code":"41410","municipality":"군포시","district":"군포시","locality":"당정동","address":"군포시 당정동 6-37","owner_type":"국유지","owner_label":"국(국토교통부)","manager":"","property_class":"","land_category":"대","area_sqm":148.0,"area_band":"100~500㎡","interest_category":"대","solar_candidate":"검토필요","candidate_reason":"청사·공공건축물·주차장 현황 추가 확인 필요; 면적 148㎡","priority_score":40,"source":"경기부동산포털 국공유지조회·연속지적도","source_date":"2026-08-11","installed_solar_match":false}},{"type":"Feature","id":"4141010200100020009","geometry":{"type":"Point","coordinates":[126.9561953,37.3654861]},"properties":{"pnu":"4141010200100020009","municipality_code":"41410","municipality":"군포시","district":"군포시","locality":"당정동","address":"군포시 당정동 2-9","owner_type":"국유지","owner_label":"국(국토교통부)","manager":"","property_class":"","land_category":"대","area_sqm":140.0,"area_band":"100~500㎡","interest_category":"대","solar_candidate":"검토필요","candidate_reason":"청사·공공건축물·주차장 현황 추가 확인 필요; 면적 140㎡","priority_score":40,"source":"경기부동산포털 국공유지조회·연속지적도","source_date":"2026-08-11","installed_solar_match":false}},{"type":"Feature","id":"4141010700104460003","geometry":{"type":"Point","coordinates":[126.8970922,37.3435134]},"properties":{"pnu":"4141010700104460003","municipality_code":"41410","municipality":"군포시","district":"군포시","locality":"속달동","address":"군포시 속달동 446-3","owner_type":"국유지","owner_label":"국(국토교통부)","manager":"","property_class":"","land_category":"대","area_sqm":139.0,"area_band":"100~500㎡","interest_category":"대","solar_candidate":"검토필요","candidate_reason":"청사·공공건축물·주차장 현황 추가 확인 필요; 면적 139㎡","priority_score":40,"source":"경기부동산포털 국공유지조회·연속지적도","source_date":"2026-08-11","installed_solar_match":false}},{"type":"Feature","id":"4141010200109080208","geometry":{"type":"Point","coordinates":[126.9590841,37.3557628]},"properties":{"pnu":"4141010200109080208","municipality_code":"41410","municipality":"군포시","district":"군포시","locality":"당정동","address":"군포시 당정동 908-208","owner_type":"국유지","owner_label":"국(국토교통부)","manager":"","property_class":"","land_category":"대","area_sqm":135.3,"area_band":"100~500㎡","interest_category":"대","solar_candidate":"검토필요","candidate_reason":"청사·공공건축물·주차장 현황 추가 확인 필요; 면적 135㎡","priority_score":40,"source":"경기부동산포털 국공유지조회·연속지적도","source_date":"2026-08-11","installed_solar_match":false}},{"type":"Feature","id":"4141010500106030007","geometry":{"type":"Point","coordinates":[126.9521464,37.3640401]},"properties":{"pnu":"4141010500106030007","municipality_code":"41410","municipality":"군포시","district":"군포시","locality":"금정동","address":"군포시 금정동 603-7","owner_type":"국유지","owner_label":"국(기획재정부)","manager":"","property_class":"","land_category":"대","area_sqm":126.0,"area_band":"100~500㎡","interest_category":"대","solar_candidate":"검토필요","candidate_reason":"청사·공공건축물·주차장 현황 추가 확인 필요; 면적 126㎡","priority_score":40,"source":"경기부동산포털 국공유지조회·연속지적도","source_date":"2026-08-11","installed_solar_match":false}},{"type":"Feature","id":"4141010200102290032","geometry":{"type":"Point","coordinates":[126.9558851,37.3646415]},"properties":{"pnu":"4141010200102290032","municipality_code":"41410","municipality":"군포시","district":"군포시","locality":"당정동","address":"군포시 당정동 229-32","owner_type":"국유지","owner_label":"국(국토교통부)","manager":"","property_class":"","land_category":"대","area_sqm":109.0,"area_band":"100~500㎡","interest_category":"대","solar_candidate":"검토필요","candidate_reason":"청사·공공건축물·주차장 현황 추가 확인 필요; 면적 109㎡","priority_score":40,"source":"경기부동산포털 국공유지조회·연속지적도","source_date":"2026-08-11","installed_solar_match":false}},{"type":"Feature","id":"4141010200100060038","geometry":{"type":"Point","coordinates":[126.9547715,37.365857]},"properties":{"pnu":"4141010200100060038","municipality_code":"41410","municipality":"군포시","district":"군포시","locality":"당정동","address":"군포시 당정동 6-38","owner_type":"국유지","owner_label":"국(국토교통부)","manager":"","property_class":"","land_category":"대","area_sqm":108.0,"area_band":"100~500㎡","interest_category":"대","solar_candidate":"검토필요","candidate_reason":"청사·공공건축물·주차장 현황 추가 확인 필요; 면적 108㎡","priority_score":40,"source":"경기부동산포털 국공유지조회·연속지적도","source_date":"2026-08-11","installed_solar_match":false}},{"type":"Feature","id":"4141010300103330004","geometry":{"type":"Point","coordinates":[126.9455467,37.331091]},"properties":{"pnu":"4141010300103330004","municipality_code":"41410","municipality":"군포시","district":"군포시","locality":"부곡동","address":"군포시 부곡동 333-4","owner_type":"국유지","owner_label":"국(국토교통부)","manager":"","property_class":"","land_category":"대","area_sqm":108.0,"area_band":"100~500㎡","interest_category":"대","solar_candidate":"검토필요","candidate_reason":"청사·공공건축물·주차장 현황 추가 확인 필요; 면적 108㎡","priority_score":40,"source":"경기부동산포털 국공유지조회·연속지적도","source_date":"2026-08-11","installed_solar_match":false}},{"type":"Feature","id":"4141010200103940001","geometry":{"type":"Point","coordinates":[126.9595788,37.3503752]},"properties":{"pnu":"4141010200103940001","municipality_code":"41410","municipality":"군포시","district":"군포시","locality":"당정동","address":"군포시 당정동 394-1","owner_type":"국유지","owner_label":"국(법무부)","manager":"","property_class":"","land_category":"대","area_sqm":107.0,"area_band":"100~500㎡","interest_category":"대","solar_candidate":"검토필요","candidate_reason":"청사·공공건축물·주차장 현황 추가 확인 필요; 면적 107㎡","priority_score":40,"source":"경기부동산포털 국공유지조회·연속지적도","source_date":"2026-08-11","installed_solar_match":false}},{"type":"Feature","id":"4141010200102290035","geometry":{"type":"Point","coordinates":[126.9559282,37.3646978]},"properties":{"pnu":"4141010200102290035","municipality_code":"41410","municipality":"군포시","district":"군포시","locality":"당정동","address":"군포시 당정동 229-35","owner_type":"국유지","owner_label":"국(국토교통부)","manager":"","property_class":"","land_category":"대","area_sqm":104.0,"area_band":"100~500㎡","interest_category":"대","solar_candidate":"검토필요","candidate_reason":"청사·공공건축물·주차장 현황 추가 확인 필요; 면적 104㎡","priority_score":40,"source":"경기부동산포털 국공유지조회·연속지적도","source_date":"2026-08-11","installed_solar_match":false}},{"type":"Feature","id":"4141010200109080038","geometry":{"type":"Point","coordinates":[126.9519696,37.3625788]},"properties":{"pnu":"4141010200109080038","municipality_code":"41410","municipality":"군포시","district":"군포시","locality":"당정동","address":"군포시 당정동 908-38","owner_type":"국유지","owner_label":"국(기획재정부)","manager":"","property_class":"","land_category":"공장용지","area_sqm":456.0,"area_band":"100~500㎡","interest_category":"공장용지","solar_candidate":"검토필요","candidate_reason":"지목·면적 기준 1차 검토 대상; 면적 456㎡","priority_score":37,"source":"경기부동산포털 국공유지조회·연속지적도","source_date":"2026-08-11","installed_solar_match":false}},{"type":"Feature","id":"4141010200109080149","geometry":{"type":"Point","coordinates":[126.9517908,37.361563]},"properties":{"pnu":"4141010200109080149","municipality_code":"41410","municipality":"군포시","district":"군포시","locality":"당정동","address":"군포시 당정동 908-149","owner_type":"국유지","owner_label":"국(기획재정부)","manager":"","property_class":"","land_category":"공장용지","area_sqm":329.0,"area_band":"100~500㎡","interest_category":"공장용지","solar_candidate":"검토필요","candidate_reason":"지목·면적 기준 1차 검토 대상; 면적 329㎡","priority_score":37,"source":"경기부동산포털 국공유지조회·연속지적도","source_date":"2026-08-11","installed_solar_match":false}},{"type":"Feature","id":"4141010200109080002","geometry":{"type":"Point","coordinates":[126.9522059,37.3631308]},"properties":{"pnu":"4141010200109080002","municipality_code":"41410","municipality":"군포시","district":"군포시","locality":"당정동","address":"군포시 당정동 908-2","owner_type":"국유지","owner_label":"국(재정경제부)","manager":"","property_class":"","land_category":"공장용지","area_sqm":266.0,"area_band":"100~500㎡","interest_category":"공장용지","solar_candidate":"검토필요","candidate_reason":"지목·면적 기준 1차 검토 대상; 면적 266㎡","priority_score":37,"source":"경기부동산포털 국공유지조회·연속지적도","source_date":"2026-08-11","installed_solar_match":false}},{"type":"Feature","id":"4141010200109230001","geometry":{"type":"Point","coordinates":[126.9577706,37.3640075]},"properties":{"pnu":"4141010200109230001","municipality_code":"41410","municipality":"군포시","district":"군포시","locality":"당정동","address":"군포시 당정동 923-1","owner_type":"국유지","owner_label":"국(재정경제부)","manager":"","property_class":"","land_category":"공장용지","area_sqm":198.0,"area_band":"100~500㎡","interest_category":"공장용지","solar_candidate":"검토필요","candidate_reason":"지목·면적 기준 1차 검토 대상; 면적 198㎡","priority_score":37,"source":"경기부동산포털 국공유지조회·연속지적도","source_date":"2026-08-11","installed_solar_match":false}},{"type":"Feature","id":"4141010200100150001","geometry":{"type":"Point","coordinates":[126.9592517,37.3632043]},"properties":{"pnu":"4141010200100150001","municipality_code":"41410","municipality":"군포시","district":"군포시","locality":"당정동","address":"군포시 당정동 15-1","owner_type":"국유지","owner_label":"국(기획재정부)","manager":"","property_class":"","land_category":"공장용지","area_sqm":197.0,"area_band":"100~500㎡","interest_category":"공장용지","solar_candidate":"검토필요","candidate_reason":"지목·면적 기준 1차 검토 대상; 면적 197㎡","priority_score":37,"source":"경기부동산포털 국공유지조회·연속지적도","source_date":"2026-08-11","installed_solar_match":false}},{"type":"Feature","id":"4141010200109230003","geometry":{"type":"Point","coordinates":[126.9568683,37.3638844]},"properties":{"pnu":"4141010200109230003","municipality_code":"41410","municipality":"군포시","district":"군포시","locality":"당정동","address":"군포시 당정동 923-3","owner_type":"국유지","owner_label":"국(재정경제부)","manager":"","property_class":"","land_category":"공장용지","area_sqm":155.0,"area_band":"100~500㎡","interest_category":"공장용지","solar_candidate":"검토필요","candidate_reason":"지목·면적 기준 1차 검토 대상; 면적 155㎡","priority_score":37,"source":"경기부동산포털 국공유지조회·연속지적도","source_date":"2026-08-11","installed_solar_match":false}},{"type":"Feature","id":"4141010200109080253","geometry":{"type":"Point","coordinates":[126.9517022,37.3551214]},"properties":{"pnu":"4141010200109080253","municipality_code":"41410","municipality":"군포시","district":"군포시","locality":"당정동","address":"군포시 당정동 908-253","owner_type":"국유지","owner_label":"국(기획재정부)","manager":"","property_class":"","land_category":"공장용지","area_sqm":123.0,"area_band":"100~500㎡","interest_category":"공장용지","solar_candidate":"검토필요","candidate_reason":"지목·면적 기준 1차 검토 대상; 면적 123㎡","priority_score":37,"source":"경기부동산포털 국공유지조회·연속지적도","source_date":"2026-08-11","installed_solar_match":false}},{"type":"Feature","id":"4141010800200380000","geometry":{"type":"Point","coordinates":[126.920775,37.3220963]},"properties":{"pnu":"4141010800200380000","municipality_code":"41410","municipality":"군포시","district":"군포시","locality":"대야미동","address":"군포시 대야미동 산38","owner_type":"국유지","owner_label":"국(건설교통부)","manager":"","property_class":"","land_category":"도로","area_sqm":4992.0,"area_band":"3,000~5,000㎡","interest_category":"도로","solar_candidate":"검토필요","candidate_reason":"도로점용 및 실제 이용형태 추가 검토 필요; 면적 4,992㎡","priority_score":35,"source":"경기부동산포털 국공유지조회·연속지적도","source_date":"2026-08-11","installed_solar_match":false}},{"type":"Feature","id":"4141010800103040008","geometry":{"type":"Point","coordinates":[126.9178923,37.3237769]},"properties":{"pnu":"4141010800103040008","municipality_code":"41410","municipality":"군포시","district":"군포시","locality":"대야미동","address":"군포시 대야미동 304-8","owner_type":"국유지","owner_label":"국(국토교통부)","manager":"","property_class":"","land_category":"도로","area_sqm":4725.0,"area_band":"3,000~5,000㎡","interest_category":"도로","solar_candidate":"검토필요","candidate_reason":"도로점용 및 실제 이용형태 추가 검토 필요; 면적 4,725㎡","priority_score":35,"source":"경기부동산포털 국공유지조회·연속지적도","source_date":"2026-08-11","installed_solar_match":false}},{"type":"Feature","id":"4141010300112310004","geometry":{"type":"Point","coordinates":[126.9420376,37.3289742]},"properties":{"pnu":"4141010300112310004","municipality_code":"41410","municipality":"군포시","district":"군포시","locality":"부곡동","address":"군포시 부곡동 1231-4","owner_type":"국유지","owner_label":"국(국토교통부)","manager":"","property_class":"","land_category":"도로","area_sqm":4468.2,"area_band":"3,000~5,000㎡","interest_category":"도로","solar_candidate":"검토필요","candidate_reason":"도로점용 및 실제 이용형태 추가 검토 필요; 면적 4,468㎡","priority_score":35,"source":"경기부동산포털 국공유지조회·연속지적도","source_date":"2026-08-11","installed_solar_match":false}},{"type":"Feature","id":"4141010800105190016","geometry":{"type":"Point","coordinates":[126.9142685,37.3235302]},"properties":{"pnu":"4141010800105190016","municipality_code":"41410","municipality":"군포시","district":"군포시","locality":"대야미동","address":"군포시 대야미동 519-16","owner_type":"국유지","owner_label":"국(국토교통부)","manager":"","property_class":"","land_category":"도로","area_sqm":4444.0,"area_band":"3,000~5,000㎡","interest_category":"도로","solar_candidate":"검토필요","candidate_reason":"도로점용 및 실제 이용형태 추가 검토 필요; 면적 4,444㎡","priority_score":35,"source":"경기부동산포털 국공유지조회·연속지적도","source_date":"2026-08-11","installed_solar_match":false}},{"type":"Feature","id":"4141010300200900003","geometry":{"type":"Point","coordinates":[126.9298114,37.3337298]},"properties":{"pnu":"4141010300200900003","municipality_code":"41410","municipality":"군포시","district":"군포시","locality":"부곡동","address":"군포시 부곡동 산90-3","owner_type":"국유지","owner_label":"국(국토교통부)","manager":"","property_class":"","land_category":"도로","area_sqm":4441.0,"area_band":"3,000~5,000㎡","interest_category":"도로","solar_candidate":"검토필요","candidate_reason":"도로점용 및 실제 이용형태 추가 검토 필요; 면적 4,441㎡","priority_score":35,"source":"경기부동산포털 국공유지조회·연속지적도","source_date":"2026-08-11","installed_solar_match":false}},{"type":"Feature","id":"4141010600200370009","geometry":{"type":"Point","coordinates":[126.9124595,37.3240409]},"properties":{"pnu":"4141010600200370009","municipality_code":"41410","municipality":"군포시","district":"군포시","locality":"둔대동","address":"군포시 둔대동 산37-9","owner_type":"국유지","owner_label":"국(국토교통부)","manager":"","property_class":"","land_category":"도로","area_sqm":4390.0,"area_band":"3,000~5,000㎡","interest_category":"도로","solar_candidate":"검토필요","candidate_reason":"도로점용 및 실제 이용형태 추가 검토 필요; 면적 4,390㎡","priority_score":35,"source":"경기부동산포털 국공유지조회·연속지적도","source_date":"2026-08-11","installed_solar_match":false}},{"type":"Feature","id":"4141010800103040006","geometry":{"type":"Point","coordinates":[126.9193247,37.3260916]},"properties":{"pnu":"4141010800103040006","municipality_code":"41410","municipality":"군포시","district":"군포시","locality":"대야미동","address":"군포시 대야미동 304-6","owner_type":"국유지","owner_label":"국(국토교통부)","manager":"","property_class":"","land_category":"도로","area_sqm":4206.0,"area_band":"3,000~5,000㎡","interest_category":"도로","solar_candidate":"검토필요","candidate_reason":"도로점용 및 실제 이용형태 추가 검토 필요; 면적 4,206㎡","priority_score":35,"source":"경기부동산포털 국공유지조회·연속지적도","source_date":"2026-08-11","installed_solar_match":false}},{"type":"Feature","id":"4141010300103950000","geometry":{"type":"Point","coordinates":[126.9402109,37.3287552]},"properties":{"pnu":"4141010300103950000","municipality_code":"41410","municipality":"군포시","district":"군포시","locality":"부곡동","address":"군포시 부곡동 395","owner_type":"국유지","owner_label":"국(건설교통부)","manager":"","property_class":"","land_category":"도로","area_sqm":4175.0,"area_band":"3,000~5,000㎡","interest_category":"도로","solar_candidate":"검토필요","candidate_reason":"도로점용 및 실제 이용형태 추가 검토 필요; 면적 4,175㎡","priority_score":35,"source":"경기부동산포털 국공유지조회·연속지적도","source_date":"2026-08-11","installed_solar_match":false}},{"type":"Feature","id":"4141010300112310002","geometry":{"type":"Point","coordinates":[126.9461613,37.3309042]},"properties":{"pnu":"4141010300112310002","municipality_code":"41410","municipality":"군포시","district":"군포시","locality":"부곡동","address":"군포시 부곡동 1231-2","owner_type":"국유지","owner_label":"국(국토교통부)","manager":"","property_class":"","land_category":"도로","area_sqm":4144.0,"area_band":"3,000~5,000㎡","interest_category":"도로","solar_candidate":"검토필요","candidate_reason":"도로점용 및 실제 이용형태 추가 검토 필요; 면적 4,144㎡","priority_score":35,"source":"경기부동산포털 국공유지조회·연속지적도","source_date":"2026-08-11","installed_solar_match":false}},{"type":"Feature","id":"4141010300107200000","geometry":{"type":"Point","coordinates":[126.9284101,37.3266231]},"properties":{"pnu":"4141010300107200000","municipality_code":"41410","municipality":"군포시","district":"군포시","locality":"부곡동","address":"군포시 부곡동 720","owner_type":"국유지","owner_label":"국(국토교통부)","manager":"","property_class":"","land_category":"도로","area_sqm":4112.0,"area_band":"3,000~5,000㎡","interest_category":"도로","solar_candidate":"검토필요","candidate_reason":"도로점용 및 실제 이용형태 추가 검토 필요; 면적 4,112㎡","priority_score":35,"source":"경기부동산포털 국공유지조회·연속지적도","source_date":"2026-08-11","installed_solar_match":false}},{"type":"Feature","id":"4141010800102620033","geometry":{"type":"Point","coordinates":[126.9174016,37.323231]},"properties":{"pnu":"4141010800102620033","municipality_code":"41410","municipality":"군포시","district":"군포시","locality":"대야미동","address":"군포시 대야미동 262-33","owner_type":"국유지","owner_label":"국(국토교통부)","manager":"","property_class":"","land_category":"도로","area_sqm":4101.0,"area_band":"3,000~5,000㎡","interest_category":"도로","solar_candidate":"검토필요","candidate_reason":"도로점용 및 실제 이용형태 추가 검토 필요; 면적 4,101㎡","priority_score":35,"source":"경기부동산포털 국공유지조회·연속지적도","source_date":"2026-08-11","installed_solar_match":false}},{"type":"Feature","id":"4141010800102620013","geometry":{"type":"Point","coordinates":[126.9200564,37.3273789]},"properties":{"pnu":"4141010800102620013","municipality_code":"41410","municipality":"군포시","district":"군포시","locality":"대야미동","address":"군포시 대야미동 262-13","owner_type":"국유지","owner_label":"국(국토교통부)","manager":"","property_class":"","land_category":"도로","area_sqm":4098.0,"area_band":"3,000~5,000㎡","interest_category":"도로","solar_candidate":"검토필요","candidate_reason":"도로점용 및 실제 이용형태 추가 검토 필요; 면적 4,098㎡","priority_score":35,"source":"경기부동산포털 국공유지조회·연속지적도","source_date":"2026-08-11","installed_solar_match":false}},{"type":"Feature","id":"4141010300112310005","geometry":{"type":"Point","coordinates":[126.937663,37.3292161]},"properties":{"pnu":"4141010300112310005","municipality_code":"41410","municipality":"군포시","district":"군포시","locality":"부곡동","address":"군포시 부곡동 1231-5","owner_type":"국유지","owner_label":"국(국토교통부)","manager":"","property_class":"","land_category":"도로","area_sqm":4063.6,"area_band":"3,000~5,000㎡","interest_category":"도로","solar_candidate":"검토필요","candidate_reason":"도로점용 및 실제 이용형태 추가 검토 필요; 면적 4,064㎡","priority_score":35,"source":"경기부동산포털 국공유지조회·연속지적도","source_date":"2026-08-11","installed_solar_match":false}},{"type":"Feature","id":"4141010800200710005","geometry":{"type":"Point","coordinates":[126.9087519,37.3228043]},"properties":{"pnu":"4141010800200710005","municipality_code":"41410","municipality":"군포시","district":"군포시","locality":"대야미동","address":"군포시 대야미동 산71-5","owner_type":"국유지","owner_label":"국(건설부)","manager":"","property_class":"","land_category":"도로","area_sqm":4005.0,"area_band":"3,000~5,000㎡","interest_category":"도로","solar_candidate":"검토필요","candidate_reason":"도로점용 및 실제 이용형태 추가 검토 필요; 면적 4,005㎡","priority_score":35,"source":"경기부동산포털 국공유지조회·연속지적도","source_date":"2026-08-11","installed_solar_match":false}},{"type":"Feature","id":"4141010300103750001","geometry":{"type":"Point","coordinates":[126.944256,37.3283828]},"properties":{"pnu":"4141010300103750001","municipality_code":"41410","municipality":"군포시","district":"군포시","locality":"부곡동","address":"군포시 부곡동 375-1","owner_type":"국유지","owner_label":"국(국토교통부)","manager":"","property_class":"","land_category":"도로","area_sqm":3913.0,"area_band":"3,000~5,000㎡","interest_category":"도로","solar_candidate":"검토필요","candidate_reason":"도로점용 및 실제 이용형태 추가 검토 필요; 면적 3,913㎡","priority_score":35,"source":"경기부동산포털 국공유지조회·연속지적도","source_date":"2026-08-11","installed_solar_match":false}},{"type":"Feature","id":"4141010300104120001","geometry":{"type":"Point","coordinates":[126.939208,37.3290418]},"properties":{"pnu":"4141010300104120001","municipality_code":"41410","municipality":"군포시","district":"군포시","locality":"부곡동","address":"군포시 부곡동 412-1","owner_type":"국유지","owner_label":"국(국토교통부)","manager":"","property_class":"","land_category":"도로","area_sqm":3755.0,"area_band":"3,000~5,000㎡","interest_category":"도로","solar_candidate":"검토필요","candidate_reason":"도로점용 및 실제 이용형태 추가 검토 필요; 면적 3,755㎡","priority_score":35,"source":"경기부동산포털 국공유지조회·연속지적도","source_date":"2026-08-11","installed_solar_match":false}},{"type":"Feature","id":"4141010600104060000","geometry":{"type":"Point","coordinates":[126.8845127,37.3303657]},"properties":{"pnu":"4141010600104060000","municipality_code":"41410","municipality":"군포시","district":"군포시","locality":"둔대동","address":"군포시 둔대동 406","owner_type":"국유지","owner_label":"국(국토교통부)","manager":"","property_class":"","land_category":"도로","area_sqm":3673.6,"area_band":"3,000~5,000㎡","interest_category":"도로","solar_candidate":"검토필요","candidate_reason":"도로점용 및 실제 이용형태 추가 검토 필요; 면적 3,674㎡","priority_score":35,"source":"경기부동산포털 국공유지조회·연속지적도","source_date":"2026-08-11","installed_solar_match":false}},{"type":"Feature","id":"4141010300104770001","geometry":{"type":"Point","coordinates":[126.935998,37.3289129]},"properties":{"pnu":"4141010300104770001","municipality_code":"41410","municipality":"군포시","district":"군포시","locality":"부곡동","address":"군포시 부곡동 477-1","owner_type":"국유지","owner_label":"국(국토교통부)","manager":"","property_class":"","land_category":"도로","area_sqm":3660.0,"area_band":"3,000~5,000㎡","interest_category":"도로","solar_candidate":"검토필요","candidate_reason":"도로점용 및 실제 이용형태 추가 검토 필요; 면적 3,660㎡","priority_score":35,"source":"경기부동산포털 국공유지조회·연속지적도","source_date":"2026-08-11","installed_solar_match":false}},{"type":"Feature","id":"4141010300105280003","geometry":{"type":"Point","coordinates":[126.9416379,37.327862]},"properties":{"pnu":"4141010300105280003","municipality_code":"41410","municipality":"군포시","district":"군포시","locality":"부곡동","address":"군포시 부곡동 528-3","owner_type":"국유지","owner_label":"국(국토교통부)","manager":"","property_class":"","land_category":"도로","area_sqm":3420.0,"area_band":"3,000~5,000㎡","interest_category":"도로","solar_candidate":"검토필요","candidate_reason":"도로점용 및 실제 이용형태 추가 검토 필요; 면적 3,420㎡","priority_score":35,"source":"경기부동산포털 국공유지조회·연속지적도","source_date":"2026-08-11","installed_solar_match":false}},{"type":"Feature","id":"4141010300104080003","geometry":{"type":"Point","coordinates":[126.9377654,37.3286797]},"properties":{"pnu":"4141010300104080003","municipality_code":"41410","municipality":"군포시","district":"군포시","locality":"부곡동","address":"군포시 부곡동 408-3","owner_type":"국유지","owner_label":"국(국토교통부)","manager":"","property_class":"","land_category":"도로","area_sqm":3407.0,"area_band":"3,000~5,000㎡","interest_category":"도로","solar_candidate":"검토필요","candidate_reason":"도로점용 및 실제 이용형태 추가 검토 필요; 면적 3,407㎡","priority_score":35,"source":"경기부동산포털 국공유지조회·연속지적도","source_date":"2026-08-11","installed_solar_match":false}},{"type":"Feature","id":"4141010800200370001","geometry":{"type":"Point","coordinates":[126.9220503,37.3228781]},"properties":{"pnu":"4141010800200370001","municipality_code":"41410","municipality":"군포시","district":"군포시","locality":"대야미동","address":"군포시 대야미동 산37-1","owner_type":"국유지","owner_label":"국(건설부)","manager":"","property_class":"","land_category":"도로","area_sqm":3392.0,"area_band":"3,000~5,000㎡","interest_category":"도로","solar_candidate":"검토필요","candidate_reason":"도로점용 및 실제 이용형태 추가 검토 필요; 면적 3,392㎡","priority_score":35,"source":"경기부동산포털 국공유지조회·연속지적도","source_date":"2026-08-11","installed_solar_match":false}},{"type":"Feature","id":"4141010300107460003","geometry":{"type":"Point","coordinates":[126.9293598,37.3305658]},"properties":{"pnu":"4141010300107460003","municipality_code":"41410","municipality":"군포시","district":"군포시","locality":"부곡동","address":"군포시 부곡동 746-3","owner_type":"국유지","owner_label":"국(국토교통부)","manager":"","property_class":"","land_category":"도로","area_sqm":3382.0,"area_band":"3,000~5,000㎡","interest_category":"도로","solar_candidate":"검토필요","candidate_reason":"도로점용 및 실제 이용형태 추가 검토 필요; 면적 3,382㎡","priority_score":35,"source":"경기부동산포털 국공유지조회·연속지적도","source_date":"2026-08-11","installed_solar_match":false}},{"type":"Feature","id":"4141010300108130002","geometry":{"type":"Point","coordinates":[126.9265545,37.3239959]},"properties":{"pnu":"4141010300108130002","municipality_code":"41410","municipality":"군포시","district":"군포시","locality":"부곡동","address":"군포시 부곡동 813-2","owner_type":"국유지","owner_label":"국(국토교통부)","manager":"","property_class":"","land_category":"도로","area_sqm":3358.0,"area_band":"3,000~5,000㎡","interest_category":"도로","solar_candidate":"검토필요","candidate_reason":"도로점용 및 실제 이용형태 추가 검토 필요; 면적 3,358㎡","priority_score":35,"source":"경기부동산포털 국공유지조회·연속지적도","source_date":"2026-08-11","installed_solar_match":false}},{"type":"Feature","id":"4141010800105010015","geometry":{"type":"Point","coordinates":[126.9147947,37.3187463]},"properties":{"pnu":"4141010800105010015","municipality_code":"41410","municipality":"군포시","district":"군포시","locality":"대야미동","address":"군포시 대야미동 501-15","owner_type":"국유지","owner_label":"국(건설교통부)","manager":"","property_class":"","land_category":"도로","area_sqm":3355.0,"area_band":"3,000~5,000㎡","interest_category":"도로","solar_candidate":"검토필요","candidate_reason":"도로점용 및 실제 이용형태 추가 검토 필요; 면적 3,355㎡","priority_score":35,"source":"경기부동산포털 국공유지조회·연속지적도","source_date":"2026-08-11","installed_solar_match":false}},{"type":"Feature","id":"4141010800104550018","geometry":{"type":"Point","coordinates":[126.9169884,37.3207331]},"properties":{"pnu":"4141010800104550018","municipality_code":"41410","municipality":"군포시","district":"군포시","locality":"대야미동","address":"군포시 대야미동 455-18","owner_type":"국유지","owner_label":"국(건설교통부)","manager":"","property_class":"","land_category":"도로","area_sqm":3353.0,"area_band":"3,000~5,000㎡","interest_category":"도로","solar_candidate":"검토필요","candidate_reason":"도로점용 및 실제 이용형태 추가 검토 필요; 면적 3,353㎡","priority_score":35,"source":"경기부동산포털 국공유지조회·연속지적도","source_date":"2026-08-11","installed_solar_match":false}},{"type":"Feature","id":"4141010300107970013","geometry":{"type":"Point","coordinates":[126.9275711,37.3259806]},"properties":{"pnu":"4141010300107970013","municipality_code":"41410","municipality":"군포시","district":"군포시","locality":"부곡동","address":"군포시 부곡동 797-13","owner_type":"국유지","owner_label":"국(국토교통부)","manager":"","property_class":"","land_category":"도로","area_sqm":3266.0,"area_band":"3,000~5,000㎡","interest_category":"도로","solar_candidate":"검토필요","candidate_reason":"도로점용 및 실제 이용형태 추가 검토 필요; 면적 3,266㎡","priority_score":35,"source":"경기부동산포털 국공유지조회·연속지적도","source_date":"2026-08-11","installed_solar_match":false}},{"type":"Feature","id":"4141010300107900003","geometry":{"type":"Point","coordinates":[126.927517,37.3277065]},"properties":{"pnu":"4141010300107900003","municipality_code":"41410","municipality":"군포시","district":"군포시","locality":"부곡동","address":"군포시 부곡동 790-3","owner_type":"국유지","owner_label":"국(국토교통부)","manager":"","property_class":"","land_category":"도로","area_sqm":3203.0,"area_band":"3,000~5,000㎡","interest_category":"도로","solar_candidate":"검토필요","candidate_reason":"도로점용 및 실제 이용형태 추가 검토 필요; 면적 3,203㎡","priority_score":35,"source":"경기부동산포털 국공유지조회·연속지적도","source_date":"2026-08-11","installed_solar_match":false}},{"type":"Feature","id":"4141010800104630000","geometry":{"type":"Point","coordinates":[126.9196534,37.321864]},"properties":{"pnu":"4141010800104630000","municipality_code":"41410","municipality":"군포시","district":"군포시","locality":"대야미동","address":"군포시 대야미동 463","owner_type":"국유지","owner_label":"국(건설교통부)","manager":"","property_class":"","land_category":"도로","area_sqm":3144.0,"area_band":"3,000~5,000㎡","interest_category":"도로","solar_candidate":"검토필요","candidate_reason":"도로점용 및 실제 이용형태 추가 검토 필요; 면적 3,144㎡","priority_score":35,"source":"경기부동산포털 국공유지조회·연속지적도","source_date":"2026-08-11","installed_solar_match":false}},{"type":"Feature","id":"4141010300102410005","geometry":{"type":"Point","coordinates":[126.9320085,37.334542]},"properties":{"pnu":"4141010300102410005","municipality_code":"41410","municipality":"군포시","district":"군포시","locality":"부곡동","address":"군포시 부곡동 241-5","owner_type":"국유지","owner_label":"국(국토교통부)","manager":"","property_class":"","land_category":"도로","area_sqm":3136.0,"area_band":"3,000~5,000㎡","interest_category":"도로","solar_candidate":"검토필요","candidate_reason":"도로점용 및 실제 이용형태 추가 검토 필요; 면적 3,136㎡","priority_score":35,"source":"경기부동산포털 국공유지조회·연속지적도","source_date":"2026-08-11","installed_solar_match":false}},{"type":"Feature","id":"4141010300107220000","geometry":{"type":"Point","coordinates":[126.9284798,37.3269336]},"properties":{"pnu":"4141010300107220000","municipality_code":"41410","municipality":"군포시","district":"군포시","locality":"부곡동","address":"군포시 부곡동 722","owner_type":"국유지","owner_label":"국(국토교통부)","manager":"","property_class":"","land_category":"도로","area_sqm":3101.0,"area_band":"3,000~5,000㎡","interest_category":"도로","solar_candidate":"검토필요","candidate_reason":"도로점용 및 실제 이용형태 추가 검토 필요; 면적 3,101㎡","priority_score":35,"source":"경기부동산포털 국공유지조회·연속지적도","source_date":"2026-08-11","installed_solar_match":false}},{"type":"Feature","id":"4141010300200640019","geometry":{"type":"Point","coordinates":[126.9309529,37.3302289]},"properties":{"pnu":"4141010300200640019","municipality_code":"41410","municipality":"군포시","district":"군포시","locality":"부곡동","address":"군포시 부곡동 산64-19","owner_type":"국유지","owner_label":"국(국토교통부)","manager":"","property_class":"","land_category":"도로","area_sqm":3077.0,"area_band":"3,000~5,000㎡","interest_category":"도로","solar_candidate":"검토필요","candidate_reason":"도로점용 및 실제 이용형태 추가 검토 필요; 면적 3,077㎡","priority_score":35,"source":"경기부동산포털 국공유지조회·연속지적도","source_date":"2026-08-11","installed_solar_match":false}},{"type":"Feature","id":"4141010800104550002","geometry":{"type":"Point","coordinates":[126.9182408,37.3206228]},"properties":{"pnu":"4141010800104550002","municipality_code":"41410","municipality":"군포시","district":"군포시","locality":"대야미동","address":"군포시 대야미동 455-2","owner_type":"국유지","owner_label":"국(건설교통부)","manager":"","property_class":"","land_category":"도로","area_sqm":3015.0,"area_band":"3,000~5,000㎡","interest_category":"도로","solar_candidate":"검토필요","candidate_reason":"도로점용 및 실제 이용형태 추가 검토 필요; 면적 3,015㎡","priority_score":35,"source":"경기부동산포털 국공유지조회·연속지적도","source_date":"2026-08-11","installed_solar_match":false}},{"type":"Feature","id":"4141010600101150003","geometry":{"type":"Point","coordinates":[126.8983103,37.3223655]},"properties":{"pnu":"4141010600101150003","municipality_code":"41410","municipality":"군포시","district":"군포시","locality":"둔대동","address":"군포시 둔대동 115-3","owner_type":"국유지","owner_label":"국(국토교통부)","manager":"","property_class":"","land_category":"도로","area_sqm":3004.0,"area_band":"3,000~5,000㎡","interest_category":"도로","solar_candidate":"검토필요","candidate_reason":"도로점용 및 실제 이용형태 추가 검토 필요; 면적 3,004㎡","priority_score":35,"source":"경기부동산포털 국공유지조회·연속지적도","source_date":"2026-08-11","installed_solar_match":false}}]}