{"type":"FeatureCollection","name":"gyeonggi_41410_province_solar_candidates","metadata":{"generated_on":"2026-08-11","source":"경기부동산포털 국공유지조회·연속지적도","source_agency":"경기도","ownership_source":"경기부동산포털 국공유지조회","coverage":"군포시","owner_code":"4","owner_type":"경기도유지","minimum_area_sqm":100.0,"feature_count":22,"coordinate_reference":"GRIS native values interpreted as EPSG:5174 and projected to EPSG:4326","coordinate_precision":"7 decimals, increased only when needed to keep narrow-parcel points inside","disclaimer":"설치 가능 확정이 아닌 현장조사 우선순위"},"features":[{"type":"Feature","id":"4141010200109080051","geometry":{"type":"Point","coordinates":[126.95707,37.3593112]},"properties":{"pnu":"4141010200109080051","municipality_code":"41410","municipality":"군포시","district":"군포시","locality":"당정동","address":"군포시 당정동 908-51","owner_type":"경기도유지","owner_label":"경기도","manager":"건설국 하천과","property_class":"일반재산","land_category":"잡종지","area_sqm":509.0,"area_band":"500~1,000㎡","interest_category":"잡종지","solar_candidate":"Y","candidate_reason":"실제 이용·점유 여부 확인 후 검토할 잡종지; 면적 509㎡","priority_score":70,"source":"경기부동산포털 국공유지조회·연속지적도","source_date":"2026-08-11","installed_solar_match":false}},{"type":"Feature","id":"4141010500108450000","geometry":{"type":"Point","coordinates":[126.9328257,37.3620071]},"properties":{"pnu":"4141010500108450000","municipality_code":"41410","municipality":"군포시","district":"군포시","locality":"금정동","address":"군포시 금정동 845","owner_type":"경기도유지","owner_label":"경기도(교육감)","manager":"","property_class":"","land_category":"대","area_sqm":5272.0,"area_band":"5,000㎡ 이상","interest_category":"대","solar_candidate":"Y","candidate_reason":"청사·공공건축물·주차장 현황 추가 확인 필요; 면적 5,272㎡","priority_score":65,"source":"경기부동산포털 국공유지조회·연속지적도","source_date":"2026-08-11","installed_solar_match":true,"installed_solar_count":4,"installed_solar_area_sqm":325.6,"installed_solar_analysis_years":["2024"],"installed_solar_types":["공공시설물"],"installed_solar_permit_status_counts":{"N":4}}},{"type":"Feature","id":"4141010200109080266","geometry":{"type":"Point","coordinates":[126.9573177,37.3589736]},"properties":{"pnu":"4141010200109080266","municipality_code":"41410","municipality":"군포시","district":"군포시","locality":"당정동","address":"군포시 당정동 908-266","owner_type":"경기도유지","owner_label":"경기도","manager":"건설국 하천과","property_class":"일반재산","land_category":"잡종지","area_sqm":255.0,"area_band":"100~500㎡","interest_category":"잡종지","solar_candidate":"Y","candidate_reason":"실제 이용·점유 여부 확인 후 검토할 잡종지; 면적 255㎡","priority_score":65,"source":"경기부동산포털 국공유지조회·연속지적도","source_date":"2026-08-11","installed_solar_match":false}},{"type":"Feature","id":"4141010400109630172","geometry":{"type":"Point","coordinates":[126.9379036,37.3705535]},"properties":{"pnu":"4141010400109630172","municipality_code":"41410","municipality":"군포시","district":"군포시","locality":"산본동","address":"군포시 산본동 963-172","owner_type":"경기도유지","owner_label":"경기도","manager":"건설국 하천과","property_class":"일반재산","land_category":"잡종지","area_sqm":218.0,"area_band":"100~500㎡","interest_category":"잡종지","solar_candidate":"Y","candidate_reason":"실제 이용·점유 여부 확인 후 검토할 잡종지; 면적 218㎡","priority_score":65,"source":"경기부동산포털 국공유지조회·연속지적도","source_date":"2026-08-11","installed_solar_match":false}},{"type":"Feature","id":"4141010400111560000","geometry":{"type":"Point","coordinates":[126.9271466,37.3524791]},"properties":{"pnu":"4141010400111560000","municipality_code":"41410","municipality":"군포시","district":"군포시","locality":"산본동","address":"군포시 산본동 1156","owner_type":"경기도유지","owner_label":"경기도","manager":"소방재난본부 회계장비담당관","property_class":"행정재산","land_category":"대","area_sqm":4025.6,"area_band":"3,000~5,000㎡","interest_category":"대","solar_candidate":"Y","candidate_reason":"청사·공공건축물·주차장 현황 추가 확인 필요; 면적 4,026㎡","priority_score":60,"source":"경기부동산포털 국공유지조회·연속지적도","source_date":"2026-08-11","installed_solar_match":false}},{"type":"Feature","id":"4141010700103590001","geometry":{"type":"Point","coordinates":[126.8965577,37.3436473]},"properties":{"pnu":"4141010700103590001","municipality_code":"41410","municipality":"군포시","district":"군포시","locality":"속달동","address":"군포시 속달동 359-1","owner_type":"경기도유지","owner_label":"경기도","manager":"자치행정국 자산관리과","property_class":"일반재산","land_category":"대","area_sqm":383.0,"area_band":"100~500㎡","interest_category":"대","solar_candidate":"검토필요","candidate_reason":"청사·공공건축물·주차장 현황 추가 확인 필요; 면적 383㎡","priority_score":55,"source":"경기부동산포털 국공유지조회·연속지적도","source_date":"2026-08-11","installed_solar_match":false}},{"type":"Feature","id":"4141010200109080111","geometry":{"type":"Point","coordinates":[126.9543457,37.365729]},"properties":{"pnu":"4141010200109080111","municipality_code":"41410","municipality":"군포시","district":"군포시","locality":"당정동","address":"군포시 당정동 908-111","owner_type":"경기도유지","owner_label":"경기도","manager":"건설국 하천과","property_class":"일반재산","land_category":"대","area_sqm":259.0,"area_band":"100~500㎡","interest_category":"대","solar_candidate":"검토필요","candidate_reason":"청사·공공건축물·주차장 현황 추가 확인 필요; 면적 259㎡","priority_score":55,"source":"경기부동산포털 국공유지조회·연속지적도","source_date":"2026-08-11","installed_solar_match":false}},{"type":"Feature","id":"4141010200109080139","geometry":{"type":"Point","coordinates":[126.9555628,37.3650882]},"properties":{"pnu":"4141010200109080139","municipality_code":"41410","municipality":"군포시","district":"군포시","locality":"당정동","address":"군포시 당정동 908-139","owner_type":"경기도유지","owner_label":"경기도","manager":"건설국 하천과","property_class":"일반재산","land_category":"대","area_sqm":194.0,"area_band":"100~500㎡","interest_category":"대","solar_candidate":"검토필요","candidate_reason":"청사·공공건축물·주차장 현황 추가 확인 필요; 면적 194㎡","priority_score":55,"source":"경기부동산포털 국공유지조회·연속지적도","source_date":"2026-08-11","installed_solar_match":false}},{"type":"Feature","id":"4141010200109080140","geometry":{"type":"Point","coordinates":[126.955603,37.3651935]},"properties":{"pnu":"4141010200109080140","municipality_code":"41410","municipality":"군포시","district":"군포시","locality":"당정동","address":"군포시 당정동 908-140","owner_type":"경기도유지","owner_label":"경기도","manager":"건설국 하천과","property_class":"일반재산","land_category":"대","area_sqm":114.0,"area_band":"100~500㎡","interest_category":"대","solar_candidate":"검토필요","candidate_reason":"청사·공공건축물·주차장 현황 추가 확인 필요; 면적 114㎡","priority_score":55,"source":"경기부동산포털 국공유지조회·연속지적도","source_date":"2026-08-11","installed_solar_match":false}},{"type":"Feature","id":"4141010200109080125","geometry":{"type":"Point","coordinates":[126.9549616,37.3652687]},"properties":{"pnu":"4141010200109080125","municipality_code":"41410","municipality":"군포시","district":"군포시","locality":"당정동","address":"군포시 당정동 908-125","owner_type":"경기도유지","owner_label":"경기도","manager":"건설국 하천과","property_class":"일반재산","land_category":"대","area_sqm":109.0,"area_band":"100~500㎡","interest_category":"대","solar_candidate":"검토필요","candidate_reason":"청사·공공건축물·주차장 현황 추가 확인 필요; 면적 109㎡","priority_score":55,"source":"경기부동산포털 국공유지조회·연속지적도","source_date":"2026-08-11","installed_solar_match":false}},{"type":"Feature","id":"4141010200109080112","geometry":{"type":"Point","coordinates":[126.9544941,37.3657606]},"properties":{"pnu":"4141010200109080112","municipality_code":"41410","municipality":"군포시","district":"군포시","locality":"당정동","address":"군포시 당정동 908-112","owner_type":"경기도유지","owner_label":"경기도","manager":"건설국 하천과","property_class":"일반재산","land_category":"대","area_sqm":104.0,"area_band":"100~500㎡","interest_category":"대","solar_candidate":"검토필요","candidate_reason":"청사·공공건축물·주차장 현황 추가 확인 필요; 면적 104㎡","priority_score":55,"source":"경기부동산포털 국공유지조회·연속지적도","source_date":"2026-08-11","installed_solar_match":false}},{"type":"Feature","id":"4141010200109080128","geometry":{"type":"Point","coordinates":[126.9551286,37.3652202]},"properties":{"pnu":"4141010200109080128","municipality_code":"41410","municipality":"군포시","district":"군포시","locality":"당정동","address":"군포시 당정동 908-128","owner_type":"경기도유지","owner_label":"경기도","manager":"건설국 하천과","property_class":"일반재산","land_category":"대","area_sqm":102.0,"area_band":"100~500㎡","interest_category":"대","solar_candidate":"검토필요","candidate_reason":"청사·공공건축물·주차장 현황 추가 확인 필요; 면적 102㎡","priority_score":55,"source":"경기부동산포털 국공유지조회·연속지적도","source_date":"2026-08-11","installed_solar_match":false}},{"type":"Feature","id":"4141010900104870000","geometry":{"type":"Point","coordinates":[126.9216958,37.3166003]},"properties":{"pnu":"4141010900104870000","municipality_code":"41410","municipality":"군포시","district":"군포시","locality":"도마교동","address":"군포시 도마교동 487","owner_type":"경기도유지","owner_label":"경기도","manager":"소방재난본부 회계장비담당관","property_class":"행정재산","land_category":"대","area_sqm":1653.0,"area_band":"1,000~3,000㎡","interest_category":"대","solar_candidate":"검토필요","candidate_reason":"청사·공공건축물·주차장 현황 추가 확인 필요; 면적 1,653㎡","priority_score":53,"source":"경기부동산포털 국공유지조회·연속지적도","source_date":"2026-08-11","installed_solar_match":true,"installed_solar_count":2,"installed_solar_area_sqm":174.3,"installed_solar_analysis_years":["2024"],"installed_solar_types":["공공시설물"],"installed_solar_permit_status_counts":{"N":2}}},{"type":"Feature","id":"4141010400110880004","geometry":{"type":"Point","coordinates":[126.9272247,37.3682383]},"properties":{"pnu":"4141010400110880004","municipality_code":"41410","municipality":"군포시","district":"군포시","locality":"산본동","address":"군포시 산본동 1088-4","owner_type":"경기도유지","owner_label":"경기도","manager":"소방재난본부 회계장비담당관","property_class":"행정재산","land_category":"대","area_sqm":1000.1,"area_band":"1,000~3,000㎡","interest_category":"대","solar_candidate":"검토필요","candidate_reason":"청사·공공건축물·주차장 현황 추가 확인 필요; 면적 1,000㎡","priority_score":53,"source":"경기부동산포털 국공유지조회·연속지적도","source_date":"2026-08-11","installed_solar_match":false}},{"type":"Feature","id":"4141010200109080088","geometry":{"type":"Point","coordinates":[126.9589003,37.3578047]},"properties":{"pnu":"4141010200109080088","municipality_code":"41410","municipality":"군포시","district":"군포시","locality":"당정동","address":"군포시 당정동 908-88","owner_type":"경기도유지","owner_label":"경기도","manager":"건설국 하천과","property_class":"일반재산","land_category":"공장용지","area_sqm":304.0,"area_band":"100~500㎡","interest_category":"공장용지","solar_candidate":"검토필요","candidate_reason":"지목·면적 기준 1차 검토 대상; 면적 304㎡","priority_score":52,"source":"경기부동산포털 국공유지조회·연속지적도","source_date":"2026-08-11","installed_solar_match":false}},{"type":"Feature","id":"4141010200109080027","geometry":{"type":"Point","coordinates":[126.9559857,37.3625291]},"properties":{"pnu":"4141010200109080027","municipality_code":"41410","municipality":"군포시","district":"군포시","locality":"당정동","address":"군포시 당정동 908-27","owner_type":"경기도유지","owner_label":"경기도","manager":"건설국 하천과","property_class":"일반재산","land_category":"공장용지","area_sqm":287.0,"area_band":"100~500㎡","interest_category":"공장용지","solar_candidate":"검토필요","candidate_reason":"지목·면적 기준 1차 검토 대상; 면적 287㎡","priority_score":52,"source":"경기부동산포털 국공유지조회·연속지적도","source_date":"2026-08-11","installed_solar_match":false}},{"type":"Feature","id":"4141010200109080223","geometry":{"type":"Point","coordinates":[126.9599315,37.3570527]},"properties":{"pnu":"4141010200109080223","municipality_code":"41410","municipality":"군포시","district":"군포시","locality":"당정동","address":"군포시 당정동 908-223","owner_type":"경기도유지","owner_label":"경기도","manager":"건설국 하천과","property_class":"일반재산","land_category":"공장용지","area_sqm":200.0,"area_band":"100~500㎡","interest_category":"공장용지","solar_candidate":"검토필요","candidate_reason":"지목·면적 기준 1차 검토 대상; 면적 200㎡","priority_score":52,"source":"경기부동산포털 국공유지조회·연속지적도","source_date":"2026-08-11","installed_solar_match":false}},{"type":"Feature","id":"4141010200109080025","geometry":{"type":"Point","coordinates":[126.9559752,37.3626868]},"properties":{"pnu":"4141010200109080025","municipality_code":"41410","municipality":"군포시","district":"군포시","locality":"당정동","address":"군포시 당정동 908-25","owner_type":"경기도유지","owner_label":"경기도","manager":"건설국 하천과","property_class":"일반재산","land_category":"공장용지","area_sqm":134.0,"area_band":"100~500㎡","interest_category":"공장용지","solar_candidate":"검토필요","candidate_reason":"지목·면적 기준 1차 검토 대상; 면적 134㎡","priority_score":52,"source":"경기부동산포털 국공유지조회·연속지적도","source_date":"2026-08-11","installed_solar_match":false}},{"type":"Feature","id":"4141010700103050000","geometry":{"type":"Point","coordinates":[126.9004091,37.3485193]},"properties":{"pnu":"4141010700103050000","municipality_code":"41410","municipality":"군포시","district":"군포시","locality":"속달동","address":"군포시 속달동 305","owner_type":"경기도유지","owner_label":"경기도","manager":"기후환경에너지국 정원산업과","property_class":"행정재산","land_category":"잡종지","area_sqm":295.0,"area_band":"100~500㎡","interest_category":"잡종지","solar_candidate":"검토필요","candidate_reason":"실제 이용·점유 여부 확인 후 검토할 잡종지; 면적 295㎡","priority_score":50,"source":"경기부동산포털 국공유지조회·연속지적도","source_date":"2026-08-11","installed_solar_match":false}},{"type":"Feature","id":"4141010500108500003","geometry":{"type":"Point","coordinates":[126.939271,37.3583697]},"properties":{"pnu":"4141010500108500003","municipality_code":"41410","municipality":"군포시","district":"군포시","locality":"금정동","address":"군포시 금정동 850-3","owner_type":"경기도유지","owner_label":"경기도","manager":"소방재난본부 회계장비담당관","property_class":"행정재산","land_category":"대","area_sqm":964.0,"area_band":"500~1,000㎡","interest_category":"대","solar_candidate":"검토필요","candidate_reason":"청사·공공건축물·주차장 현황 추가 확인 필요; 면적 964㎡","priority_score":45,"source":"경기부동산포털 국공유지조회·연속지적도","source_date":"2026-08-11","installed_solar_match":false}},{"type":"Feature","id":"4141010300111100001","geometry":{"type":"Point","coordinates":[126.9401248,37.3234189]},"properties":{"pnu":"4141010300111100001","municipality_code":"41410","municipality":"군포시","district":"군포시","locality":"부곡동","address":"군포시 부곡동 1110-1","owner_type":"경기도유지","owner_label":"경기도(교육감)","manager":"","property_class":"","land_category":"대","area_sqm":574.4,"area_band":"500~1,000㎡","interest_category":"대","solar_candidate":"검토필요","candidate_reason":"청사·공공건축물·주차장 현황 추가 확인 필요; 면적 574㎡","priority_score":45,"source":"경기부동산포털 국공유지조회·연속지적도","source_date":"2026-08-11","installed_solar_match":false}},{"type":"Feature","id":"4141010200105690002","geometry":{"type":"Point","coordinates":[126.9592174,37.3480209]},"properties":{"pnu":"4141010200105690002","municipality_code":"41410","municipality":"군포시","district":"군포시","locality":"당정동","address":"군포시 당정동 569-2","owner_type":"경기도유지","owner_label":"경기도(교육감)","manager":"","property_class":"","land_category":"대","area_sqm":105.0,"area_band":"100~500㎡","interest_category":"대","solar_candidate":"검토필요","candidate_reason":"청사·공공건축물·주차장 현황 추가 확인 필요; 면적 105㎡","priority_score":40,"source":"경기부동산포털 국공유지조회·연속지적도","source_date":"2026-08-11","installed_solar_match":false}}]}