{"type":"FeatureCollection","name":"gyeonggi_41430_province_solar_candidates","metadata":{"generated_on":"2026-08-11","source":"경기부동산포털 국공유지조회·연속지적도","source_agency":"경기도","ownership_source":"경기부동산포털 국공유지조회","coverage":"의왕시","owner_code":"4","owner_type":"경기도유지","minimum_area_sqm":100.0,"feature_count":131,"coordinate_reference":"GRIS native values interpreted as EPSG:5174 and projected to EPSG:4326","coordinate_precision":"7 decimals, increased only when needed to keep narrow-parcel points inside","disclaimer":"설치 가능 확정이 아닌 현장조사 우선순위"},"features":[{"type":"Feature","id":"4143011000102780008","geometry":{"type":"Point","coordinates":[126.9582536,37.3046177]},"properties":{"pnu":"4143011000102780008","municipality_code":"41430","municipality":"의왕시","district":"의왕시","locality":"월암동","address":"의왕시 월암동 278-8","owner_type":"경기도유지","owner_label":"경기도","manager":"자치행정국 자산관리과","property_class":"일반재산","land_category":"잡종지","area_sqm":607.0,"area_band":"500~1,000㎡","interest_category":"잡종지","solar_candidate":"Y","candidate_reason":"실제 이용·점유 여부 확인 후 검토할 잡종지; 면적 607㎡","priority_score":70,"source":"경기부동산포털 국공유지조회·연속지적도","source_date":"2026-08-11","installed_solar_match":false}},{"type":"Feature","id":"4143010100100780003","geometry":{"type":"Point","coordinates":[126.9747964,37.3440056]},"properties":{"pnu":"4143010100100780003","municipality_code":"41430","municipality":"의왕시","district":"의왕시","locality":"고천동","address":"의왕시 고천동 78-3","owner_type":"경기도유지","owner_label":"경기도","manager":"소방재난본부 회계장비담당관","property_class":"행정재산","land_category":"대","area_sqm":6717.0,"area_band":"5,000㎡ 이상","interest_category":"대","solar_candidate":"Y","candidate_reason":"청사·공공건축물·주차장 현황 추가 확인 필요; 면적 6,717㎡","priority_score":65,"source":"경기부동산포털 국공유지조회·연속지적도","source_date":"2026-08-11","installed_solar_match":true,"installed_solar_count":2,"installed_solar_area_sqm":113.8,"installed_solar_analysis_years":["2024"],"installed_solar_types":["공공시설물"],"installed_solar_permit_status_counts":{"N":2}}},{"type":"Feature","id":"4143010100104390064","geometry":{"type":"Point","coordinates":[126.968618,37.3514638]},"properties":{"pnu":"4143010100104390064","municipality_code":"41430","municipality":"의왕시","district":"의왕시","locality":"고천동","address":"의왕시 고천동 439-64","owner_type":"경기도유지","owner_label":"경기도","manager":"건설국 하천과","property_class":"일반재산","land_category":"공장용지","area_sqm":2269.0,"area_band":"1,000~3,000㎡","interest_category":"공장용지","solar_candidate":"Y","candidate_reason":"지목·면적 기준 1차 검토 대상; 면적 2,269㎡","priority_score":65,"source":"경기부동산포털 국공유지조회·연속지적도","source_date":"2026-08-11","installed_solar_match":false}},{"type":"Feature","id":"4143010100104390063","geometry":{"type":"Point","coordinates":[126.9686989,37.3520253]},"properties":{"pnu":"4143010100104390063","municipality_code":"41430","municipality":"의왕시","district":"의왕시","locality":"고천동","address":"의왕시 고천동 439-63","owner_type":"경기도유지","owner_label":"경기도","manager":"건설국 하천과","property_class":"일반재산","land_category":"공장용지","area_sqm":596.0,"area_band":"500~1,000㎡","interest_category":"공장용지","solar_candidate":"검토필요","candidate_reason":"지목·면적 기준 1차 검토 대상; 면적 596㎡","priority_score":57,"source":"경기부동산포털 국공유지조회·연속지적도","source_date":"2026-08-11","installed_solar_match":false}},{"type":"Feature","id":"4143010600103400087","geometry":{"type":"Point","coordinates":[127.0005643,37.3828755]},"properties":{"pnu":"4143010600103400087","municipality_code":"41430","municipality":"의왕시","district":"의왕시","locality":"학의동","address":"의왕시 학의동 340-87","owner_type":"경기도유지","owner_label":"경기도","manager":"건설국 도로정책과","property_class":"행정재산","land_category":"주차장","area_sqm":304.0,"area_band":"100~500㎡","interest_category":"주차장","solar_candidate":"검토필요","candidate_reason":"주차면 상부 태양광을 우선 검토할 지목; 면적 304㎡","priority_score":55,"source":"경기부동산포털 국공유지조회·연속지적도","source_date":"2026-08-11","installed_solar_match":false}},{"type":"Feature","id":"4143010100104750000","geometry":{"type":"Point","coordinates":[126.963785,37.3547003]},"properties":{"pnu":"4143010100104750000","municipality_code":"41430","municipality":"의왕시","district":"의왕시","locality":"고천동","address":"의왕시 고천동 475","owner_type":"경기도유지","owner_label":"경기도","manager":"건설국 하천과","property_class":"일반재산","land_category":"대","area_sqm":179.0,"area_band":"100~500㎡","interest_category":"대","solar_candidate":"검토필요","candidate_reason":"청사·공공건축물·주차장 현황 추가 확인 필요; 면적 179㎡","priority_score":55,"source":"경기부동산포털 국공유지조회·연속지적도","source_date":"2026-08-11","installed_solar_match":false}},{"type":"Feature","id":"4143010500108830000","geometry":{"type":"Point","coordinates":[126.9664209,37.3548621]},"properties":{"pnu":"4143010500108830000","municipality_code":"41430","municipality":"의왕시","district":"의왕시","locality":"오전동","address":"의왕시 오전동 883","owner_type":"경기도유지","owner_label":"경기도","manager":"건설국 하천과","property_class":"일반재산","land_category":"대","area_sqm":153.0,"area_band":"100~500㎡","interest_category":"대","solar_candidate":"검토필요","candidate_reason":"청사·공공건축물·주차장 현황 추가 확인 필요; 면적 153㎡","priority_score":55,"source":"경기부동산포털 국공유지조회·연속지적도","source_date":"2026-08-11","installed_solar_match":false}},{"type":"Feature","id":"4143010500107890003","geometry":{"type":"Point","coordinates":[126.9667292,37.3549321]},"properties":{"pnu":"4143010500107890003","municipality_code":"41430","municipality":"의왕시","district":"의왕시","locality":"오전동","address":"의왕시 오전동 789-3","owner_type":"경기도유지","owner_label":"경기도","manager":"건설국 하천과","property_class":"일반재산","land_category":"대","area_sqm":142.0,"area_band":"100~500㎡","interest_category":"대","solar_candidate":"검토필요","candidate_reason":"청사·공공건축물·주차장 현황 추가 확인 필요; 면적 142㎡","priority_score":55,"source":"경기부동산포털 국공유지조회·연속지적도","source_date":"2026-08-11","installed_solar_match":false}},{"type":"Feature","id":"4143010500108410001","geometry":{"type":"Point","coordinates":[126.96854,37.3564887]},"properties":{"pnu":"4143010500108410001","municipality_code":"41430","municipality":"의왕시","district":"의왕시","locality":"오전동","address":"의왕시 오전동 841-1","owner_type":"경기도유지","owner_label":"경기도","manager":"소방재난본부 회계장비담당관","property_class":"행정재산","land_category":"대","area_sqm":2766.7,"area_band":"1,000~3,000㎡","interest_category":"대","solar_candidate":"검토필요","candidate_reason":"청사·공공건축물·주차장 현황 추가 확인 필요; 면적 2,767㎡","priority_score":53,"source":"경기부동산포털 국공유지조회·연속지적도","source_date":"2026-08-11","installed_solar_match":false}},{"type":"Feature","id":"4143010800109890000","geometry":{"type":"Point","coordinates":[126.9926086,37.3904927]},"properties":{"pnu":"4143010800109890000","municipality_code":"41430","municipality":"의왕시","district":"의왕시","locality":"청계동","address":"의왕시 청계동 989","owner_type":"경기도유지","owner_label":"경기도","manager":"소방재난본부 회계장비담당관","property_class":"행정재산","land_category":"대","area_sqm":1858.2,"area_band":"1,000~3,000㎡","interest_category":"대","solar_candidate":"검토필요","candidate_reason":"청사·공공건축물·주차장 현황 추가 확인 필요; 면적 1,858㎡","priority_score":53,"source":"경기부동산포털 국공유지조회·연속지적도","source_date":"2026-08-11","installed_solar_match":false}},{"type":"Feature","id":"4143010500107500000","geometry":{"type":"Point","coordinates":[126.9982094,37.3574202]},"properties":{"pnu":"4143010500107500000","municipality_code":"41430","municipality":"의왕시","district":"의왕시","locality":"오전동","address":"의왕시 오전동 750","owner_type":"경기도유지","owner_label":"경기도","manager":"건설국 도로정책과","property_class":"행정재산","land_category":"대","area_sqm":1610.0,"area_band":"1,000~3,000㎡","interest_category":"대","solar_candidate":"검토필요","candidate_reason":"청사·공공건축물·주차장 현황 추가 확인 필요; 면적 1,610㎡","priority_score":53,"source":"경기부동산포털 국공유지조회·연속지적도","source_date":"2026-08-11","installed_solar_match":false}},{"type":"Feature","id":"4143010900106560000","geometry":{"type":"Point","coordinates":[126.9879458,37.4003461]},"properties":{"pnu":"4143010900106560000","municipality_code":"41430","municipality":"의왕시","district":"의왕시","locality":"포일동","address":"의왕시 포일동 656","owner_type":"경기도유지","owner_label":"경기도(교육감)","manager":"","property_class":"","land_category":"대","area_sqm":1003.7,"area_band":"1,000~3,000㎡","interest_category":"대","solar_candidate":"검토필요","candidate_reason":"청사·공공건축물·주차장 현황 추가 확인 필요; 면적 1,004㎡","priority_score":53,"source":"경기부동산포털 국공유지조회·연속지적도","source_date":"2026-08-11","installed_solar_match":false}},{"type":"Feature","id":"4143010500108820000","geometry":{"type":"Point","coordinates":[126.9663524,37.3549468]},"properties":{"pnu":"4143010500108820000","municipality_code":"41430","municipality":"의왕시","district":"의왕시","locality":"오전동","address":"의왕시 오전동 882","owner_type":"경기도유지","owner_label":"경기도","manager":"건설국 하천과","property_class":"일반재산","land_category":"공장용지","area_sqm":245.0,"area_band":"100~500㎡","interest_category":"공장용지","solar_candidate":"검토필요","candidate_reason":"지목·면적 기준 1차 검토 대상; 면적 245㎡","priority_score":52,"source":"경기부동산포털 국공유지조회·연속지적도","source_date":"2026-08-11","installed_solar_match":false}},{"type":"Feature","id":"4143010100104390128","geometry":{"type":"Point","coordinates":[126.9686062,37.3511475]},"properties":{"pnu":"4143010100104390128","municipality_code":"41430","municipality":"의왕시","district":"의왕시","locality":"고천동","address":"의왕시 고천동 439-128","owner_type":"경기도유지","owner_label":"경기도","manager":"건설국 하천과","property_class":"일반재산","land_category":"공장용지","area_sqm":108.0,"area_band":"100~500㎡","interest_category":"공장용지","solar_candidate":"검토필요","candidate_reason":"지목·면적 기준 1차 검토 대상; 면적 108㎡","priority_score":52,"source":"경기부동산포털 국공유지조회·연속지적도","source_date":"2026-08-11","installed_solar_match":false}},{"type":"Feature","id":"4143010100104390127","geometry":{"type":"Point","coordinates":[126.9686153,37.3511214]},"properties":{"pnu":"4143010100104390127","municipality_code":"41430","municipality":"의왕시","district":"의왕시","locality":"고천동","address":"의왕시 고천동 439-127","owner_type":"경기도유지","owner_label":"경기도","manager":"건설국 하천과","property_class":"일반재산","land_category":"공장용지","area_sqm":103.0,"area_band":"100~500㎡","interest_category":"공장용지","solar_candidate":"검토필요","candidate_reason":"지목·면적 기준 1차 검토 대상; 면적 103㎡","priority_score":52,"source":"경기부동산포털 국공유지조회·연속지적도","source_date":"2026-08-11","installed_solar_match":false}},{"type":"Feature","id":"4143010400104820010","geometry":{"type":"Point","coordinates":[126.9810205,37.3348748]},"properties":{"pnu":"4143010400104820010","municipality_code":"41430","municipality":"의왕시","district":"의왕시","locality":"왕곡동","address":"의왕시 왕곡동 482-10","owner_type":"경기도유지","owner_label":"경기도","manager":"건설국 도로정책과","property_class":"행정재산","land_category":"잡종지","area_sqm":375.0,"area_band":"100~500㎡","interest_category":"잡종지","solar_candidate":"검토필요","candidate_reason":"실제 이용·점유 여부 확인 후 검토할 잡종지; 면적 375㎡","priority_score":50,"source":"경기부동산포털 국공유지조회·연속지적도","source_date":"2026-08-11","installed_solar_match":false}},{"type":"Feature","id":"4143010300100070003","geometry":{"type":"Point","coordinates":[126.9656639,37.3198171]},"properties":{"pnu":"4143010300100070003","municipality_code":"41430","municipality":"의왕시","district":"의왕시","locality":"삼동","address":"의왕시 삼동 7-3","owner_type":"경기도유지","owner_label":"경기도","manager":"건설국 도로정책과","property_class":"행정재산","land_category":"잡종지","area_sqm":255.0,"area_band":"100~500㎡","interest_category":"잡종지","solar_candidate":"검토필요","candidate_reason":"실제 이용·점유 여부 확인 후 검토할 잡종지; 면적 255㎡","priority_score":50,"source":"경기부동산포털 국공유지조회·연속지적도","source_date":"2026-08-11","installed_solar_match":false}},{"type":"Feature","id":"4143010400104770005","geometry":{"type":"Point","coordinates":[126.9814257,37.3342523]},"properties":{"pnu":"4143010400104770005","municipality_code":"41430","municipality":"의왕시","district":"의왕시","locality":"왕곡동","address":"의왕시 왕곡동 477-5","owner_type":"경기도유지","owner_label":"경기도","manager":"건설국 도로정책과","property_class":"행정재산","land_category":"잡종지","area_sqm":214.0,"area_band":"100~500㎡","interest_category":"잡종지","solar_candidate":"검토필요","candidate_reason":"실제 이용·점유 여부 확인 후 검토할 잡종지; 면적 214㎡","priority_score":50,"source":"경기부동산포털 국공유지조회·연속지적도","source_date":"2026-08-11","installed_solar_match":false}},{"type":"Feature","id":"4143010600201170008","geometry":{"type":"Point","coordinates":[127.0234504,37.3730648]},"properties":{"pnu":"4143010600201170008","municipality_code":"41430","municipality":"의왕시","district":"의왕시","locality":"학의동","address":"의왕시 학의동 산117-8","owner_type":"경기도유지","owner_label":"경기도","manager":"자치행정국 자산관리과","property_class":"일반재산","land_category":"임야","area_sqm":5200.0,"area_band":"5,000㎡ 이상","interest_category":"대규모부지","solar_candidate":"검토필요","candidate_reason":"넓은 경기도유지로 실제 이용·규제 현황 추가 검토; 면적 5,200㎡","priority_score":45,"source":"경기부동산포털 국공유지조회·연속지적도","source_date":"2026-08-11","installed_solar_match":false}},{"type":"Feature","id":"4143010200200730000","geometry":{"type":"Point","coordinates":[126.9675006,37.3302061]},"properties":{"pnu":"4143010200200730000","municipality_code":"41430","municipality":"의왕시","district":"의왕시","locality":"이동","address":"의왕시 이동 산73","owner_type":"경기도유지","owner_label":"경기도","manager":"건설국 도로정책과","property_class":"행정재산","land_category":"도로","area_sqm":83071.0,"area_band":"5,000㎡ 이상","interest_category":"도로","solar_candidate":"검토필요","candidate_reason":"도로점용 및 실제 이용형태 추가 검토 필요; 면적 83,071㎡","priority_score":40,"source":"경기부동산포털 국공유지조회·연속지적도","source_date":"2026-08-11","installed_solar_match":false}},{"type":"Feature","id":"4143011000101450001","geometry":{"type":"Point","coordinates":[126.9632126,37.304712]},"properties":{"pnu":"4143011000101450001","municipality_code":"41430","municipality":"의왕시","district":"의왕시","locality":"월암동","address":"의왕시 월암동 145-1","owner_type":"경기도유지","owner_label":"경기도","manager":"건설국 도로정책과","property_class":"행정재산","land_category":"도로","area_sqm":80980.7,"area_band":"5,000㎡ 이상","interest_category":"도로","solar_candidate":"검토필요","candidate_reason":"도로점용 및 실제 이용형태 추가 검토 필요; 면적 80,981㎡","priority_score":40,"source":"경기부동산포털 국공유지조회·연속지적도","source_date":"2026-08-11","installed_solar_match":false}},{"type":"Feature","id":"4143010400102600000","geometry":{"type":"Point","coordinates":[126.9841146,37.3475544]},"properties":{"pnu":"4143010400102600000","municipality_code":"41430","municipality":"의왕시","district":"의왕시","locality":"왕곡동","address":"의왕시 왕곡동 260","owner_type":"경기도유지","owner_label":"경기도","manager":"건설국 도로정책과","property_class":"행정재산","land_category":"도로","area_sqm":56327.0,"area_band":"5,000㎡ 이상","interest_category":"도로","solar_candidate":"검토필요","candidate_reason":"도로점용 및 실제 이용형태 추가 검토 필요; 면적 56,327㎡","priority_score":40,"source":"경기부동산포털 국공유지조회·연속지적도","source_date":"2026-08-11","installed_solar_match":false}},{"type":"Feature","id":"4143010300200060005","geometry":{"type":"Point","coordinates":[126.965692,37.3239605]},"properties":{"pnu":"4143010300200060005","municipality_code":"41430","municipality":"의왕시","district":"의왕시","locality":"삼동","address":"의왕시 삼동 산6-5","owner_type":"경기도유지","owner_label":"경기도","manager":"건설국 도로정책과","property_class":"행정재산","land_category":"도로","area_sqm":35629.0,"area_band":"5,000㎡ 이상","interest_category":"도로","solar_candidate":"검토필요","candidate_reason":"도로점용 및 실제 이용형태 추가 검토 필요; 면적 35,629㎡","priority_score":40,"source":"경기부동산포털 국공유지조회·연속지적도","source_date":"2026-08-11","installed_solar_match":false}},{"type":"Feature","id":"4143011000100060001","geometry":{"type":"Point","coordinates":[126.9665518,37.3115764]},"properties":{"pnu":"4143011000100060001","municipality_code":"41430","municipality":"의왕시","district":"의왕시","locality":"월암동","address":"의왕시 월암동 6-1","owner_type":"경기도유지","owner_label":"경기도","manager":"건설국 도로정책과","property_class":"행정재산","land_category":"도로","area_sqm":26945.7,"area_band":"5,000㎡ 이상","interest_category":"도로","solar_candidate":"검토필요","candidate_reason":"도로점용 및 실제 이용형태 추가 검토 필요; 면적 26,946㎡","priority_score":40,"source":"경기부동산포털 국공유지조회·연속지적도","source_date":"2026-08-11","installed_solar_match":false}},{"type":"Feature","id":"4143010400103710000","geometry":{"type":"Point","coordinates":[126.9792401,37.3422332]},"properties":{"pnu":"4143010400103710000","municipality_code":"41430","municipality":"의왕시","district":"의왕시","locality":"왕곡동","address":"의왕시 왕곡동 371","owner_type":"경기도유지","owner_label":"경기도","manager":"건설국 도로정책과","property_class":"행정재산","land_category":"도로","area_sqm":23213.0,"area_band":"5,000㎡ 이상","interest_category":"도로","solar_candidate":"검토필요","candidate_reason":"도로점용 및 실제 이용형태 추가 검토 필요; 면적 23,213㎡","priority_score":40,"source":"경기부동산포털 국공유지조회·연속지적도","source_date":"2026-08-11","installed_solar_match":false}},{"type":"Feature","id":"4143010600200900001","geometry":{"type":"Point","coordinates":[126.9981825,37.3699185]},"properties":{"pnu":"4143010600200900001","municipality_code":"41430","municipality":"의왕시","district":"의왕시","locality":"학의동","address":"의왕시 학의동 산90-1","owner_type":"경기도유지","owner_label":"경기도","manager":"건설국 도로정책과","property_class":"행정재산","land_category":"도로","area_sqm":21942.0,"area_band":"5,000㎡ 이상","interest_category":"도로","solar_candidate":"검토필요","candidate_reason":"도로점용 및 실제 이용형태 추가 검토 필요; 면적 21,942㎡","priority_score":40,"source":"경기부동산포털 국공유지조회·연속지적도","source_date":"2026-08-11","installed_solar_match":false}},{"type":"Feature","id":"4143010100100300000","geometry":{"type":"Point","coordinates":[126.9762762,37.3393866]},"properties":{"pnu":"4143010100100300000","municipality_code":"41430","municipality":"의왕시","district":"의왕시","locality":"고천동","address":"의왕시 고천동 30","owner_type":"경기도유지","owner_label":"경기도","manager":"건설국 도로정책과","property_class":"행정재산","land_category":"도로","area_sqm":21899.0,"area_band":"5,000㎡ 이상","interest_category":"도로","solar_candidate":"검토필요","candidate_reason":"도로점용 및 실제 이용형태 추가 검토 필요; 면적 21,899㎡","priority_score":40,"source":"경기부동산포털 국공유지조회·연속지적도","source_date":"2026-08-11","installed_solar_match":false}},{"type":"Feature","id":"4143010700100460001","geometry":{"type":"Point","coordinates":[126.9975555,37.3744624]},"properties":{"pnu":"4143010700100460001","municipality_code":"41430","municipality":"의왕시","district":"의왕시","locality":"내손동","address":"의왕시 내손동 46-1","owner_type":"경기도유지","owner_label":"경기도","manager":"건설국 도로정책과","property_class":"행정재산","land_category":"도로","area_sqm":19154.6,"area_band":"5,000㎡ 이상","interest_category":"도로","solar_candidate":"검토필요","candidate_reason":"도로점용 및 실제 이용형태 추가 검토 필요; 면적 19,155㎡","priority_score":40,"source":"경기부동산포털 국공유지조회·연속지적도","source_date":"2026-08-11","installed_solar_match":false}},{"type":"Feature","id":"4143010100200550005","geometry":{"type":"Point","coordinates":[126.9731281,37.3365141]},"properties":{"pnu":"4143010100200550005","municipality_code":"41430","municipality":"의왕시","district":"의왕시","locality":"고천동","address":"의왕시 고천동 산55-5","owner_type":"경기도유지","owner_label":"경기도","manager":"건설국 도로정책과","property_class":"행정재산","land_category":"도로","area_sqm":18173.0,"area_band":"5,000㎡ 이상","interest_category":"도로","solar_candidate":"검토필요","candidate_reason":"도로점용 및 실제 이용형태 추가 검토 필요; 면적 18,173㎡","priority_score":40,"source":"경기부동산포털 국공유지조회·연속지적도","source_date":"2026-08-11","installed_solar_match":false}},{"type":"Feature","id":"4143010800200350008","geometry":{"type":"Point","coordinates":[127.0001187,37.4029534]},"properties":{"pnu":"4143010800200350008","municipality_code":"41430","municipality":"의왕시","district":"의왕시","locality":"청계동","address":"의왕시 청계동 산35-8","owner_type":"경기도유지","owner_label":"경기도","manager":"건설국 도로정책과","property_class":"행정재산","land_category":"도로","area_sqm":17324.0,"area_band":"5,000㎡ 이상","interest_category":"도로","solar_candidate":"검토필요","candidate_reason":"도로점용 및 실제 이용형태 추가 검토 필요; 면적 17,324㎡","priority_score":40,"source":"경기부동산포털 국공유지조회·연속지적도","source_date":"2026-08-11","installed_solar_match":false}},{"type":"Feature","id":"4143010200200680002","geometry":{"type":"Point","coordinates":[126.9703665,37.3345529]},"properties":{"pnu":"4143010200200680002","municipality_code":"41430","municipality":"의왕시","district":"의왕시","locality":"이동","address":"의왕시 이동 산68-2","owner_type":"경기도유지","owner_label":"경기도","manager":"건설국 도로정책과","property_class":"행정재산","land_category":"도로","area_sqm":16552.0,"area_band":"5,000㎡ 이상","interest_category":"도로","solar_candidate":"검토필요","candidate_reason":"도로점용 및 실제 이용형태 추가 검토 필요; 면적 16,552㎡","priority_score":40,"source":"경기부동산포털 국공유지조회·연속지적도","source_date":"2026-08-11","installed_solar_match":false}},{"type":"Feature","id":"4143010700201500003","geometry":{"type":"Point","coordinates":[126.9977447,37.3768205]},"properties":{"pnu":"4143010700201500003","municipality_code":"41430","municipality":"의왕시","district":"의왕시","locality":"내손동","address":"의왕시 내손동 산150-3","owner_type":"경기도유지","owner_label":"경기도","manager":"건설국 도로정책과","property_class":"행정재산","land_category":"도로","area_sqm":16477.0,"area_band":"5,000㎡ 이상","interest_category":"도로","solar_candidate":"검토필요","candidate_reason":"도로점용 및 실제 이용형태 추가 검토 필요; 면적 16,477㎡","priority_score":40,"source":"경기부동산포털 국공유지조회·연속지적도","source_date":"2026-08-11","installed_solar_match":false}},{"type":"Feature","id":"4143010800101340008","geometry":{"type":"Point","coordinates":[127.0356225,37.3933263]},"properties":{"pnu":"4143010800101340008","municipality_code":"41430","municipality":"의왕시","district":"의왕시","locality":"청계동","address":"의왕시 청계동 134-8","owner_type":"경기도유지","owner_label":"경기도","manager":"건설국 도로정책과","property_class":"행정재산","land_category":"도로","area_sqm":16417.0,"area_band":"5,000㎡ 이상","interest_category":"도로","solar_candidate":"검토필요","candidate_reason":"도로점용 및 실제 이용형태 추가 검토 필요; 면적 16,417㎡","priority_score":40,"source":"경기부동산포털 국공유지조회·연속지적도","source_date":"2026-08-11","installed_solar_match":false}},{"type":"Feature","id":"4143010900104850005","geometry":{"type":"Point","coordinates":[126.9851951,37.394939]},"properties":{"pnu":"4143010900104850005","municipality_code":"41430","municipality":"의왕시","district":"의왕시","locality":"포일동","address":"의왕시 포일동 485-5","owner_type":"경기도유지","owner_label":"경기도","manager":"건설국 도로정책과","property_class":"행정재산","land_category":"도로","area_sqm":15378.0,"area_band":"5,000㎡ 이상","interest_category":"도로","solar_candidate":"검토필요","candidate_reason":"도로점용 및 실제 이용형태 추가 검토 필요; 면적 15,378㎡","priority_score":40,"source":"경기부동산포털 국공유지조회·연속지적도","source_date":"2026-08-11","installed_solar_match":false}},{"type":"Feature","id":"4143010800101340004","geometry":{"type":"Point","coordinates":[127.0318466,37.3926445]},"properties":{"pnu":"4143010800101340004","municipality_code":"41430","municipality":"의왕시","district":"의왕시","locality":"청계동","address":"의왕시 청계동 134-4","owner_type":"경기도유지","owner_label":"경기도","manager":"건설국 도로정책과","property_class":"행정재산","land_category":"도로","area_sqm":15306.0,"area_band":"5,000㎡ 이상","interest_category":"도로","solar_candidate":"검토필요","candidate_reason":"도로점용 및 실제 이용형태 추가 검토 필요; 면적 15,306㎡","priority_score":40,"source":"경기부동산포털 국공유지조회·연속지적도","source_date":"2026-08-11","installed_solar_match":false}},{"type":"Feature","id":"4143010500200320008","geometry":{"type":"Point","coordinates":[126.999571,37.3622202]},"properties":{"pnu":"4143010500200320008","municipality_code":"41430","municipality":"의왕시","district":"의왕시","locality":"오전동","address":"의왕시 오전동 산32-8","owner_type":"경기도유지","owner_label":"경기도","manager":"건설국 도로정책과","property_class":"행정재산","land_category":"도로","area_sqm":14970.0,"area_band":"5,000㎡ 이상","interest_category":"도로","solar_candidate":"검토필요","candidate_reason":"도로점용 및 실제 이용형태 추가 검토 필요; 면적 14,970㎡","priority_score":40,"source":"경기부동산포털 국공유지조회·연속지적도","source_date":"2026-08-11","installed_solar_match":false}},{"type":"Feature","id":"4143010300200770006","geometry":{"type":"Point","coordinates":[126.96622,37.3186324]},"properties":{"pnu":"4143010300200770006","municipality_code":"41430","municipality":"의왕시","district":"의왕시","locality":"삼동","address":"의왕시 삼동 산77-6","owner_type":"경기도유지","owner_label":"경기도","manager":"건설국 도로정책과","property_class":"행정재산","land_category":"도로","area_sqm":14803.0,"area_band":"5,000㎡ 이상","interest_category":"도로","solar_candidate":"검토필요","candidate_reason":"도로점용 및 실제 이용형태 추가 검토 필요; 면적 14,803㎡","priority_score":40,"source":"경기부동산포털 국공유지조회·연속지적도","source_date":"2026-08-11","installed_solar_match":false}},{"type":"Feature","id":"4143010400200310001","geometry":{"type":"Point","coordinates":[126.9876742,37.3508038]},"properties":{"pnu":"4143010400200310001","municipality_code":"41430","municipality":"의왕시","district":"의왕시","locality":"왕곡동","address":"의왕시 왕곡동 산31-1","owner_type":"경기도유지","owner_label":"경기도","manager":"건설국 도로정책과","property_class":"행정재산","land_category":"도로","area_sqm":13839.0,"area_band":"5,000㎡ 이상","interest_category":"도로","solar_candidate":"검토필요","candidate_reason":"도로점용 및 실제 이용형태 추가 검토 필요; 면적 13,839㎡","priority_score":40,"source":"경기부동산포털 국공유지조회·연속지적도","source_date":"2026-08-11","installed_solar_match":false}},{"type":"Feature","id":"4143010200105380000","geometry":{"type":"Point","coordinates":[126.9680438,37.3325343]},"properties":{"pnu":"4143010200105380000","municipality_code":"41430","municipality":"의왕시","district":"의왕시","locality":"이동","address":"의왕시 이동 538","owner_type":"경기도유지","owner_label":"경기도","manager":"건설국 도로정책과","property_class":"행정재산","land_category":"도로","area_sqm":12908.2,"area_band":"5,000㎡ 이상","interest_category":"도로","solar_candidate":"검토필요","candidate_reason":"도로점용 및 실제 이용형태 추가 검토 필요; 면적 12,908㎡","priority_score":40,"source":"경기부동산포털 국공유지조회·연속지적도","source_date":"2026-08-11","installed_solar_match":false}},{"type":"Feature","id":"4143010400200390001","geometry":{"type":"Point","coordinates":[126.9805818,37.3436621]},"properties":{"pnu":"4143010400200390001","municipality_code":"41430","municipality":"의왕시","district":"의왕시","locality":"왕곡동","address":"의왕시 왕곡동 산39-1","owner_type":"경기도유지","owner_label":"경기도","manager":"건설국 도로정책과","property_class":"행정재산","land_category":"도로","area_sqm":12839.0,"area_band":"5,000㎡ 이상","interest_category":"도로","solar_candidate":"검토필요","candidate_reason":"도로점용 및 실제 이용형태 추가 검토 필요; 면적 12,839㎡","priority_score":40,"source":"경기부동산포털 국공유지조회·연속지적도","source_date":"2026-08-11","installed_solar_match":false}},{"type":"Feature","id":"4143010100100410000","geometry":{"type":"Point","coordinates":[126.9780093,37.3399554]},"properties":{"pnu":"4143010100100410000","municipality_code":"41430","municipality":"의왕시","district":"의왕시","locality":"고천동","address":"의왕시 고천동 41","owner_type":"경기도유지","owner_label":"경기도","manager":"건설국 도로정책과","property_class":"행정재산","land_category":"도로","area_sqm":12632.0,"area_band":"5,000㎡ 이상","interest_category":"도로","solar_candidate":"검토필요","candidate_reason":"도로점용 및 실제 이용형태 추가 검토 필요; 면적 12,632㎡","priority_score":40,"source":"경기부동산포털 국공유지조회·연속지적도","source_date":"2026-08-11","installed_solar_match":false}},{"type":"Feature","id":"4143010500200340010","geometry":{"type":"Point","coordinates":[126.9980119,37.3597413]},"properties":{"pnu":"4143010500200340010","municipality_code":"41430","municipality":"의왕시","district":"의왕시","locality":"오전동","address":"의왕시 오전동 산34-10","owner_type":"경기도유지","owner_label":"경기도","manager":"건설국 도로정책과","property_class":"행정재산","land_category":"도로","area_sqm":12165.0,"area_band":"5,000㎡ 이상","interest_category":"도로","solar_candidate":"검토필요","candidate_reason":"도로점용 및 실제 이용형태 추가 검토 필요; 면적 12,165㎡","priority_score":40,"source":"경기부동산포털 국공유지조회·연속지적도","source_date":"2026-08-11","installed_solar_match":false}},{"type":"Feature","id":"4143010800101340009","geometry":{"type":"Point","coordinates":[127.0360882,37.3930871]},"properties":{"pnu":"4143010800101340009","municipality_code":"41430","municipality":"의왕시","district":"의왕시","locality":"청계동","address":"의왕시 청계동 134-9","owner_type":"경기도유지","owner_label":"경기도","manager":"건설국 도로정책과","property_class":"행정재산","land_category":"도로","area_sqm":11393.0,"area_band":"5,000㎡ 이상","interest_category":"도로","solar_candidate":"검토필요","candidate_reason":"도로점용 및 실제 이용형태 추가 검토 필요; 면적 11,393㎡","priority_score":40,"source":"경기부동산포털 국공유지조회·연속지적도","source_date":"2026-08-11","installed_solar_match":false}},{"type":"Feature","id":"4143010600200820024","geometry":{"type":"Point","coordinates":[126.999307,37.3813532]},"properties":{"pnu":"4143010600200820024","municipality_code":"41430","municipality":"의왕시","district":"의왕시","locality":"학의동","address":"의왕시 학의동 산82-24","owner_type":"경기도유지","owner_label":"경기도","manager":"건설국 도로정책과","property_class":"행정재산","land_category":"도로","area_sqm":11212.0,"area_band":"5,000㎡ 이상","interest_category":"도로","solar_candidate":"검토필요","candidate_reason":"도로점용 및 실제 이용형태 추가 검토 필요; 면적 11,212㎡","priority_score":40,"source":"경기부동산포털 국공유지조회·연속지적도","source_date":"2026-08-11","installed_solar_match":false}},{"type":"Feature","id":"4143010100200630007","geometry":{"type":"Point","coordinates":[126.9715226,37.3352999]},"properties":{"pnu":"4143010100200630007","municipality_code":"41430","municipality":"의왕시","district":"의왕시","locality":"고천동","address":"의왕시 고천동 산63-7","owner_type":"경기도유지","owner_label":"경기도","manager":"건설국 도로정책과","property_class":"행정재산","land_category":"도로","area_sqm":10946.0,"area_band":"5,000㎡ 이상","interest_category":"도로","solar_candidate":"검토필요","candidate_reason":"도로점용 및 실제 이용형태 추가 검토 필요; 면적 10,946㎡","priority_score":40,"source":"경기부동산포털 국공유지조회·연속지적도","source_date":"2026-08-11","installed_solar_match":false}},{"type":"Feature","id":"4143010800102560003","geometry":{"type":"Point","coordinates":[127.0162825,37.3934953]},"properties":{"pnu":"4143010800102560003","municipality_code":"41430","municipality":"의왕시","district":"의왕시","locality":"청계동","address":"의왕시 청계동 256-3","owner_type":"경기도유지","owner_label":"경기도","manager":"건설국 도로정책과","property_class":"행정재산","land_category":"도로","area_sqm":10785.0,"area_band":"5,000㎡ 이상","interest_category":"도로","solar_candidate":"검토필요","candidate_reason":"도로점용 및 실제 이용형태 추가 검토 필요; 면적 10,785㎡","priority_score":40,"source":"경기부동산포털 국공유지조회·연속지적도","source_date":"2026-08-11","installed_solar_match":false}},{"type":"Feature","id":"4143010600200960009","geometry":{"type":"Point","coordinates":[126.999529,37.3658635]},"properties":{"pnu":"4143010600200960009","municipality_code":"41430","municipality":"의왕시","district":"의왕시","locality":"학의동","address":"의왕시 학의동 산96-9","owner_type":"경기도유지","owner_label":"경기도","manager":"건설국 도로정책과","property_class":"행정재산","land_category":"도로","area_sqm":10559.0,"area_band":"5,000㎡ 이상","interest_category":"도로","solar_candidate":"검토필요","candidate_reason":"도로점용 및 실제 이용형태 추가 검토 필요; 면적 10,559㎡","priority_score":40,"source":"경기부동산포털 국공유지조회·연속지적도","source_date":"2026-08-11","installed_solar_match":false}},{"type":"Feature","id":"4143010400103400001","geometry":{"type":"Point","coordinates":[126.9818108,37.344915]},"properties":{"pnu":"4143010400103400001","municipality_code":"41430","municipality":"의왕시","district":"의왕시","locality":"왕곡동","address":"의왕시 왕곡동 340-1","owner_type":"경기도유지","owner_label":"경기도","manager":"건설국 도로정책과","property_class":"행정재산","land_category":"도로","area_sqm":10169.0,"area_band":"5,000㎡ 이상","interest_category":"도로","solar_candidate":"검토필요","candidate_reason":"도로점용 및 실제 이용형태 추가 검토 필요; 면적 10,169㎡","priority_score":40,"source":"경기부동산포털 국공유지조회·연속지적도","source_date":"2026-08-11","installed_solar_match":false}},{"type":"Feature","id":"4143010400200330005","geometry":{"type":"Point","coordinates":[126.9853502,37.3494847]},"properties":{"pnu":"4143010400200330005","municipality_code":"41430","municipality":"의왕시","district":"의왕시","locality":"왕곡동","address":"의왕시 왕곡동 산33-5","owner_type":"경기도유지","owner_label":"경기도","manager":"건설국 도로정책과","property_class":"행정재산","land_category":"도로","area_sqm":10071.0,"area_band":"5,000㎡ 이상","interest_category":"도로","solar_candidate":"검토필요","candidate_reason":"도로점용 및 실제 이용형태 추가 검토 필요; 면적 10,071㎡","priority_score":40,"source":"경기부동산포털 국공유지조회·연속지적도","source_date":"2026-08-11","installed_solar_match":false}},{"type":"Feature","id":"4143010200105250000","geometry":{"type":"Point","coordinates":[126.9674525,37.3334261]},"properties":{"pnu":"4143010200105250000","municipality_code":"41430","municipality":"의왕시","district":"의왕시","locality":"이동","address":"의왕시 이동 525","owner_type":"경기도유지","owner_label":"경기도","manager":"건설국 도로정책과","property_class":"행정재산","land_category":"도로","area_sqm":9502.4,"area_band":"5,000㎡ 이상","interest_category":"도로","solar_candidate":"검토필요","candidate_reason":"도로점용 및 실제 이용형태 추가 검토 필요; 면적 9,502㎡","priority_score":40,"source":"경기부동산포털 국공유지조회·연속지적도","source_date":"2026-08-11","installed_solar_match":false}},{"type":"Feature","id":"4143010500107210001","geometry":{"type":"Point","coordinates":[126.9973749,37.3581981]},"properties":{"pnu":"4143010500107210001","municipality_code":"41430","municipality":"의왕시","district":"의왕시","locality":"오전동","address":"의왕시 오전동 721-1","owner_type":"경기도유지","owner_label":"경기도","manager":"건설국 도로정책과","property_class":"행정재산","land_category":"도로","area_sqm":9409.0,"area_band":"5,000㎡ 이상","interest_category":"도로","solar_candidate":"검토필요","candidate_reason":"도로점용 및 실제 이용형태 추가 검토 필요; 면적 9,409㎡","priority_score":40,"source":"경기부동산포털 국공유지조회·연속지적도","source_date":"2026-08-11","installed_solar_match":false}},{"type":"Feature","id":"4143010600200820013","geometry":{"type":"Point","coordinates":[126.9987348,37.3813097]},"properties":{"pnu":"4143010600200820013","municipality_code":"41430","municipality":"의왕시","district":"의왕시","locality":"학의동","address":"의왕시 학의동 산82-13","owner_type":"경기도유지","owner_label":"경기도","manager":"건설국 도로정책과","property_class":"행정재산","land_category":"도로","area_sqm":9192.0,"area_band":"5,000㎡ 이상","interest_category":"도로","solar_candidate":"검토필요","candidate_reason":"도로점용 및 실제 이용형태 추가 검토 필요; 면적 9,192㎡","priority_score":40,"source":"경기부동산포털 국공유지조회·연속지적도","source_date":"2026-08-11","installed_solar_match":false}},{"type":"Feature","id":"4143010500106420001","geometry":{"type":"Point","coordinates":[126.995264,37.356278]},"properties":{"pnu":"4143010500106420001","municipality_code":"41430","municipality":"의왕시","district":"의왕시","locality":"오전동","address":"의왕시 오전동 642-1","owner_type":"경기도유지","owner_label":"경기도","manager":"건설국 도로정책과","property_class":"행정재산","land_category":"도로","area_sqm":8629.0,"area_band":"5,000㎡ 이상","interest_category":"도로","solar_candidate":"검토필요","candidate_reason":"도로점용 및 실제 이용형태 추가 검토 필요; 면적 8,629㎡","priority_score":40,"source":"경기부동산포털 국공유지조회·연속지적도","source_date":"2026-08-11","installed_solar_match":false}},{"type":"Feature","id":"4143010600200960032","geometry":{"type":"Point","coordinates":[126.9996377,37.3634535]},"properties":{"pnu":"4143010600200960032","municipality_code":"41430","municipality":"의왕시","district":"의왕시","locality":"학의동","address":"의왕시 학의동 산96-32","owner_type":"경기도유지","owner_label":"경기도","manager":"건설국 도로정책과","property_class":"행정재산","land_category":"도로","area_sqm":8530.0,"area_band":"5,000㎡ 이상","interest_category":"도로","solar_candidate":"검토필요","candidate_reason":"도로점용 및 실제 이용형태 추가 검토 필요; 면적 8,530㎡","priority_score":40,"source":"경기부동산포털 국공유지조회·연속지적도","source_date":"2026-08-11","installed_solar_match":false}},{"type":"Feature","id":"4143010600200960038","geometry":{"type":"Point","coordinates":[127.000055,37.3656079]},"properties":{"pnu":"4143010600200960038","municipality_code":"41430","municipality":"의왕시","district":"의왕시","locality":"학의동","address":"의왕시 학의동 산96-38","owner_type":"경기도유지","owner_label":"경기도","manager":"건설국 도로정책과","property_class":"행정재산","land_category":"도로","area_sqm":8281.0,"area_band":"5,000㎡ 이상","interest_category":"도로","solar_candidate":"검토필요","candidate_reason":"도로점용 및 실제 이용형태 추가 검토 필요; 면적 8,281㎡","priority_score":40,"source":"경기부동산포털 국공유지조회·연속지적도","source_date":"2026-08-11","installed_solar_match":false}},{"type":"Feature","id":"4143010600200960007","geometry":{"type":"Point","coordinates":[126.9988714,37.3677142]},"properties":{"pnu":"4143010600200960007","municipality_code":"41430","municipality":"의왕시","district":"의왕시","locality":"학의동","address":"의왕시 학의동 산96-7","owner_type":"경기도유지","owner_label":"경기도","manager":"건설국 도로정책과","property_class":"행정재산","land_category":"도로","area_sqm":8203.0,"area_band":"5,000㎡ 이상","interest_category":"도로","solar_candidate":"검토필요","candidate_reason":"도로점용 및 실제 이용형태 추가 검토 필요; 면적 8,203㎡","priority_score":40,"source":"경기부동산포털 국공유지조회·연속지적도","source_date":"2026-08-11","installed_solar_match":false}},{"type":"Feature","id":"4143010500107000003","geometry":{"type":"Point","coordinates":[126.9984094,37.3593778]},"properties":{"pnu":"4143010500107000003","municipality_code":"41430","municipality":"의왕시","district":"의왕시","locality":"오전동","address":"의왕시 오전동 700-3","owner_type":"경기도유지","owner_label":"경기도","manager":"건설국 도로정책과","property_class":"행정재산","land_category":"도로","area_sqm":8132.0,"area_band":"5,000㎡ 이상","interest_category":"도로","solar_candidate":"검토필요","candidate_reason":"도로점용 및 실제 이용형태 추가 검토 필요; 면적 8,132㎡","priority_score":40,"source":"경기부동산포털 국공유지조회·연속지적도","source_date":"2026-08-11","installed_solar_match":false}},{"type":"Feature","id":"4143010600200780012","geometry":{"type":"Point","coordinates":[127.0008106,37.3851208]},"properties":{"pnu":"4143010600200780012","municipality_code":"41430","municipality":"의왕시","district":"의왕시","locality":"학의동","address":"의왕시 학의동 산78-12","owner_type":"경기도유지","owner_label":"경기도","manager":"건설국 도로정책과","property_class":"행정재산","land_category":"도로","area_sqm":7769.0,"area_band":"5,000㎡ 이상","interest_category":"도로","solar_candidate":"검토필요","candidate_reason":"도로점용 및 실제 이용형태 추가 검토 필요; 면적 7,769㎡","priority_score":40,"source":"경기부동산포털 국공유지조회·연속지적도","source_date":"2026-08-11","installed_solar_match":false}},{"type":"Feature","id":"4143010200105340005","geometry":{"type":"Point","coordinates":[126.9690902,37.3335766]},"properties":{"pnu":"4143010200105340005","municipality_code":"41430","municipality":"의왕시","district":"의왕시","locality":"이동","address":"의왕시 이동 534-5","owner_type":"경기도유지","owner_label":"경기도","manager":"건설국 도로정책과","property_class":"행정재산","land_category":"도로","area_sqm":7651.9,"area_band":"5,000㎡ 이상","interest_category":"도로","solar_candidate":"검토필요","candidate_reason":"도로점용 및 실제 이용형태 추가 검토 필요; 면적 7,652㎡","priority_score":40,"source":"경기부동산포털 국공유지조회·연속지적도","source_date":"2026-08-11","installed_solar_match":false}},{"type":"Feature","id":"4143010400104630000","geometry":{"type":"Point","coordinates":[126.9788518,37.3392192]},"properties":{"pnu":"4143010400104630000","municipality_code":"41430","municipality":"의왕시","district":"의왕시","locality":"왕곡동","address":"의왕시 왕곡동 463","owner_type":"경기도유지","owner_label":"경기도","manager":"건설국 도로정책과","property_class":"행정재산","land_category":"도로","area_sqm":7300.0,"area_band":"5,000㎡ 이상","interest_category":"도로","solar_candidate":"검토필요","candidate_reason":"도로점용 및 실제 이용형태 추가 검토 필요; 면적 7,300㎡","priority_score":40,"source":"경기부동산포털 국공유지조회·연속지적도","source_date":"2026-08-11","installed_solar_match":false}},{"type":"Feature","id":"4143010600200960040","geometry":{"type":"Point","coordinates":[127.0001365,37.3636469]},"properties":{"pnu":"4143010600200960040","municipality_code":"41430","municipality":"의왕시","district":"의왕시","locality":"학의동","address":"의왕시 학의동 산96-40","owner_type":"경기도유지","owner_label":"경기도","manager":"건설국 도로정책과","property_class":"행정재산","land_category":"도로","area_sqm":7233.0,"area_band":"5,000㎡ 이상","interest_category":"도로","solar_candidate":"검토필요","candidate_reason":"도로점용 및 실제 이용형태 추가 검토 필요; 면적 7,233㎡","priority_score":40,"source":"경기부동산포털 국공유지조회·연속지적도","source_date":"2026-08-11","installed_solar_match":false}},{"type":"Feature","id":"4143010700100090003","geometry":{"type":"Point","coordinates":[126.99832,37.3783787]},"properties":{"pnu":"4143010700100090003","municipality_code":"41430","municipality":"의왕시","district":"의왕시","locality":"내손동","address":"의왕시 내손동 9-3","owner_type":"경기도유지","owner_label":"경기도","manager":"건설국 도로정책과","property_class":"행정재산","land_category":"도로","area_sqm":6930.0,"area_band":"5,000㎡ 이상","interest_category":"도로","solar_candidate":"검토필요","candidate_reason":"도로점용 및 실제 이용형태 추가 검토 필요; 면적 6,930㎡","priority_score":40,"source":"경기부동산포털 국공유지조회·연속지적도","source_date":"2026-08-11","installed_solar_match":false}},{"type":"Feature","id":"4143010900101110020","geometry":{"type":"Point","coordinates":[126.9945315,37.3895186]},"properties":{"pnu":"4143010900101110020","municipality_code":"41430","municipality":"의왕시","district":"의왕시","locality":"포일동","address":"의왕시 포일동 111-20","owner_type":"경기도유지","owner_label":"경기도","manager":"건설국 도로정책과","property_class":"행정재산","land_category":"도로","area_sqm":6782.0,"area_band":"5,000㎡ 이상","interest_category":"도로","solar_candidate":"검토필요","candidate_reason":"도로점용 및 실제 이용형태 추가 검토 필요; 면적 6,782㎡","priority_score":40,"source":"경기부동산포털 국공유지조회·연속지적도","source_date":"2026-08-11","installed_solar_match":false}},{"type":"Feature","id":"4143010900200010003","geometry":{"type":"Point","coordinates":[126.9989216,37.4042696]},"properties":{"pnu":"4143010900200010003","municipality_code":"41430","municipality":"의왕시","district":"의왕시","locality":"포일동","address":"의왕시 포일동 산1-3","owner_type":"경기도유지","owner_label":"경기도","manager":"건설국 도로정책과","property_class":"행정재산","land_category":"도로","area_sqm":6605.0,"area_band":"5,000㎡ 이상","interest_category":"도로","solar_candidate":"검토필요","candidate_reason":"도로점용 및 실제 이용형태 추가 검토 필요; 면적 6,605㎡","priority_score":40,"source":"경기부동산포털 국공유지조회·연속지적도","source_date":"2026-08-11","installed_solar_match":false}},{"type":"Feature","id":"4143010600200960039","geometry":{"type":"Point","coordinates":[126.9991212,37.3636858]},"properties":{"pnu":"4143010600200960039","municipality_code":"41430","municipality":"의왕시","district":"의왕시","locality":"학의동","address":"의왕시 학의동 산96-39","owner_type":"경기도유지","owner_label":"경기도","manager":"건설국 도로정책과","property_class":"행정재산","land_category":"도로","area_sqm":6557.0,"area_band":"5,000㎡ 이상","interest_category":"도로","solar_candidate":"검토필요","candidate_reason":"도로점용 및 실제 이용형태 추가 검토 필요; 면적 6,557㎡","priority_score":40,"source":"경기부동산포털 국공유지조회·연속지적도","source_date":"2026-08-11","installed_solar_match":false}},{"type":"Feature","id":"4143010500200330000","geometry":{"type":"Point","coordinates":[126.9987418,37.3605748]},"properties":{"pnu":"4143010500200330000","municipality_code":"41430","municipality":"의왕시","district":"의왕시","locality":"오전동","address":"의왕시 오전동 산33","owner_type":"경기도유지","owner_label":"경기도","manager":"건설국 도로정책과","property_class":"행정재산","land_category":"도로","area_sqm":6545.0,"area_band":"5,000㎡ 이상","interest_category":"도로","solar_candidate":"검토필요","candidate_reason":"도로점용 및 실제 이용형태 추가 검토 필요; 면적 6,545㎡","priority_score":40,"source":"경기부동산포털 국공유지조회·연속지적도","source_date":"2026-08-11","installed_solar_match":false}},{"type":"Feature","id":"4143010400102120003","geometry":{"type":"Point","coordinates":[126.9861687,37.3491286]},"properties":{"pnu":"4143010400102120003","municipality_code":"41430","municipality":"의왕시","district":"의왕시","locality":"왕곡동","address":"의왕시 왕곡동 212-3","owner_type":"경기도유지","owner_label":"경기도","manager":"건설국 도로정책과","property_class":"행정재산","land_category":"도로","area_sqm":6539.0,"area_band":"5,000㎡ 이상","interest_category":"도로","solar_candidate":"검토필요","candidate_reason":"도로점용 및 실제 이용형태 추가 검토 필요; 면적 6,539㎡","priority_score":40,"source":"경기부동산포털 국공유지조회·연속지적도","source_date":"2026-08-11","installed_solar_match":false}},{"type":"Feature","id":"4143010900101740026","geometry":{"type":"Point","coordinates":[126.9904339,37.3910297]},"properties":{"pnu":"4143010900101740026","municipality_code":"41430","municipality":"의왕시","district":"의왕시","locality":"포일동","address":"의왕시 포일동 174-26","owner_type":"경기도유지","owner_label":"경기도","manager":"건설국 도로정책과","property_class":"행정재산","land_category":"도로","area_sqm":6413.0,"area_band":"5,000㎡ 이상","interest_category":"도로","solar_candidate":"검토필요","candidate_reason":"도로점용 및 실제 이용형태 추가 검토 필요; 면적 6,413㎡","priority_score":40,"source":"경기부동산포털 국공유지조회·연속지적도","source_date":"2026-08-11","installed_solar_match":false}},{"type":"Feature","id":"4143010800101480000","geometry":{"type":"Point","coordinates":[127.0272731,37.3944087]},"properties":{"pnu":"4143010800101480000","municipality_code":"41430","municipality":"의왕시","district":"의왕시","locality":"청계동","address":"의왕시 청계동 148","owner_type":"경기도유지","owner_label":"경기도","manager":"건설국 도로정책과","property_class":"행정재산","land_category":"도로","area_sqm":6398.0,"area_band":"5,000㎡ 이상","interest_category":"도로","solar_candidate":"검토필요","candidate_reason":"도로점용 및 실제 이용형태 추가 검토 필요; 면적 6,398㎡","priority_score":40,"source":"경기부동산포털 국공유지조회·연속지적도","source_date":"2026-08-11","installed_solar_match":false}},{"type":"Feature","id":"4143010800108280014","geometry":{"type":"Point","coordinates":[126.9985777,37.3887132]},"properties":{"pnu":"4143010800108280014","municipality_code":"41430","municipality":"의왕시","district":"의왕시","locality":"청계동","address":"의왕시 청계동 828-14","owner_type":"경기도유지","owner_label":"경기도","manager":"건설국 도로정책과","property_class":"행정재산","land_category":"도로","area_sqm":6270.0,"area_band":"5,000㎡ 이상","interest_category":"도로","solar_candidate":"검토필요","candidate_reason":"도로점용 및 실제 이용형태 추가 검토 필요; 면적 6,270㎡","priority_score":40,"source":"경기부동산포털 국공유지조회·연속지적도","source_date":"2026-08-11","installed_solar_match":false}},{"type":"Feature","id":"4143010500200190002","geometry":{"type":"Point","coordinates":[126.9936833,37.3552813]},"properties":{"pnu":"4143010500200190002","municipality_code":"41430","municipality":"의왕시","district":"의왕시","locality":"오전동","address":"의왕시 오전동 산19-2","owner_type":"경기도유지","owner_label":"경기도","manager":"건설국 도로정책과","property_class":"행정재산","land_category":"도로","area_sqm":6249.0,"area_band":"5,000㎡ 이상","interest_category":"도로","solar_candidate":"검토필요","candidate_reason":"도로점용 및 실제 이용형태 추가 검토 필요; 면적 6,249㎡","priority_score":40,"source":"경기부동산포털 국공유지조회·연속지적도","source_date":"2026-08-11","installed_solar_match":false}},{"type":"Feature","id":"4143010500200320009","geometry":{"type":"Point","coordinates":[126.9988514,37.3615159]},"properties":{"pnu":"4143010500200320009","municipality_code":"41430","municipality":"의왕시","district":"의왕시","locality":"오전동","address":"의왕시 오전동 산32-9","owner_type":"경기도유지","owner_label":"경기도","manager":"건설국 도로정책과","property_class":"행정재산","land_category":"도로","area_sqm":6243.0,"area_band":"5,000㎡ 이상","interest_category":"도로","solar_candidate":"검토필요","candidate_reason":"도로점용 및 실제 이용형태 추가 검토 필요; 면적 6,243㎡","priority_score":40,"source":"경기부동산포털 국공유지조회·연속지적도","source_date":"2026-08-11","installed_solar_match":false}},{"type":"Feature","id":"4143011000102720006","geometry":{"type":"Point","coordinates":[126.959603,37.3038793]},"properties":{"pnu":"4143011000102720006","municipality_code":"41430","municipality":"의왕시","district":"의왕시","locality":"월암동","address":"의왕시 월암동 272-6","owner_type":"경기도유지","owner_label":"경기도","manager":"건설국 도로정책과","property_class":"행정재산","land_category":"도로","area_sqm":6216.0,"area_band":"5,000㎡ 이상","interest_category":"도로","solar_candidate":"검토필요","candidate_reason":"도로점용 및 실제 이용형태 추가 검토 필요; 면적 6,216㎡","priority_score":40,"source":"경기부동산포털 국공유지조회·연속지적도","source_date":"2026-08-11","installed_solar_match":false}},{"type":"Feature","id":"4143010500107270003","geometry":{"type":"Point","coordinates":[126.9961519,37.3572013]},"properties":{"pnu":"4143010500107270003","municipality_code":"41430","municipality":"의왕시","district":"의왕시","locality":"오전동","address":"의왕시 오전동 727-3","owner_type":"경기도유지","owner_label":"경기도","manager":"건설국 도로정책과","property_class":"행정재산","land_category":"도로","area_sqm":6109.0,"area_band":"5,000㎡ 이상","interest_category":"도로","solar_candidate":"검토필요","candidate_reason":"도로점용 및 실제 이용형태 추가 검토 필요; 면적 6,109㎡","priority_score":40,"source":"경기부동산포털 국공유지조회·연속지적도","source_date":"2026-08-11","installed_solar_match":false}},{"type":"Feature","id":"4143010700201500004","geometry":{"type":"Point","coordinates":[126.9983205,37.3768762]},"properties":{"pnu":"4143010700201500004","municipality_code":"41430","municipality":"의왕시","district":"의왕시","locality":"내손동","address":"의왕시 내손동 산150-4","owner_type":"경기도유지","owner_label":"경기도","manager":"건설국 도로정책과","property_class":"행정재산","land_category":"도로","area_sqm":5935.0,"area_band":"5,000㎡ 이상","interest_category":"도로","solar_candidate":"검토필요","candidate_reason":"도로점용 및 실제 이용형태 추가 검토 필요; 면적 5,935㎡","priority_score":40,"source":"경기부동산포털 국공유지조회·연속지적도","source_date":"2026-08-11","installed_solar_match":false}},{"type":"Feature","id":"4143010800201110003","geometry":{"type":"Point","coordinates":[127.0010815,37.386102]},"properties":{"pnu":"4143010800201110003","municipality_code":"41430","municipality":"의왕시","district":"의왕시","locality":"청계동","address":"의왕시 청계동 산111-3","owner_type":"경기도유지","owner_label":"경기도","manager":"건설국 도로정책과","property_class":"행정재산","land_category":"도로","area_sqm":5674.0,"area_band":"5,000㎡ 이상","interest_category":"도로","solar_candidate":"검토필요","candidate_reason":"도로점용 및 실제 이용형태 추가 검토 필요; 면적 5,674㎡","priority_score":40,"source":"경기부동산포털 국공유지조회·연속지적도","source_date":"2026-08-11","installed_solar_match":false}},{"type":"Feature","id":"4143010800106620002","geometry":{"type":"Point","coordinates":[127.0009293,37.4022029]},"properties":{"pnu":"4143010800106620002","municipality_code":"41430","municipality":"의왕시","district":"의왕시","locality":"청계동","address":"의왕시 청계동 662-2","owner_type":"경기도유지","owner_label":"경기도","manager":"건설국 도로정책과","property_class":"행정재산","land_category":"도로","area_sqm":5563.0,"area_band":"5,000㎡ 이상","interest_category":"도로","solar_candidate":"검토필요","candidate_reason":"도로점용 및 실제 이용형태 추가 검토 필요; 면적 5,563㎡","priority_score":40,"source":"경기부동산포털 국공유지조회·연속지적도","source_date":"2026-08-11","installed_solar_match":false}},{"type":"Feature","id":"4143010800102460005","geometry":{"type":"Point","coordinates":[127.0200362,37.3943588]},"properties":{"pnu":"4143010800102460005","municipality_code":"41430","municipality":"의왕시","district":"의왕시","locality":"청계동","address":"의왕시 청계동 246-5","owner_type":"경기도유지","owner_label":"경기도","manager":"건설국 도로정책과","property_class":"행정재산","land_category":"도로","area_sqm":5471.5,"area_band":"5,000㎡ 이상","interest_category":"도로","solar_candidate":"검토필요","candidate_reason":"도로점용 및 실제 이용형태 추가 검토 필요; 면적 5,472㎡","priority_score":40,"source":"경기부동산포털 국공유지조회·연속지적도","source_date":"2026-08-11","installed_solar_match":false}},{"type":"Feature","id":"4143010500200320006","geometry":{"type":"Point","coordinates":[126.9980251,37.3607913]},"properties":{"pnu":"4143010500200320006","municipality_code":"41430","municipality":"의왕시","district":"의왕시","locality":"오전동","address":"의왕시 오전동 산32-6","owner_type":"경기도유지","owner_label":"경기도","manager":"건설국 도로정책과","property_class":"행정재산","land_category":"도로","area_sqm":5342.0,"area_band":"5,000㎡ 이상","interest_category":"도로","solar_candidate":"검토필요","candidate_reason":"도로점용 및 실제 이용형태 추가 검토 필요; 면적 5,342㎡","priority_score":40,"source":"경기부동산포털 국공유지조회·연속지적도","source_date":"2026-08-11","installed_solar_match":false}},{"type":"Feature","id":"4143010800101700006","geometry":{"type":"Point","coordinates":[127.0242389,37.3943881]},"properties":{"pnu":"4143010800101700006","municipality_code":"41430","municipality":"의왕시","district":"의왕시","locality":"청계동","address":"의왕시 청계동 170-6","owner_type":"경기도유지","owner_label":"경기도","manager":"건설국 도로정책과","property_class":"행정재산","land_category":"도로","area_sqm":5316.3,"area_band":"5,000㎡ 이상","interest_category":"도로","solar_candidate":"검토필요","candidate_reason":"도로점용 및 실제 이용형태 추가 검토 필요; 면적 5,316㎡","priority_score":40,"source":"경기부동산포털 국공유지조회·연속지적도","source_date":"2026-08-11","installed_solar_match":false}},{"type":"Feature","id":"4143010500201340003","geometry":{"type":"Point","coordinates":[126.9913762,37.353846]},"properties":{"pnu":"4143010500201340003","municipality_code":"41430","municipality":"의왕시","district":"의왕시","locality":"오전동","address":"의왕시 오전동 산134-3","owner_type":"경기도유지","owner_label":"경기도","manager":"건설국 도로정책과","property_class":"행정재산","land_category":"도로","area_sqm":5203.0,"area_band":"5,000㎡ 이상","interest_category":"도로","solar_candidate":"검토필요","candidate_reason":"도로점용 및 실제 이용형태 추가 검토 필요; 면적 5,203㎡","priority_score":40,"source":"경기부동산포털 국공유지조회·연속지적도","source_date":"2026-08-11","installed_solar_match":false}},{"type":"Feature","id":"4143010800106850002","geometry":{"type":"Point","coordinates":[127.0035547,37.398619]},"properties":{"pnu":"4143010800106850002","municipality_code":"41430","municipality":"의왕시","district":"의왕시","locality":"청계동","address":"의왕시 청계동 685-2","owner_type":"경기도유지","owner_label":"경기도","manager":"건설국 도로정책과","property_class":"행정재산","land_category":"도로","area_sqm":5117.0,"area_band":"5,000㎡ 이상","interest_category":"도로","solar_candidate":"검토필요","candidate_reason":"도로점용 및 실제 이용형태 추가 검토 필요; 면적 5,117㎡","priority_score":40,"source":"경기부동산포털 국공유지조회·연속지적도","source_date":"2026-08-11","installed_solar_match":false}},{"type":"Feature","id":"4143011000100120018","geometry":{"type":"Point","coordinates":[126.9662947,37.3170525]},"properties":{"pnu":"4143011000100120018","municipality_code":"41430","municipality":"의왕시","district":"의왕시","locality":"월암동","address":"의왕시 월암동 12-18","owner_type":"경기도유지","owner_label":"경기도","manager":"건설국 도로정책과","property_class":"행정재산","land_category":"도로","area_sqm":5000.4,"area_band":"5,000㎡ 이상","interest_category":"도로","solar_candidate":"검토필요","candidate_reason":"도로점용 및 실제 이용형태 추가 검토 필요; 면적 5,000㎡","priority_score":40,"source":"경기부동산포털 국공유지조회·연속지적도","source_date":"2026-08-11","installed_solar_match":false}},{"type":"Feature","id":"4143010400104940003","geometry":{"type":"Point","coordinates":[126.9800358,37.3361217]},"properties":{"pnu":"4143010400104940003","municipality_code":"41430","municipality":"의왕시","district":"의왕시","locality":"왕곡동","address":"의왕시 왕곡동 494-3","owner_type":"경기도유지","owner_label":"경기도","manager":"건설국 도로정책과","property_class":"행정재산","land_category":"대","area_sqm":388.0,"area_band":"100~500㎡","interest_category":"대","solar_candidate":"검토필요","candidate_reason":"청사·공공건축물·주차장 현황 추가 확인 필요; 면적 388㎡","priority_score":40,"source":"경기부동산포털 국공유지조회·연속지적도","source_date":"2026-08-11","installed_solar_match":false}},{"type":"Feature","id":"4143010900101650014","geometry":{"type":"Point","coordinates":[126.9877006,37.3902051]},"properties":{"pnu":"4143010900101650014","municipality_code":"41430","municipality":"의왕시","district":"의왕시","locality":"포일동","address":"의왕시 포일동 165-14","owner_type":"경기도유지","owner_label":"경기도","manager":"건설국 하천과","property_class":"행정재산","land_category":"대","area_sqm":371.0,"area_band":"100~500㎡","interest_category":"대","solar_candidate":"검토필요","candidate_reason":"청사·공공건축물·주차장 현황 추가 확인 필요; 면적 371㎡","priority_score":40,"source":"경기부동산포털 국공유지조회·연속지적도","source_date":"2026-08-11","installed_solar_match":false}},{"type":"Feature","id":"4143010400104860001","geometry":{"type":"Point","coordinates":[126.9808451,37.3352352]},"properties":{"pnu":"4143010400104860001","municipality_code":"41430","municipality":"의왕시","district":"의왕시","locality":"왕곡동","address":"의왕시 왕곡동 486-1","owner_type":"경기도유지","owner_label":"경기도","manager":"건설국 도로정책과","property_class":"행정재산","land_category":"대","area_sqm":348.0,"area_band":"100~500㎡","interest_category":"대","solar_candidate":"검토필요","candidate_reason":"청사·공공건축물·주차장 현황 추가 확인 필요; 면적 348㎡","priority_score":40,"source":"경기부동산포털 국공유지조회·연속지적도","source_date":"2026-08-11","installed_solar_match":false}},{"type":"Feature","id":"4143010800106470003","geometry":{"type":"Point","coordinates":[127.0019613,37.4018363]},"properties":{"pnu":"4143010800106470003","municipality_code":"41430","municipality":"의왕시","district":"의왕시","locality":"청계동","address":"의왕시 청계동 647-3","owner_type":"경기도유지","owner_label":"경기도","manager":"건설국 도로정책과","property_class":"행정재산","land_category":"대","area_sqm":204.0,"area_band":"100~500㎡","interest_category":"대","solar_candidate":"검토필요","candidate_reason":"청사·공공건축물·주차장 현황 추가 확인 필요; 면적 204㎡","priority_score":40,"source":"경기부동산포털 국공유지조회·연속지적도","source_date":"2026-08-11","installed_solar_match":false}},{"type":"Feature","id":"4143010500107240003","geometry":{"type":"Point","coordinates":[126.9976596,37.3574551]},"properties":{"pnu":"4143010500107240003","municipality_code":"41430","municipality":"의왕시","district":"의왕시","locality":"오전동","address":"의왕시 오전동 724-3","owner_type":"경기도유지","owner_label":"경기도","manager":"건설국 도로정책과","property_class":"행정재산","land_category":"대","area_sqm":197.0,"area_band":"100~500㎡","interest_category":"대","solar_candidate":"검토필요","candidate_reason":"청사·공공건축물·주차장 현황 추가 확인 필요; 면적 197㎡","priority_score":40,"source":"경기부동산포털 국공유지조회·연속지적도","source_date":"2026-08-11","installed_solar_match":false}},{"type":"Feature","id":"4143010400104900006","geometry":{"type":"Point","coordinates":[126.9807702,37.33572]},"properties":{"pnu":"4143010400104900006","municipality_code":"41430","municipality":"의왕시","district":"의왕시","locality":"왕곡동","address":"의왕시 왕곡동 490-6","owner_type":"경기도유지","owner_label":"경기도","manager":"건설국 도로정책과","property_class":"행정재산","land_category":"대","area_sqm":192.3,"area_band":"100~500㎡","interest_category":"대","solar_candidate":"검토필요","candidate_reason":"청사·공공건축물·주차장 현황 추가 확인 필요; 면적 192㎡","priority_score":40,"source":"경기부동산포털 국공유지조회·연속지적도","source_date":"2026-08-11","installed_solar_match":false}},{"type":"Feature","id":"4143010300105720002","geometry":{"type":"Point","coordinates":[126.949664,37.3152347]},"properties":{"pnu":"4143010300105720002","municipality_code":"41430","municipality":"의왕시","district":"의왕시","locality":"삼동","address":"의왕시 삼동 572-2","owner_type":"경기도유지","owner_label":"경기도(교육감)","manager":"","property_class":"","land_category":"대","area_sqm":171.0,"area_band":"100~500㎡","interest_category":"대","solar_candidate":"검토필요","candidate_reason":"청사·공공건축물·주차장 현황 추가 확인 필요; 면적 171㎡","priority_score":40,"source":"경기부동산포털 국공유지조회·연속지적도","source_date":"2026-08-11","installed_solar_match":false}},{"type":"Feature","id":"4143010800107080000","geometry":{"type":"Point","coordinates":[127.0038673,37.3956116]},"properties":{"pnu":"4143010800107080000","municipality_code":"41430","municipality":"의왕시","district":"의왕시","locality":"청계동","address":"의왕시 청계동 708","owner_type":"경기도유지","owner_label":"경기도","manager":"건설국 도로정책과","property_class":"행정재산","land_category":"대","area_sqm":133.0,"area_band":"100~500㎡","interest_category":"대","solar_candidate":"검토필요","candidate_reason":"청사·공공건축물·주차장 현황 추가 확인 필요; 면적 133㎡","priority_score":40,"source":"경기부동산포털 국공유지조회·연속지적도","source_date":"2026-08-11","installed_solar_match":false}},{"type":"Feature","id":"4143010400104820003","geometry":{"type":"Point","coordinates":[126.9811096,37.3346653]},"properties":{"pnu":"4143010400104820003","municipality_code":"41430","municipality":"의왕시","district":"의왕시","locality":"왕곡동","address":"의왕시 왕곡동 482-3","owner_type":"경기도유지","owner_label":"경기도","manager":"건설국 도로정책과","property_class":"행정재산","land_category":"대","area_sqm":130.0,"area_band":"100~500㎡","interest_category":"대","solar_candidate":"검토필요","candidate_reason":"청사·공공건축물·주차장 현황 추가 확인 필요; 면적 130㎡","priority_score":40,"source":"경기부동산포털 국공유지조회·연속지적도","source_date":"2026-08-11","installed_solar_match":false}},{"type":"Feature","id":"4143010100104390206","geometry":{"type":"Point","coordinates":[126.9687089,37.3521012]},"properties":{"pnu":"4143010100104390206","municipality_code":"41430","municipality":"의왕시","district":"의왕시","locality":"고천동","address":"의왕시 고천동 439-206","owner_type":"경기도유지","owner_label":"경기도","manager":"건설국 도로정책과","property_class":"행정재산","land_category":"공장용지","area_sqm":103.0,"area_band":"100~500㎡","interest_category":"공장용지","solar_candidate":"검토필요","candidate_reason":"지목·면적 기준 1차 검토 대상; 면적 103㎡","priority_score":37,"source":"경기부동산포털 국공유지조회·연속지적도","source_date":"2026-08-11","installed_solar_match":false}},{"type":"Feature","id":"4143010800101340002","geometry":{"type":"Point","coordinates":[127.0330546,37.3933717]},"properties":{"pnu":"4143010800101340002","municipality_code":"41430","municipality":"의왕시","district":"의왕시","locality":"청계동","address":"의왕시 청계동 134-2","owner_type":"경기도유지","owner_label":"경기도","manager":"건설국 도로정책과","property_class":"행정재산","land_category":"도로","area_sqm":4881.0,"area_band":"3,000~5,000㎡","interest_category":"도로","solar_candidate":"검토필요","candidate_reason":"도로점용 및 실제 이용형태 추가 검토 필요; 면적 4,881㎡","priority_score":35,"source":"경기부동산포털 국공유지조회·연속지적도","source_date":"2026-08-11","installed_solar_match":false}},{"type":"Feature","id":"4143010900200010006","geometry":{"type":"Point","coordinates":[126.9992855,37.4044368]},"properties":{"pnu":"4143010900200010006","municipality_code":"41430","municipality":"의왕시","district":"의왕시","locality":"포일동","address":"의왕시 포일동 산1-6","owner_type":"경기도유지","owner_label":"경기도","manager":"건설국 도로정책과","property_class":"행정재산","land_category":"도로","area_sqm":4848.0,"area_band":"3,000~5,000㎡","interest_category":"도로","solar_candidate":"검토필요","candidate_reason":"도로점용 및 실제 이용형태 추가 검토 필요; 면적 4,848㎡","priority_score":35,"source":"경기부동산포털 국공유지조회·연속지적도","source_date":"2026-08-11","installed_solar_match":false}},{"type":"Feature","id":"4143010700201510017","geometry":{"type":"Point","coordinates":[126.9982161,37.3722668]},"properties":{"pnu":"4143010700201510017","municipality_code":"41430","municipality":"의왕시","district":"의왕시","locality":"내손동","address":"의왕시 내손동 산151-17","owner_type":"경기도유지","owner_label":"경기도","manager":"건설국 도로정책과","property_class":"행정재산","land_category":"도로","area_sqm":4726.0,"area_band":"3,000~5,000㎡","interest_category":"도로","solar_candidate":"검토필요","candidate_reason":"도로점용 및 실제 이용형태 추가 검토 필요; 면적 4,726㎡","priority_score":35,"source":"경기부동산포털 국공유지조회·연속지적도","source_date":"2026-08-11","installed_solar_match":false}},{"type":"Feature","id":"4143010800107030000","geometry":{"type":"Point","coordinates":[127.0042563,37.3961926]},"properties":{"pnu":"4143010800107030000","municipality_code":"41430","municipality":"의왕시","district":"의왕시","locality":"청계동","address":"의왕시 청계동 703","owner_type":"경기도유지","owner_label":"경기도","manager":"건설국 도로정책과","property_class":"행정재산","land_category":"도로","area_sqm":4717.0,"area_band":"3,000~5,000㎡","interest_category":"도로","solar_candidate":"검토필요","candidate_reason":"도로점용 및 실제 이용형태 추가 검토 필요; 면적 4,717㎡","priority_score":35,"source":"경기부동산포털 국공유지조회·연속지적도","source_date":"2026-08-11","installed_solar_match":false}},{"type":"Feature","id":"4143010700201480001","geometry":{"type":"Point","coordinates":[126.9983406,37.3791343]},"properties":{"pnu":"4143010700201480001","municipality_code":"41430","municipality":"의왕시","district":"의왕시","locality":"내손동","address":"의왕시 내손동 산148-1","owner_type":"경기도유지","owner_label":"경기도","manager":"건설국 도로정책과","property_class":"행정재산","land_category":"도로","area_sqm":4703.0,"area_band":"3,000~5,000㎡","interest_category":"도로","solar_candidate":"검토필요","candidate_reason":"도로점용 및 실제 이용형태 추가 검토 필요; 면적 4,703㎡","priority_score":35,"source":"경기부동산포털 국공유지조회·연속지적도","source_date":"2026-08-11","installed_solar_match":false}},{"type":"Feature","id":"4143010200105390003","geometry":{"type":"Point","coordinates":[126.9671167,37.3312277]},"properties":{"pnu":"4143010200105390003","municipality_code":"41430","municipality":"의왕시","district":"의왕시","locality":"이동","address":"의왕시 이동 539-3","owner_type":"경기도유지","owner_label":"경기도","manager":"건설국 도로정책과","property_class":"행정재산","land_category":"도로","area_sqm":4657.0,"area_band":"3,000~5,000㎡","interest_category":"도로","solar_candidate":"검토필요","candidate_reason":"도로점용 및 실제 이용형태 추가 검토 필요; 면적 4,657㎡","priority_score":35,"source":"경기부동산포털 국공유지조회·연속지적도","source_date":"2026-08-11","installed_solar_match":false}},{"type":"Feature","id":"4143010400200330004","geometry":{"type":"Point","coordinates":[126.9856084,37.3492093]},"properties":{"pnu":"4143010400200330004","municipality_code":"41430","municipality":"의왕시","district":"의왕시","locality":"왕곡동","address":"의왕시 왕곡동 산33-4","owner_type":"경기도유지","owner_label":"경기도","manager":"건설국 도로정책과","property_class":"행정재산","land_category":"도로","area_sqm":4584.0,"area_band":"3,000~5,000㎡","interest_category":"도로","solar_candidate":"검토필요","candidate_reason":"도로점용 및 실제 이용형태 추가 검토 필요; 면적 4,584㎡","priority_score":35,"source":"경기부동산포털 국공유지조회·연속지적도","source_date":"2026-08-11","installed_solar_match":false}},{"type":"Feature","id":"4143010500107010000","geometry":{"type":"Point","coordinates":[126.9991672,37.3598194]},"properties":{"pnu":"4143010500107010000","municipality_code":"41430","municipality":"의왕시","district":"의왕시","locality":"오전동","address":"의왕시 오전동 701","owner_type":"경기도유지","owner_label":"경기도","manager":"건설국 도로정책과","property_class":"행정재산","land_category":"도로","area_sqm":4500.0,"area_band":"3,000~5,000㎡","interest_category":"도로","solar_candidate":"검토필요","candidate_reason":"도로점용 및 실제 이용형태 추가 검토 필요; 면적 4,500㎡","priority_score":35,"source":"경기부동산포털 국공유지조회·연속지적도","source_date":"2026-08-11","installed_solar_match":false}},{"type":"Feature","id":"4143011000100050001","geometry":{"type":"Point","coordinates":[126.9664893,37.3151503]},"properties":{"pnu":"4143011000100050001","municipality_code":"41430","municipality":"의왕시","district":"의왕시","locality":"월암동","address":"의왕시 월암동 5-1","owner_type":"경기도유지","owner_label":"경기도","manager":"건설국 도로정책과","property_class":"행정재산","land_category":"도로","area_sqm":4193.0,"area_band":"3,000~5,000㎡","interest_category":"도로","solar_candidate":"검토필요","candidate_reason":"도로점용 및 실제 이용형태 추가 검토 필요; 면적 4,193㎡","priority_score":35,"source":"경기부동산포털 국공유지조회·연속지적도","source_date":"2026-08-11","installed_solar_match":false}},{"type":"Feature","id":"4143011000100020007","geometry":{"type":"Point","coordinates":[126.9663584,37.3160048]},"properties":{"pnu":"4143011000100020007","municipality_code":"41430","municipality":"의왕시","district":"의왕시","locality":"월암동","address":"의왕시 월암동 2-7","owner_type":"경기도유지","owner_label":"경기도","manager":"건설국 도로정책과","property_class":"행정재산","land_category":"도로","area_sqm":4179.3,"area_band":"3,000~5,000㎡","interest_category":"도로","solar_candidate":"검토필요","candidate_reason":"도로점용 및 실제 이용형태 추가 검토 필요; 면적 4,179㎡","priority_score":35,"source":"경기부동산포털 국공유지조회·연속지적도","source_date":"2026-08-11","installed_solar_match":false}},{"type":"Feature","id":"4143010800101460000","geometry":{"type":"Point","coordinates":[127.0274556,37.3939186]},"properties":{"pnu":"4143010800101460000","municipality_code":"41430","municipality":"의왕시","district":"의왕시","locality":"청계동","address":"의왕시 청계동 146","owner_type":"경기도유지","owner_label":"경기도","manager":"건설국 도로정책과","property_class":"행정재산","land_category":"도로","area_sqm":4118.0,"area_band":"3,000~5,000㎡","interest_category":"도로","solar_candidate":"검토필요","candidate_reason":"도로점용 및 실제 이용형태 추가 검토 필요; 면적 4,118㎡","priority_score":35,"source":"경기부동산포털 국공유지조회·연속지적도","source_date":"2026-08-11","installed_solar_match":false}},{"type":"Feature","id":"4143010800106850006","geometry":{"type":"Point","coordinates":[127.0039508,37.3977387]},"properties":{"pnu":"4143010800106850006","municipality_code":"41430","municipality":"의왕시","district":"의왕시","locality":"청계동","address":"의왕시 청계동 685-6","owner_type":"경기도유지","owner_label":"경기도","manager":"건설국 도로정책과","property_class":"행정재산","land_category":"도로","area_sqm":4110.0,"area_band":"3,000~5,000㎡","interest_category":"도로","solar_candidate":"검토필요","candidate_reason":"도로점용 및 실제 이용형태 추가 검토 필요; 면적 4,110㎡","priority_score":35,"source":"경기부동산포털 국공유지조회·연속지적도","source_date":"2026-08-11","installed_solar_match":false}},{"type":"Feature","id":"4143010400102600004","geometry":{"type":"Point","coordinates":[126.9826572,37.348369]},"properties":{"pnu":"4143010400102600004","municipality_code":"41430","municipality":"의왕시","district":"의왕시","locality":"왕곡동","address":"의왕시 왕곡동 260-4","owner_type":"경기도유지","owner_label":"경기도","manager":"건설국 도로정책과","property_class":"행정재산","land_category":"도로","area_sqm":4106.0,"area_band":"3,000~5,000㎡","interest_category":"도로","solar_candidate":"검토필요","candidate_reason":"도로점용 및 실제 이용형태 추가 검토 필요; 면적 4,106㎡","priority_score":35,"source":"경기부동산포털 국공유지조회·연속지적도","source_date":"2026-08-11","installed_solar_match":false}},{"type":"Feature","id":"4143010300200060009","geometry":{"type":"Point","coordinates":[126.9651674,37.3253961]},"properties":{"pnu":"4143010300200060009","municipality_code":"41430","municipality":"의왕시","district":"의왕시","locality":"삼동","address":"의왕시 삼동 산6-9","owner_type":"경기도유지","owner_label":"경기도","manager":"건설국 도로정책과","property_class":"행정재산","land_category":"도로","area_sqm":4102.0,"area_band":"3,000~5,000㎡","interest_category":"도로","solar_candidate":"검토필요","candidate_reason":"도로점용 및 실제 이용형태 추가 검토 필요; 면적 4,102㎡","priority_score":35,"source":"경기부동산포털 국공유지조회·연속지적도","source_date":"2026-08-11","installed_solar_match":false}},{"type":"Feature","id":"4143010300100070000","geometry":{"type":"Point","coordinates":[126.9659785,37.3201896]},"properties":{"pnu":"4143010300100070000","municipality_code":"41430","municipality":"의왕시","district":"의왕시","locality":"삼동","address":"의왕시 삼동 7","owner_type":"경기도유지","owner_label":"경기도","manager":"건설국 도로정책과","property_class":"행정재산","land_category":"도로","area_sqm":4032.0,"area_band":"3,000~5,000㎡","interest_category":"도로","solar_candidate":"검토필요","candidate_reason":"도로점용 및 실제 이용형태 추가 검토 필요; 면적 4,032㎡","priority_score":35,"source":"경기부동산포털 국공유지조회·연속지적도","source_date":"2026-08-11","installed_solar_match":false}},{"type":"Feature","id":"4143010500106460009","geometry":{"type":"Point","coordinates":[126.9952524,37.3566285]},"properties":{"pnu":"4143010500106460009","municipality_code":"41430","municipality":"의왕시","district":"의왕시","locality":"오전동","address":"의왕시 오전동 646-9","owner_type":"경기도유지","owner_label":"경기도","manager":"건설국 도로정책과","property_class":"행정재산","land_category":"도로","area_sqm":3948.0,"area_band":"3,000~5,000㎡","interest_category":"도로","solar_candidate":"검토필요","candidate_reason":"도로점용 및 실제 이용형태 추가 검토 필요; 면적 3,948㎡","priority_score":35,"source":"경기부동산포털 국공유지조회·연속지적도","source_date":"2026-08-11","installed_solar_match":false}},{"type":"Feature","id":"4143010800106620001","geometry":{"type":"Point","coordinates":[127.0011453,37.4018808]},"properties":{"pnu":"4143010800106620001","municipality_code":"41430","municipality":"의왕시","district":"의왕시","locality":"청계동","address":"의왕시 청계동 662-1","owner_type":"경기도유지","owner_label":"경기도","manager":"건설국 도로정책과","property_class":"행정재산","land_category":"도로","area_sqm":3918.0,"area_band":"3,000~5,000㎡","interest_category":"도로","solar_candidate":"검토필요","candidate_reason":"도로점용 및 실제 이용형태 추가 검토 필요; 면적 3,918㎡","priority_score":35,"source":"경기부동산포털 국공유지조회·연속지적도","source_date":"2026-08-11","installed_solar_match":false}},{"type":"Feature","id":"4143010600109510000","geometry":{"type":"Point","coordinates":[126.9996089,37.3649414]},"properties":{"pnu":"4143010600109510000","municipality_code":"41430","municipality":"의왕시","district":"의왕시","locality":"학의동","address":"의왕시 학의동 951","owner_type":"경기도유지","owner_label":"경기도","manager":"건설국 도로정책과","property_class":"행정재산","land_category":"도로","area_sqm":3901.0,"area_band":"3,000~5,000㎡","interest_category":"도로","solar_candidate":"검토필요","candidate_reason":"도로점용 및 실제 이용형태 추가 검토 필요; 면적 3,901㎡","priority_score":35,"source":"경기부동산포털 국공유지조회·연속지적도","source_date":"2026-08-11","installed_solar_match":false}},{"type":"Feature","id":"4143010600200960036","geometry":{"type":"Point","coordinates":[126.9988207,37.3650989]},"properties":{"pnu":"4143010600200960036","municipality_code":"41430","municipality":"의왕시","district":"의왕시","locality":"학의동","address":"의왕시 학의동 산96-36","owner_type":"경기도유지","owner_label":"경기도","manager":"건설국 도로정책과","property_class":"행정재산","land_category":"도로","area_sqm":3898.0,"area_band":"3,000~5,000㎡","interest_category":"도로","solar_candidate":"검토필요","candidate_reason":"도로점용 및 실제 이용형태 추가 검토 필요; 면적 3,898㎡","priority_score":35,"source":"경기부동산포털 국공유지조회·연속지적도","source_date":"2026-08-11","installed_solar_match":false}},{"type":"Feature","id":"4143010800101430001","geometry":{"type":"Point","coordinates":[127.0291863,37.3939726]},"properties":{"pnu":"4143010800101430001","municipality_code":"41430","municipality":"의왕시","district":"의왕시","locality":"청계동","address":"의왕시 청계동 143-1","owner_type":"경기도유지","owner_label":"경기도","manager":"건설국 도로정책과","property_class":"행정재산","land_category":"도로","area_sqm":3877.0,"area_band":"3,000~5,000㎡","interest_category":"도로","solar_candidate":"검토필요","candidate_reason":"도로점용 및 실제 이용형태 추가 검토 필요; 면적 3,877㎡","priority_score":35,"source":"경기부동산포털 국공유지조회·연속지적도","source_date":"2026-08-11","installed_solar_match":false}},{"type":"Feature","id":"4143010400102660004","geometry":{"type":"Point","coordinates":[126.9830848,37.346045]},"properties":{"pnu":"4143010400102660004","municipality_code":"41430","municipality":"의왕시","district":"의왕시","locality":"왕곡동","address":"의왕시 왕곡동 266-4","owner_type":"경기도유지","owner_label":"경기도","manager":"건설국 도로정책과","property_class":"행정재산","land_category":"도로","area_sqm":3835.0,"area_band":"3,000~5,000㎡","interest_category":"도로","solar_candidate":"검토필요","candidate_reason":"도로점용 및 실제 이용형태 추가 검토 필요; 면적 3,835㎡","priority_score":35,"source":"경기부동산포털 국공유지조회·연속지적도","source_date":"2026-08-11","installed_solar_match":false}},{"type":"Feature","id":"4143010400102290000","geometry":{"type":"Point","coordinates":[126.9856898,37.3471668]},"properties":{"pnu":"4143010400102290000","municipality_code":"41430","municipality":"의왕시","district":"의왕시","locality":"왕곡동","address":"의왕시 왕곡동 229","owner_type":"경기도유지","owner_label":"경기도","manager":"건설국 도로정책과","property_class":"행정재산","land_category":"도로","area_sqm":3756.0,"area_band":"3,000~5,000㎡","interest_category":"도로","solar_candidate":"검토필요","candidate_reason":"도로점용 및 실제 이용형태 추가 검토 필요; 면적 3,756㎡","priority_score":35,"source":"경기부동산포털 국공유지조회·연속지적도","source_date":"2026-08-11","installed_solar_match":false}},{"type":"Feature","id":"4143010500201370010","geometry":{"type":"Point","coordinates":[126.9896684,37.3526585]},"properties":{"pnu":"4143010500201370010","municipality_code":"41430","municipality":"의왕시","district":"의왕시","locality":"오전동","address":"의왕시 오전동 산137-10","owner_type":"경기도유지","owner_label":"경기도","manager":"건설국 도로정책과","property_class":"행정재산","land_category":"도로","area_sqm":3740.0,"area_band":"3,000~5,000㎡","interest_category":"도로","solar_candidate":"검토필요","candidate_reason":"도로점용 및 실제 이용형태 추가 검토 필요; 면적 3,740㎡","priority_score":35,"source":"경기부동산포털 국공유지조회·연속지적도","source_date":"2026-08-11","installed_solar_match":false}},{"type":"Feature","id":"4143010600102650003","geometry":{"type":"Point","coordinates":[126.9988652,37.3800992]},"properties":{"pnu":"4143010600102650003","municipality_code":"41430","municipality":"의왕시","district":"의왕시","locality":"학의동","address":"의왕시 학의동 265-3","owner_type":"경기도유지","owner_label":"경기도","manager":"건설국 도로정책과","property_class":"행정재산","land_category":"도로","area_sqm":3659.0,"area_band":"3,000~5,000㎡","interest_category":"도로","solar_candidate":"검토필요","candidate_reason":"도로점용 및 실제 이용형태 추가 검토 필요; 면적 3,659㎡","priority_score":35,"source":"경기부동산포털 국공유지조회·연속지적도","source_date":"2026-08-11","installed_solar_match":false}},{"type":"Feature","id":"4143010100100490008","geometry":{"type":"Point","coordinates":[126.9782138,37.3410683]},"properties":{"pnu":"4143010100100490008","municipality_code":"41430","municipality":"의왕시","district":"의왕시","locality":"고천동","address":"의왕시 고천동 49-8","owner_type":"경기도유지","owner_label":"경기도","manager":"건설국 도로정책과","property_class":"행정재산","land_category":"도로","area_sqm":3619.0,"area_band":"3,000~5,000㎡","interest_category":"도로","solar_candidate":"검토필요","candidate_reason":"도로점용 및 실제 이용형태 추가 검토 필요; 면적 3,619㎡","priority_score":35,"source":"경기부동산포털 국공유지조회·연속지적도","source_date":"2026-08-11","installed_solar_match":false}},{"type":"Feature","id":"4143010500201280001","geometry":{"type":"Point","coordinates":[126.9910802,37.3541081]},"properties":{"pnu":"4143010500201280001","municipality_code":"41430","municipality":"의왕시","district":"의왕시","locality":"오전동","address":"의왕시 오전동 산128-1","owner_type":"경기도유지","owner_label":"경기도","manager":"건설국 도로정책과","property_class":"행정재산","land_category":"도로","area_sqm":3546.0,"area_band":"3,000~5,000㎡","interest_category":"도로","solar_candidate":"검토필요","candidate_reason":"도로점용 및 실제 이용형태 추가 검토 필요; 면적 3,546㎡","priority_score":35,"source":"경기부동산포털 국공유지조회·연속지적도","source_date":"2026-08-11","installed_solar_match":false}},{"type":"Feature","id":"4143010900104400008","geometry":{"type":"Point","coordinates":[126.9822047,37.3973988]},"properties":{"pnu":"4143010900104400008","municipality_code":"41430","municipality":"의왕시","district":"의왕시","locality":"포일동","address":"의왕시 포일동 440-8","owner_type":"경기도유지","owner_label":"경기도","manager":"건설국 도로정책과","property_class":"행정재산","land_category":"도로","area_sqm":3440.0,"area_band":"3,000~5,000㎡","interest_category":"도로","solar_candidate":"검토필요","candidate_reason":"도로점용 및 실제 이용형태 추가 검토 필요; 면적 3,440㎡","priority_score":35,"source":"경기부동산포털 국공유지조회·연속지적도","source_date":"2026-08-11","installed_solar_match":false}},{"type":"Feature","id":"4143010900200010005","geometry":{"type":"Point","coordinates":[126.9986063,37.4041535]},"properties":{"pnu":"4143010900200010005","municipality_code":"41430","municipality":"의왕시","district":"의왕시","locality":"포일동","address":"의왕시 포일동 산1-5","owner_type":"경기도유지","owner_label":"경기도","manager":"건설국 도로정책과","property_class":"행정재산","land_category":"도로","area_sqm":3374.0,"area_band":"3,000~5,000㎡","interest_category":"도로","solar_candidate":"검토필요","candidate_reason":"도로점용 및 실제 이용형태 추가 검토 필요; 면적 3,374㎡","priority_score":35,"source":"경기부동산포털 국공유지조회·연속지적도","source_date":"2026-08-11","installed_solar_match":false}},{"type":"Feature","id":"4143010600101870002","geometry":{"type":"Point","coordinates":[127.0107459,37.3921986]},"properties":{"pnu":"4143010600101870002","municipality_code":"41430","municipality":"의왕시","district":"의왕시","locality":"학의동","address":"의왕시 학의동 187-2","owner_type":"경기도유지","owner_label":"경기도","manager":"건설국 도로정책과","property_class":"행정재산","land_category":"도로","area_sqm":3327.0,"area_band":"3,000~5,000㎡","interest_category":"도로","solar_candidate":"검토필요","candidate_reason":"도로점용 및 실제 이용형태 추가 검토 필요; 면적 3,327㎡","priority_score":35,"source":"경기부동산포털 국공유지조회·연속지적도","source_date":"2026-08-11","installed_solar_match":false}},{"type":"Feature","id":"4143010800106590004","geometry":{"type":"Point","coordinates":[127.0023335,37.4005832]},"properties":{"pnu":"4143010800106590004","municipality_code":"41430","municipality":"의왕시","district":"의왕시","locality":"청계동","address":"의왕시 청계동 659-4","owner_type":"경기도유지","owner_label":"경기도","manager":"건설국 도로정책과","property_class":"행정재산","land_category":"도로","area_sqm":3298.0,"area_band":"3,000~5,000㎡","interest_category":"도로","solar_candidate":"검토필요","candidate_reason":"도로점용 및 실제 이용형태 추가 검토 필요; 면적 3,298㎡","priority_score":35,"source":"경기부동산포털 국공유지조회·연속지적도","source_date":"2026-08-11","installed_solar_match":false}},{"type":"Feature","id":"4143010500104540001","geometry":{"type":"Point","coordinates":[126.9903492,37.3531649]},"properties":{"pnu":"4143010500104540001","municipality_code":"41430","municipality":"의왕시","district":"의왕시","locality":"오전동","address":"의왕시 오전동 454-1","owner_type":"경기도유지","owner_label":"경기도","manager":"건설국 도로정책과","property_class":"행정재산","land_category":"도로","area_sqm":3227.0,"area_band":"3,000~5,000㎡","interest_category":"도로","solar_candidate":"검토필요","candidate_reason":"도로점용 및 실제 이용형태 추가 검토 필요; 면적 3,227㎡","priority_score":35,"source":"경기부동산포털 국공유지조회·연속지적도","source_date":"2026-08-11","installed_solar_match":false}},{"type":"Feature","id":"4143010800101750002","geometry":{"type":"Point","coordinates":[127.02525,37.3943728]},"properties":{"pnu":"4143010800101750002","municipality_code":"41430","municipality":"의왕시","district":"의왕시","locality":"청계동","address":"의왕시 청계동 175-2","owner_type":"경기도유지","owner_label":"경기도","manager":"건설국 도로정책과","property_class":"행정재산","land_category":"도로","area_sqm":3222.2,"area_band":"3,000~5,000㎡","interest_category":"도로","solar_candidate":"검토필요","candidate_reason":"도로점용 및 실제 이용형태 추가 검토 필요; 면적 3,222㎡","priority_score":35,"source":"경기부동산포털 국공유지조회·연속지적도","source_date":"2026-08-11","installed_solar_match":false}},{"type":"Feature","id":"4143010600200310006","geometry":{"type":"Point","coordinates":[127.0067093,37.3909795]},"properties":{"pnu":"4143010600200310006","municipality_code":"41430","municipality":"의왕시","district":"의왕시","locality":"학의동","address":"의왕시 학의동 산31-6","owner_type":"경기도유지","owner_label":"경기도","manager":"건설국 도로정책과","property_class":"행정재산","land_category":"도로","area_sqm":3095.0,"area_band":"3,000~5,000㎡","interest_category":"도로","solar_candidate":"검토필요","candidate_reason":"도로점용 및 실제 이용형태 추가 검토 필요; 면적 3,095㎡","priority_score":35,"source":"경기부동산포털 국공유지조회·연속지적도","source_date":"2026-08-11","installed_solar_match":false}},{"type":"Feature","id":"4143010200200840001","geometry":{"type":"Point","coordinates":[126.9656427,37.3267843]},"properties":{"pnu":"4143010200200840001","municipality_code":"41430","municipality":"의왕시","district":"의왕시","locality":"이동","address":"의왕시 이동 산84-1","owner_type":"경기도유지","owner_label":"경기도","manager":"건설국 도로정책과","property_class":"행정재산","land_category":"도로","area_sqm":3088.0,"area_band":"3,000~5,000㎡","interest_category":"도로","solar_candidate":"검토필요","candidate_reason":"도로점용 및 실제 이용형태 추가 검토 필요; 면적 3,088㎡","priority_score":35,"source":"경기부동산포털 국공유지조회·연속지적도","source_date":"2026-08-11","installed_solar_match":false}},{"type":"Feature","id":"4143010400102250000","geometry":{"type":"Point","coordinates":[126.9859582,37.3484039]},"properties":{"pnu":"4143010400102250000","municipality_code":"41430","municipality":"의왕시","district":"의왕시","locality":"왕곡동","address":"의왕시 왕곡동 225","owner_type":"경기도유지","owner_label":"경기도","manager":"건설국 도로정책과","property_class":"행정재산","land_category":"도로","area_sqm":3082.0,"area_band":"3,000~5,000㎡","interest_category":"도로","solar_candidate":"검토필요","candidate_reason":"도로점용 및 실제 이용형태 추가 검토 필요; 면적 3,082㎡","priority_score":35,"source":"경기부동산포털 국공유지조회·연속지적도","source_date":"2026-08-11","installed_solar_match":false}},{"type":"Feature","id":"4143010600109250003","geometry":{"type":"Point","coordinates":[126.9992001,37.3673752]},"properties":{"pnu":"4143010600109250003","municipality_code":"41430","municipality":"의왕시","district":"의왕시","locality":"학의동","address":"의왕시 학의동 925-3","owner_type":"경기도유지","owner_label":"경기도","manager":"건설국 도로정책과","property_class":"행정재산","land_category":"도로","area_sqm":3054.0,"area_band":"3,000~5,000㎡","interest_category":"도로","solar_candidate":"검토필요","candidate_reason":"도로점용 및 실제 이용형태 추가 검토 필요; 면적 3,054㎡","priority_score":35,"source":"경기부동산포털 국공유지조회·연속지적도","source_date":"2026-08-11","installed_solar_match":false}},{"type":"Feature","id":"4143010600200960042","geometry":{"type":"Point","coordinates":[126.9978395,37.3677309]},"properties":{"pnu":"4143010600200960042","municipality_code":"41430","municipality":"의왕시","district":"의왕시","locality":"학의동","address":"의왕시 학의동 산96-42","owner_type":"경기도유지","owner_label":"경기도","manager":"건설국 도로정책과","property_class":"행정재산","land_category":"도로","area_sqm":3013.0,"area_band":"3,000~5,000㎡","interest_category":"도로","solar_candidate":"검토필요","candidate_reason":"도로점용 및 실제 이용형태 추가 검토 필요; 면적 3,013㎡","priority_score":35,"source":"경기부동산포털 국공유지조회·연속지적도","source_date":"2026-08-11","installed_solar_match":false}},{"type":"Feature","id":"4143010700201510018","geometry":{"type":"Point","coordinates":[126.9975292,37.3712939]},"properties":{"pnu":"4143010700201510018","municipality_code":"41430","municipality":"의왕시","district":"의왕시","locality":"내손동","address":"의왕시 내손동 산151-18","owner_type":"경기도유지","owner_label":"경기도","manager":"건설국 도로정책과","property_class":"행정재산","land_category":"도로","area_sqm":3002.0,"area_band":"3,000~5,000㎡","interest_category":"도로","solar_candidate":"검토필요","candidate_reason":"도로점용 및 실제 이용형태 추가 검토 필요; 면적 3,002㎡","priority_score":35,"source":"경기부동산포털 국공유지조회·연속지적도","source_date":"2026-08-11","installed_solar_match":false}}]}