{"type":"FeatureCollection","name":"gyeonggi_41450_province_solar_candidates","metadata":{"generated_on":"2026-08-11","source":"경기부동산포털 국공유지조회·연속지적도","source_agency":"경기도","ownership_source":"경기부동산포털 국공유지조회","coverage":"하남시","owner_code":"4","owner_type":"경기도유지","minimum_area_sqm":100.0,"feature_count":26,"coordinate_reference":"GRIS native values interpreted as EPSG:5174 and projected to EPSG:4326","coordinate_precision":"7 decimals, increased only when needed to keep narrow-parcel points inside","disclaimer":"설치 가능 확정이 아닌 현장조사 우선순위"},"features":[{"type":"Feature","id":"4145011100105410099","geometry":{"type":"Point","coordinates":[127.2051688,37.5779634]},"properties":{"pnu":"4145011100105410099","municipality_code":"41450","municipality":"하남시","district":"하남시","locality":"미사동","address":"하남시 미사동 541-99","owner_type":"경기도유지","owner_label":"경기도","manager":"건설국 하천과","property_class":"행정재산","land_category":"잡종지","area_sqm":13580.0,"area_band":"5,000㎡ 이상","interest_category":"잡종지","solar_candidate":"Y","candidate_reason":"실제 이용·점유 여부 확인 후 검토할 잡종지; 면적 13,580㎡","priority_score":75,"source":"경기부동산포털 국공유지조회·연속지적도","source_date":"2026-08-11","installed_solar_match":false}},{"type":"Feature","id":"4145011100105350020","geometry":{"type":"Point","coordinates":[127.2063038,37.5766669]},"properties":{"pnu":"4145011100105350020","municipality_code":"41450","municipality":"하남시","district":"하남시","locality":"미사동","address":"하남시 미사동 535-20","owner_type":"경기도유지","owner_label":"경기도","manager":"건설국 하천과","property_class":"행정재산","land_category":"잡종지","area_sqm":12325.0,"area_band":"5,000㎡ 이상","interest_category":"잡종지","solar_candidate":"Y","candidate_reason":"실제 이용·점유 여부 확인 후 검토할 잡종지; 면적 12,325㎡","priority_score":75,"source":"경기부동산포털 국공유지조회·연속지적도","source_date":"2026-08-11","installed_solar_match":false}},{"type":"Feature","id":"4145010100106030035","geometry":{"type":"Point","coordinates":[127.2017198,37.5322519]},"properties":{"pnu":"4145010100106030035","municipality_code":"41450","municipality":"하남시","district":"하남시","locality":"천현동","address":"하남시 천현동 603-35","owner_type":"경기도유지","owner_label":"경기도","manager":"건설국 하천과","property_class":"일반재산","land_category":"잡종지","area_sqm":599.0,"area_band":"500~1,000㎡","interest_category":"잡종지","solar_candidate":"Y","candidate_reason":"실제 이용·점유 여부 확인 후 검토할 잡종지; 면적 599㎡","priority_score":70,"source":"경기부동산포털 국공유지조회·연속지적도","source_date":"2026-08-11","installed_solar_match":false}},{"type":"Feature","id":"4145010100106030001","geometry":{"type":"Point","coordinates":[127.2015647,37.5323287]},"properties":{"pnu":"4145010100106030001","municipality_code":"41450","municipality":"하남시","district":"하남시","locality":"천현동","address":"하남시 천현동 603-1","owner_type":"경기도유지","owner_label":"경기도","manager":"건설국 하천과","property_class":"일반재산","land_category":"잡종지","area_sqm":312.0,"area_band":"100~500㎡","interest_category":"잡종지","solar_candidate":"Y","candidate_reason":"실제 이용·점유 여부 확인 후 검토할 잡종지; 면적 312㎡","priority_score":65,"source":"경기부동산포털 국공유지조회·연속지적도","source_date":"2026-08-11","installed_solar_match":false}},{"type":"Feature","id":"4145011100105420007","geometry":{"type":"Point","coordinates":[127.203602,37.5799643]},"properties":{"pnu":"4145011100105420007","municipality_code":"41450","municipality":"하남시","district":"하남시","locality":"미사동","address":"하남시 미사동 542-7","owner_type":"경기도유지","owner_label":"경기도","manager":"건설국 도로정책과","property_class":"행정재산","land_category":"잡종지","area_sqm":2436.0,"area_band":"1,000~3,000㎡","interest_category":"잡종지","solar_candidate":"Y","candidate_reason":"실제 이용·점유 여부 확인 후 검토할 잡종지; 면적 2,436㎡","priority_score":63,"source":"경기부동산포털 국공유지조회·연속지적도","source_date":"2026-08-11","installed_solar_match":false}},{"type":"Feature","id":"4145010200105480006","geometry":{"type":"Point","coordinates":[127.2289377,37.5016925]},"properties":{"pnu":"4145010200105480006","municipality_code":"41450","municipality":"하남시","district":"하남시","locality":"하산곡동","address":"하남시 하산곡동 548-6","owner_type":"경기도유지","owner_label":"경기도","manager":"건설국 하천과","property_class":"행정재산","land_category":"잡종지","area_sqm":2056.0,"area_band":"1,000~3,000㎡","interest_category":"잡종지","solar_candidate":"Y","candidate_reason":"실제 이용·점유 여부 확인 후 검토할 잡종지; 면적 2,056㎡","priority_score":63,"source":"경기부동산포털 국공유지조회·연속지적도","source_date":"2026-08-11","installed_solar_match":false}},{"type":"Feature","id":"4145010600105280001","geometry":{"type":"Point","coordinates":[127.2203164,37.5398471]},"properties":{"pnu":"4145010600105280001","municipality_code":"41450","municipality":"하남시","district":"하남시","locality":"신장동","address":"하남시 신장동 528-1","owner_type":"경기도유지","owner_label":"경기도","manager":"소방재난본부 회계장비담당관","property_class":"행정재산","land_category":"대","area_sqm":3244.0,"area_band":"3,000~5,000㎡","interest_category":"대","solar_candidate":"Y","candidate_reason":"청사·공공건축물·주차장 현황 추가 확인 필요; 면적 3,244㎡","priority_score":60,"source":"경기부동산포털 국공유지조회·연속지적도","source_date":"2026-08-11","installed_solar_match":false}},{"type":"Feature","id":"4145010900109820000","geometry":{"type":"Point","coordinates":[127.1856398,37.5671152]},"properties":{"pnu":"4145010900109820000","municipality_code":"41450","municipality":"하남시","district":"하남시","locality":"망월동","address":"하남시 망월동 982","owner_type":"경기도유지","owner_label":"경기도","manager":"소방재난본부 회계장비담당관","property_class":"행정재산","land_category":"대","area_sqm":1801.9,"area_band":"1,000~3,000㎡","interest_category":"대","solar_candidate":"검토필요","candidate_reason":"청사·공공건축물·주차장 현황 추가 확인 필요; 면적 1,802㎡","priority_score":53,"source":"경기부동산포털 국공유지조회·연속지적도","source_date":"2026-08-11","installed_solar_match":true,"installed_solar_count":3,"installed_solar_area_sqm":163.0,"installed_solar_analysis_years":["2024"],"installed_solar_types":["공공시설물"],"installed_solar_permit_status_counts":{"N":3}}},{"type":"Feature","id":"4145010800107380000","geometry":{"type":"Point","coordinates":[127.2045253,37.5523197]},"properties":{"pnu":"4145010800107380000","municipality_code":"41450","municipality":"하남시","district":"하남시","locality":"덕풍동","address":"하남시 덕풍동 738","owner_type":"경기도유지","owner_label":"경기도(하남소방서)","manager":"소방재난본부 회계장비담당관","property_class":"행정재산","land_category":"대","area_sqm":1653.4,"area_band":"1,000~3,000㎡","interest_category":"대","solar_candidate":"검토필요","candidate_reason":"청사·공공건축물·주차장 현황 추가 확인 필요; 면적 1,653㎡","priority_score":53,"source":"경기부동산포털 국공유지조회·연속지적도","source_date":"2026-08-11","installed_solar_match":false}},{"type":"Feature","id":"4145011500105290000","geometry":{"type":"Point","coordinates":[127.1630901,37.5031349]},"properties":{"pnu":"4145011500105290000","municipality_code":"41450","municipality":"하남시","district":"하남시","locality":"감이동","address":"하남시 감이동 529","owner_type":"경기도유지","owner_label":"경기도","manager":"소방재난본부 회계장비담당관","property_class":"행정재산","land_category":"대","area_sqm":1650.0,"area_band":"1,000~3,000㎡","interest_category":"대","solar_candidate":"검토필요","candidate_reason":"청사·공공건축물·주차장 현황 추가 확인 필요; 면적 1,650㎡","priority_score":53,"source":"경기부동산포털 국공유지조회·연속지적도","source_date":"2026-08-11","installed_solar_match":true,"installed_solar_count":1,"installed_solar_area_sqm":113.9,"installed_solar_analysis_years":["2024"],"installed_solar_types":["공공시설물"],"installed_solar_permit_status_counts":{"N":1}}},{"type":"Feature","id":"4145010100105760009","geometry":{"type":"Point","coordinates":[127.2232985,37.5240361]},"properties":{"pnu":"4145010100105760009","municipality_code":"41450","municipality":"하남시","district":"하남시","locality":"천현동","address":"하남시 천현동 576-9","owner_type":"경기도유지","owner_label":"경기도","manager":"건설국 하천과","property_class":"일반재산","land_category":"체육용지","area_sqm":386.0,"area_band":"100~500㎡","interest_category":"체육용지","solar_candidate":"검토필요","candidate_reason":"체육시설·주차장 상부 활용 가능성 추가 검토; 면적 386㎡","priority_score":50,"source":"경기부동산포털 국공유지조회·연속지적도","source_date":"2026-08-11","installed_solar_match":false}},{"type":"Feature","id":"4145010500105140012","geometry":{"type":"Point","coordinates":[127.2321351,37.4929656]},"properties":{"pnu":"4145010500105140012","municipality_code":"41450","municipality":"하남시","district":"하남시","locality":"상산곡동","address":"하남시 상산곡동 514-12","owner_type":"경기도유지","owner_label":"경기도","manager":"건설국 하천과","property_class":"행정재산","land_category":"잡종지","area_sqm":371.0,"area_band":"100~500㎡","interest_category":"잡종지","solar_candidate":"검토필요","candidate_reason":"실제 이용·점유 여부 확인 후 검토할 잡종지; 면적 371㎡","priority_score":50,"source":"경기부동산포털 국공유지조회·연속지적도","source_date":"2026-08-11","installed_solar_match":false}},{"type":"Feature","id":"4145010500105140005","geometry":{"type":"Point","coordinates":[127.232034,37.4929619]},"properties":{"pnu":"4145010500105140005","municipality_code":"41450","municipality":"하남시","district":"하남시","locality":"상산곡동","address":"하남시 상산곡동 514-5","owner_type":"경기도유지","owner_label":"경기도","manager":"건설국 하천과","property_class":"행정재산","land_category":"잡종지","area_sqm":208.0,"area_band":"100~500㎡","interest_category":"잡종지","solar_candidate":"검토필요","candidate_reason":"실제 이용·점유 여부 확인 후 검토할 잡종지; 면적 208㎡","priority_score":50,"source":"경기부동산포털 국공유지조회·연속지적도","source_date":"2026-08-11","installed_solar_match":false}},{"type":"Feature","id":"4145011100102870001","geometry":{"type":"Point","coordinates":[127.2009961,37.5703485]},"properties":{"pnu":"4145011100102870001","municipality_code":"41450","municipality":"하남시","district":"하남시","locality":"미사동","address":"하남시 미사동 287-1","owner_type":"경기도유지","owner_label":"경기도","manager":"건설국 하천과","property_class":"행정재산","land_category":"잡종지","area_sqm":130.0,"area_band":"100~500㎡","interest_category":"잡종지","solar_candidate":"검토필요","candidate_reason":"실제 이용·점유 여부 확인 후 검토할 잡종지; 면적 130㎡","priority_score":50,"source":"경기부동산포털 국공유지조회·연속지적도","source_date":"2026-08-11","installed_solar_match":false}},{"type":"Feature","id":"4145010600104220029","geometry":{"type":"Point","coordinates":[127.2077107,37.5428036]},"properties":{"pnu":"4145010600104220029","municipality_code":"41450","municipality":"하남시","district":"하남시","locality":"신장동","address":"하남시 신장동 422-29","owner_type":"경기도유지","owner_label":"경기도(교육감)","manager":"","property_class":"","land_category":"잡종지","area_sqm":114.0,"area_band":"100~500㎡","interest_category":"잡종지","solar_candidate":"검토필요","candidate_reason":"실제 이용·점유 여부 확인 후 검토할 잡종지; 면적 114㎡","priority_score":50,"source":"경기부동산포털 국공유지조회·연속지적도","source_date":"2026-08-11","installed_solar_match":false}},{"type":"Feature","id":"4145010100102870006","geometry":{"type":"Point","coordinates":[127.2012535,37.5295781]},"properties":{"pnu":"4145010100102870006","municipality_code":"41450","municipality":"하남시","district":"하남시","locality":"천현동","address":"하남시 천현동 287-6","owner_type":"경기도유지","owner_label":"경기도","manager":"건설국 하천과","property_class":"행정재산","land_category":"공장용지","area_sqm":568.0,"area_band":"500~1,000㎡","interest_category":"공장용지","solar_candidate":"검토필요","candidate_reason":"지목·면적 기준 1차 검토 대상; 면적 568㎡","priority_score":42,"source":"경기부동산포털 국공유지조회·연속지적도","source_date":"2026-08-11","installed_solar_match":false}},{"type":"Feature","id":"4145010300100470005","geometry":{"type":"Point","coordinates":[127.2347816,37.5422588]},"properties":{"pnu":"4145010300100470005","municipality_code":"41450","municipality":"하남시","district":"하남시","locality":"창우동","address":"하남시 창우동 47-5","owner_type":"경기도유지","owner_label":"경기도","manager":"건설국 도로정책과","property_class":"행정재산","land_category":"도로","area_sqm":8729.0,"area_band":"5,000㎡ 이상","interest_category":"도로","solar_candidate":"검토필요","candidate_reason":"도로점용 및 실제 이용형태 추가 검토 필요; 면적 8,729㎡","priority_score":40,"source":"경기부동산포털 국공유지조회·연속지적도","source_date":"2026-08-11","installed_solar_match":false}},{"type":"Feature","id":"4145010300101190000","geometry":{"type":"Point","coordinates":[127.2299898,37.5442641]},"properties":{"pnu":"4145010300101190000","municipality_code":"41450","municipality":"하남시","district":"하남시","locality":"창우동","address":"하남시 창우동 119","owner_type":"경기도유지","owner_label":"경기도","manager":"건설국 도로정책과","property_class":"행정재산","land_category":"도로","area_sqm":8229.0,"area_band":"5,000㎡ 이상","interest_category":"도로","solar_candidate":"검토필요","candidate_reason":"도로점용 및 실제 이용형태 추가 검토 필요; 면적 8,229㎡","priority_score":40,"source":"경기부동산포털 국공유지조회·연속지적도","source_date":"2026-08-11","installed_solar_match":false}},{"type":"Feature","id":"4145010300100540001","geometry":{"type":"Point","coordinates":[127.2311289,37.5407427]},"properties":{"pnu":"4145010300100540001","municipality_code":"41450","municipality":"하남시","district":"하남시","locality":"창우동","address":"하남시 창우동 54-1","owner_type":"경기도유지","owner_label":"경기도","manager":"건설국 도로정책과","property_class":"행정재산","land_category":"도로","area_sqm":5408.0,"area_band":"5,000㎡ 이상","interest_category":"도로","solar_candidate":"검토필요","candidate_reason":"도로점용 및 실제 이용형태 추가 검토 필요; 면적 5,408㎡","priority_score":40,"source":"경기부동산포털 국공유지조회·연속지적도","source_date":"2026-08-11","installed_solar_match":false}},{"type":"Feature","id":"4145010300100050010","geometry":{"type":"Point","coordinates":[127.237916,37.5421663]},"properties":{"pnu":"4145010300100050010","municipality_code":"41450","municipality":"하남시","district":"하남시","locality":"창우동","address":"하남시 창우동 5-10","owner_type":"경기도유지","owner_label":"경기도","manager":"건설국 하천과","property_class":"행정재산","land_category":"대","area_sqm":351.0,"area_band":"100~500㎡","interest_category":"대","solar_candidate":"검토필요","candidate_reason":"청사·공공건축물·주차장 현황 추가 확인 필요; 면적 351㎡","priority_score":40,"source":"경기부동산포털 국공유지조회·연속지적도","source_date":"2026-08-11","installed_solar_match":false}},{"type":"Feature","id":"4145011100103030003","geometry":{"type":"Point","coordinates":[127.2007235,37.5710531]},"properties":{"pnu":"4145011100103030003","municipality_code":"41450","municipality":"하남시","district":"하남시","locality":"미사동","address":"하남시 미사동 303-3","owner_type":"경기도유지","owner_label":"경기도","manager":"건설국 도로정책과","property_class":"행정재산","land_category":"대","area_sqm":134.0,"area_band":"100~500㎡","interest_category":"대","solar_candidate":"검토필요","candidate_reason":"청사·공공건축물·주차장 현황 추가 확인 필요; 면적 134㎡","priority_score":40,"source":"경기부동산포털 국공유지조회·연속지적도","source_date":"2026-08-11","installed_solar_match":false}},{"type":"Feature","id":"4145010100102880005","geometry":{"type":"Point","coordinates":[127.2014457,37.529855]},"properties":{"pnu":"4145010100102880005","municipality_code":"41450","municipality":"하남시","district":"하남시","locality":"천현동","address":"하남시 천현동 288-5","owner_type":"경기도유지","owner_label":"경기도","manager":"건설국 하천과","property_class":"행정재산","land_category":"공장용지","area_sqm":445.0,"area_band":"100~500㎡","interest_category":"공장용지","solar_candidate":"검토필요","candidate_reason":"지목·면적 기준 1차 검토 대상; 면적 445㎡","priority_score":37,"source":"경기부동산포털 국공유지조회·연속지적도","source_date":"2026-08-11","installed_solar_match":false}},{"type":"Feature","id":"4145010100102880008","geometry":{"type":"Point","coordinates":[127.2015775,37.5301099]},"properties":{"pnu":"4145010100102880008","municipality_code":"41450","municipality":"하남시","district":"하남시","locality":"천현동","address":"하남시 천현동 288-8","owner_type":"경기도유지","owner_label":"경기도","manager":"건설국 하천과","property_class":"행정재산","land_category":"공장용지","area_sqm":147.0,"area_band":"100~500㎡","interest_category":"공장용지","solar_candidate":"검토필요","candidate_reason":"지목·면적 기준 1차 검토 대상; 면적 147㎡","priority_score":37,"source":"경기부동산포털 국공유지조회·연속지적도","source_date":"2026-08-11","installed_solar_match":false}},{"type":"Feature","id":"4145010300100150004","geometry":{"type":"Point","coordinates":[127.2372896,37.5418549]},"properties":{"pnu":"4145010300100150004","municipality_code":"41450","municipality":"하남시","district":"하남시","locality":"창우동","address":"하남시 창우동 15-4","owner_type":"경기도유지","owner_label":"경기도","manager":"건설국 도로정책과","property_class":"행정재산","land_category":"도로","area_sqm":4875.0,"area_band":"3,000~5,000㎡","interest_category":"도로","solar_candidate":"검토필요","candidate_reason":"도로점용 및 실제 이용형태 추가 검토 필요; 면적 4,875㎡","priority_score":35,"source":"경기부동산포털 국공유지조회·연속지적도","source_date":"2026-08-11","installed_solar_match":false}},{"type":"Feature","id":"4145010400200020001","geometry":{"type":"Point","coordinates":[127.2399322,37.5417732]},"properties":{"pnu":"4145010400200020001","municipality_code":"41450","municipality":"하남시","district":"하남시","locality":"배알미동","address":"하남시 배알미동 산2-1","owner_type":"경기도유지","owner_label":"경기도","manager":"건설국 도로정책과","property_class":"행정재산","land_category":"도로","area_sqm":3489.0,"area_band":"3,000~5,000㎡","interest_category":"도로","solar_candidate":"검토필요","candidate_reason":"도로점용 및 실제 이용형태 추가 검토 필요; 면적 3,489㎡","priority_score":35,"source":"경기부동산포털 국공유지조회·연속지적도","source_date":"2026-08-11","installed_solar_match":false}},{"type":"Feature","id":"4145010300101350017","geometry":{"type":"Point","coordinates":[127.2282695,37.5447892]},"properties":{"pnu":"4145010300101350017","municipality_code":"41450","municipality":"하남시","district":"하남시","locality":"창우동","address":"하남시 창우동 135-17","owner_type":"경기도유지","owner_label":"경기도","manager":"건설국 도로정책과","property_class":"행정재산","land_category":"도로","area_sqm":3117.0,"area_band":"3,000~5,000㎡","interest_category":"도로","solar_candidate":"검토필요","candidate_reason":"도로점용 및 실제 이용형태 추가 검토 필요; 면적 3,117㎡","priority_score":35,"source":"경기부동산포털 국공유지조회·연속지적도","source_date":"2026-08-11","installed_solar_match":false}}]}